{"type":"FeatureCollection","features":[{"type":"Feature","properties":{"shapeName":"Anhui Province","shapeISO":"CHN","shapeID":"43563684B75549295130005","shapeGroup":"CHN","shapeType":"ADM1"},"geometry":{"type":"Polygon","coordinates":[[[118.29055000100004,29.512701785000047],[118.31395859500003,29.48723452300004],[118.42738061200009,29.55739431300003],[118.55066541400004,29.573479148000047],[118.8403846980001,29.793048076000048],[118.84654893800007,29.94806280100005],[118.96366950000004,29.99078306100006],[119.0068191800001,30.427603469000076],[119.30270270400001,30.374436614000047],[119.46297294700003,30.49667707800006],[119.37050934600006,30.67179752100003],[119.6355716710001,30.862476574000027],[119.73999731800006,31.22506099000003],[119.505382918,31.277264700000046],[119.43437087400002,31.331197271000065],[119.32390769100004,31.358151976000045],[119.12665200900005,31.300863999000057],[118.94123166500003,31.341306191000058],[118.901780529,31.432237567000072],[118.96095723300004,31.496173501000044],[118.98857303000011,31.68436194800006],[118.8426038240001,31.731349618000024],[118.79920757500008,31.79508050000004],[118.61378723200005,31.898968169000057],[118.49148871000011,32.11641668800007],[118.71241507400009,32.26665535500007],[118.83076848300004,32.423306172000025],[118.74397598400003,32.58633381400006],[118.75975643700008,32.66275497500004],[118.98462791700001,32.66275497500004],[119.14637757700007,32.58965783100007],[119.2292249620001,32.66275497500004],[119.19371893900006,32.86180701100005],[119.15821291600002,32.94130310300005],[119.02013393900006,33.03726560400003],[118.9057256420001,33.027343287000065],[118.834713598,32.82866258700005],[118.55066541400004,32.82534746300007],[118.41653154900007,32.911500431000036],[118.35735484400004,33.103385815000024],[118.29423302700002,33.248675228000025],[118.11275779900006,33.304745223000054],[118.09697734300005,33.37725290800006],[118.21138563900001,33.61741350300008],[118.23191285400003,33.83001185300003],[118.01376385000003,33.805846459000065],[117.88449036500003,33.81255975400006],[117.83762872800003,33.95073633900006],[117.74067361300001,34.06325823700007],[117.46111970400011,34.12748948900003],[117.22034784000004,34.128827122000075],[117.06360374000008,34.30654350300006],[117.05869134700004,34.477970371000026],[116.96147768600008,34.508655678000025],[116.70086234300004,34.571695559000034],[116.53642647200002,34.69933253000005],[116.45645125200008,34.73220183800004],[116.3758444560001,34.69664831500006],[116.2696651010001,34.706579856000076],[116.2628151020001,34.66940533800005],[116.28806382800008,34.57382777600003],[116.37643437500003,34.48022154300003],[116.53550135800003,34.39901108500004],[116.62134703100003,34.388593782000044],[116.65417037700001,34.35733409100004],[116.676894231,34.28852172200004],[116.68699372200001,34.194595796000044],[116.71476732200006,34.15072784500006],[116.73244143000011,34.05037266800008],[116.62639677600009,33.99805723400004],[116.5077277580001,33.89332968000008],[116.31836230200008,33.83043133000007],[116.23504150200006,33.884945911000045],[116.13657146500009,34.02317266700004],[116.05325066500006,34.12565021000006],[115.96740499200007,34.15908540300006],[115.82348724400003,34.161174663000054],[115.74521619000006,34.09429270100003],[115.71239284400008,33.96874650900003],[115.75784055300005,33.78427643800006],[115.73511669900006,33.69399275600006],[115.48767917000009,33.630947898000045],[115.42708222400006,33.48787532800003],[115.43970658800004,33.40360436700007],[115.4119329880001,33.29181933600006],[115.27811473300005,33.20313311500007],[115.03825182300011,33.20524573700004],[115.00037873100007,33.12915922700006],[115.04835131200002,33.05935528100002],[115.22761727800003,33.03184154300004],[115.34376142400004,32.93653534900005],[115.30083858700004,32.82627571100005],[115.34123655100007,32.70100747400005],[115.53312687900006,32.68613345000006],[115.6467461530001,32.53299976200003],[115.79066389900004,32.511710495000045],[115.86893495400011,32.60321853700003],[116.01790244500012,32.656377966000036],[115.99012884500007,32.486156720000054],[116.08102426500011,32.266521918000024],[115.9749796100001,31.924285600000076],[115.78308928000001,31.898566249000055],[115.58614920700006,31.795616995000046],[115.54575124300004,31.673215666000033],[115.51292789600006,31.51406773700006],[115.48626782300005,31.518355946000042],[115.67073244300002,31.307605571000067],[115.93505505900009,31.270520960000056],[116.1086400590001,31.15580364500005],[116.124420514,31.054467018000025],[115.89560392300007,30.83453396400006],[116.03368290000003,30.603909575000046],[116.01001221900003,30.46459050800007],[116.13625585600005,30.365927232000047],[116.17444455500004,30.26607395800005],[116.22494201100005,30.150427941000032],[116.22494201100005,30.058687504000034],[116.2457002110001,29.88968471800007],[116.24671903800004,29.88138254300003],[116.65701085700005,30.014698381000073],[116.72802290300001,30.13760032400006],[116.81876051800009,30.147835258000043],[116.97656506400006,30.001033190000044],[116.92133347300012,29.83348201700005],[116.81481540400011,29.754738425000028],[116.85032142700004,29.655364793000047],[116.96867483800008,29.63479245900004],[117.18565608900008,29.823214628000073],[117.20932677100006,29.93267901400003],[117.26455836200012,29.977114576000076],[117.3552959760001,29.973697161000075],[117.42236290900007,29.91558312500007],[117.49732006700003,29.898484301000053],[117.61961859100006,29.730760690000068],[117.70246597700009,29.682788027000072],[118.08908711700008,29.641650371000026],[118.20349541300004,29.60735614600003],[118.29055000100004,29.512701785000047]]]}}]}
