{"type":"FeatureCollection","features":[{"type":"Feature","properties":{"shapeName":"Beijing Municipality","shapeISO":"CHN","shapeID":"43563684B17418114845297","shapeGroup":"CHN","shapeType":"ADM1"},"geometry":{"type":"Polygon","coordinates":[[[117.03319528000009,39.77543450500008],[117.027851542,39.77589083400005],[117.05448105800008,39.89006551500006],[116.83700666800007,40.03803885200006],[116.8450555610001,40.09470911300008],[117.02119416300002,40.150080771000034],[117.11883572600004,40.14668827200006],[117.29679354500001,40.153405484000075],[117.49548738900012,40.30002925500003],[117.50232562800011,40.30506980200005],[117.36018791700008,40.425661655000056],[117.32752237500006,40.52829299100006],[117.34882598900003,40.60489394600006],[117.50647273100003,40.71048078000007],[117.47238694900011,40.76428722000003],[117.40989634700009,40.76321151800005],[117.27923418300009,40.79332460000006],[117.17413635600008,40.752453538000054],[117.14005057500003,40.75352941500006],[116.75232480400007,41.073364550000065],[116.69693540900005,41.07550586600007],[116.62166264000007,41.06694018300004],[116.49100047500008,40.97800538400003],[116.47537782600011,40.894318662000046],[116.368859756,40.91364039300004],[116.39726457600011,40.76321151800005],[116.24387855600003,40.75137764400006],[115.93426603700004,40.62753376400008],[115.89876001400012,40.542325075000065],[115.99391615500008,40.44511963900004],[115.91438266300008,40.30662943400006],[115.76099664300011,40.26871147300005],[115.60608497600003,40.115511757000036],[115.54020466000009,39.950909412000044],[115.57141112500005,39.831191268000055],[115.6719652920001,39.72993316900005],[115.84186715900012,39.628526125000064],[116.27529029000004,39.66857300800007],[116.38971399700006,39.604486863000034],[116.55268109500003,39.57509420400004],[116.55961586400008,39.64988735000003],[116.660170031,39.695258042000034],[116.87861529000008,39.69792597900005],[116.90421809400004,39.70628278500004],[116.993038995,39.735266257000035],[117.03319528000009,39.77543450500008]]]}}]}
