{"type":"FeatureCollection","features":[{"type":"Feature","properties":{"shapeName":"Chongqing Municipality","shapeISO":"CHN","shapeID":"43563684B97743196909507","shapeGroup":"CHN","shapeType":"ADM1"},"geometry":{"type":"Polygon","coordinates":[[[109.33744975400003,28.612592041000028],[109.34671525100003,29.236236752000025],[109.32884620600004,29.24048923600003],[109.25992275100003,29.25689002000007],[109.14945956800005,29.31882480200005],[109.00885571600008,29.508660946000077],[108.99875622500008,29.550401974000067],[109.00380597200007,29.625053423000054],[108.99875622500008,29.74788822900007],[108.90028619000009,29.750080342000047],[108.82958975300005,29.800485724000055],[108.70020975000006,29.95874458800006],[108.56459646700006,29.90532418400005],[108.60487607800007,30.167892650000056],[108.62759993400005,30.287878714000044],[108.64274917000006,30.38158392300005],[108.53165476900006,30.540459231000057],[108.56447811400005,30.55350594500004],[108.62002531600007,30.586115060000054],[108.65537353300004,30.61871320800003],[108.69829637100008,30.67084741800005],[108.80434102400005,30.638266830000077],[108.89018669900008,30.644783827000026],[108.98108211700008,30.668675720000067],[109.05430342700004,30.707758806000072],[109.10227600900004,30.72078298400004],[109.18054706400005,30.72078298400004],[109.27144248200005,30.694732870000053],[109.42798459200009,30.707758806000072],[109.54917848400004,30.72078298400004],[109.62239979300006,30.76635375400008],[109.69562110200008,30.818408223000063],[109.78399164800004,30.90077012000006],[109.90771041300007,30.987390365000067],[109.98345659600005,30.987390365000067],[110.13494895900004,30.95924739900005],[110.15009819500006,30.96790765700007],[110.20564539700007,31.030671031000054],[110.21322001400006,31.164716089000024],[110.20059565000008,31.24677915500007],[110.22331950600005,31.30072916200004],[110.25614285200004,31.350335905000065],[110.25866772300009,31.41931047500003],[110.24099361400005,31.51406773700006],[110.19049615900008,31.597976884000047],[110.02637943100007,31.711886186000072],[110.02132968600006,31.91999954000005],[109.73082396200004,31.972288990000038],[109.72939127600006,31.94919436500004],[109.28359343200009,31.90566657900007],[109.23230695400008,32.07296826600003],[108.95614899900005,32.11975801800003],[108.69871478700009,32.29969266300003],[108.69577149800006,32.23996438800003],[108.68393615600007,32.139803431000075],[108.60897899700007,32.04956440600006],[108.57741808700007,31.999393118000057],[108.58925342800006,31.94919436500004],[108.65632036100004,31.895618781000053],[108.74311286100004,31.831957259000035],[108.75889331500008,31.791727337000054],[108.73522263400008,31.70450243500005],[108.61292411000005,31.633991609000077],[108.48273536000005,31.526443700000073],[108.33676615500008,31.358151976000045],[108.24997365400009,31.176057988000025],[108.19868717600008,31.04432741000005],[108.14740069900006,30.96655454300003],[108.06455331200004,30.922567916000048],[107.97776081100005,30.905644593000034],[107.75683444700007,30.92933640600006],[107.68976751400004,30.89887442500003],[107.63453592300004,30.831146428000068],[107.62664569600008,30.71929072100005],[107.60297501500008,30.61070051400003],[107.51160618200004,30.499133071000074],[107.37273818000006,30.38158392300005],[107.25911890700007,30.24208313300005],[107.15559912500004,30.17007551900008],[106.96118392400007,30.18535426300008],[106.87028850500008,30.24208313300005],[106.77686821400005,30.32929439800006],[106.73899512300005,30.38376204700006],[106.66829868600007,30.46431847100007],[106.60517686800006,30.41425067700004],[106.53700530400005,30.388118147000057],[106.49155759300004,30.364157187000046],[106.33754035700008,30.401185287000033],[106.28199315700004,30.42731431800007],[106.16079926400005,30.47955139000004],[106.05727948300006,30.527410764000024],[105.95880944500004,30.523060884000074],[105.81994144600009,30.46431847100007],[105.76439424600005,30.38594012200008],[105.75429475300007,30.33583211800004],[105.76691911700004,30.27261589400007],[105.83761555400008,30.176623842000026],[105.86033940800007,30.113305166000032],[105.84266529900003,30.052131357000064],[105.59775264400008,29.90997503400007],[105.46898413400004,29.824583675000042],[105.37303897000004,29.72815704900006],[105.38566333300008,29.679908940000075],[105.44626027900006,29.609688523000045],[105.50938209800006,29.480091376000075],[105.60785213500009,29.414130857000032],[105.70127242600006,29.400933611000028],[105.76439424600005,29.39873390400004],[105.83256580800008,29.28868790000007],[105.85276479000004,29.18513643500006],[105.87296377200005,29.09913130600006],[106.13050079300007,29.061619376000067],[106.20372210200009,29.03954715800006],[106.27189366600004,29.010846213000036],[106.35521446500007,28.90259409400005],[106.38046319400007,28.774312869000028],[106.38803781200005,28.707898516000057],[106.37215745100008,28.674813466000046],[106.39369352800009,28.63364164400008],[106.51327150000009,28.67192860800003],[106.55366946400005,28.73854291600003],[106.56174905500006,28.822105045000058],[106.54720578900009,28.897112203000063],[106.60214702000007,28.861738211000045],[106.64254498400004,28.823520775000077],[106.65385641400007,28.806530743000053],[106.65385641400007,28.73995978000005],[106.65062457700009,28.69035808500007],[106.68132703000003,28.654913905000058],[106.71041356200004,28.632223340000053],[106.77181846900004,28.61520219500005],[106.81383235000004,28.632223340000053],[106.84938255900005,28.676181851000024],[106.88008501200005,28.71870479100005],[106.90593970800006,28.77820786500007],[106.92694665000005,28.815026105000072],[106.98511971800008,28.93813093700004],[107.09015442400005,28.99750859900007],[107.16287075800005,29.024358729000028],[107.24043485000004,29.017293581000047],[107.28729648700005,28.983374152000067],[107.34546955600007,28.95934115500006],[107.40687446100009,28.94944359300007],[107.49251814400009,28.979133439000066],[107.54422753800009,29.04413856700006],[107.55715488600003,29.07521351300005],[107.56200264100005,29.113338139000064],[107.55392304800006,29.16556005800004],[107.51352508500008,29.24595807600008],[107.52483651500006,29.30515833800007],[107.54261161800008,29.334745605000023],[107.57816182800008,29.347423234000075],[107.62017571000007,29.34883176200003],[107.64926224300007,29.34178892700004],[107.69450796300004,29.32065750000004],[107.78984715800004,29.28401932400004],[107.84963614500003,29.255827168000053],[107.87872267800009,29.221986320000042],[107.88518635300005,29.20647219400007],[107.92396839800006,29.13451238500005],[107.98052554700007,29.12039670400003],[108.09525576500005,29.19659834600003],[108.36349824400008,29.18813428900006],[108.42328723100007,29.08651116900006],[108.43944641600007,29.03142339200008],[108.44429417200007,28.94237332700004],[108.43621457900008,28.871644143000026],[108.44106233400004,28.836261481000065],[108.49923540300006,28.775375155000063],[108.54286520400007,28.758377274000054],[108.63820439800008,28.741376626000033],[108.67537052600005,28.73995978000005],[108.64951582800006,28.591084183000078],[108.66108580500008,28.558104490000062],[108.66418836900004,28.539935701000047],[108.70245332000007,28.46541091200004],[108.70969263600006,28.457228158000078],[108.71796613900005,28.459046603000047],[108.75312852600007,28.477229329000068],[108.76347040400009,28.488137462000054],[108.76760715700004,28.503588722000075],[108.76760715700004,28.543569709000053],[108.76967553200006,28.572637264000036],[108.76864134400006,28.584443666000027],[108.77070972000007,28.598064790000024],[108.77794903500006,28.604420709000067],[108.80690629600008,28.613499928000067],[108.82345330200008,28.602604771000074],[108.85034218700008,28.57899472300005],[108.86482081600008,28.51994641400006],[108.86792338100008,28.468138356000054],[108.86688919200009,28.431766651000032],[108.87412850800007,28.380825254000058],[108.90411995500006,28.357165568000028],[108.94962422200007,28.34533374800003],[109.07372676800009,28.344423552000023],[109.13164128900007,28.35625547500007],[109.18541905700005,28.397201946000052],[109.20713700200008,28.435404383000048],[109.22575238600007,28.474502120000068],[109.23609426400009,28.549020486000074],[109.25057289500006,28.576270144000034],[109.29607716100008,28.598064790000024],[109.31676091800006,28.612592041000028],[109.33744975400003,28.612592041000028]]]}}]}
