{"type":"FeatureCollection","features":[{"type":"Feature","properties":{"shapeName":"Fujian Province","shapeISO":"CHN","shapeID":"43563684B30737817496648","shapeGroup":"CHN","shapeType":"ADM1"},"geometry":{"type":"MultiPolygon","coordinates":[[[[118.48217824100004,24.455170363000036],[118.44099125500009,24.49394913200007],[118.40442258700011,24.491339091000043],[118.33021246300007,24.452584689000048],[118.3131695720001,24.398273244000052],[118.445251976,24.391806040000063],[118.48217824100004,24.455170363000036]]],[[[119.90241915700005,25.527440884000043],[119.84845000300004,25.628644174000044],[119.744404271,25.62422953500004],[119.71494735700003,25.524877665000076],[119.76465578900002,25.42486947200007],[119.90241915700005,25.527440884000043]]],[[[120.11426147400005,26.65611017300006],[120.12021839700003,26.721307989000024],[120.09080609400007,26.77084666500008],[120.06456927500005,26.788971419000063],[119.9753907270001,26.67740335600007],[119.95975380700008,26.60385850800003],[120.04240610200009,26.575892398000065],[120.11426147400005,26.65611017300006]]],[[[120.54140008200011,27.28741374300006],[120.41178698500005,27.39397407900003],[120.2388836990001,27.43700716400008],[120.01103918400008,27.363840949000064],[119.89792488400008,27.356665184000065],[119.694319145,27.68626773300008],[119.61079635600004,27.69994989500003],[119.50727657400012,27.559022164000055],[119.2977121350001,27.491850020000072],[119.04774973400004,27.55230679700003],[118.93918020800004,27.96119015800008],[118.84575991500003,28.101596975000064],[118.89625737000006,28.252941258000078],[118.82051118900006,28.35519961400007],[118.59094838800002,28.390088225000056],[118.48902301400005,28.300383434000025],[118.45203757200011,28.153741377000074],[117.87620878300004,27.972340247000034],[117.85348492900005,27.90095978900007],[117.72471641800007,27.916578293000043],[117.65906972800008,28.005783594000036],[117.55554994400006,28.008012782000037],[117.39648296200005,27.938886529000058],[117.36365961600006,27.845161016000077],[117.2626647080001,27.724537703000067],[117.19196827000007,27.543352335000066],[117.23741597900005,27.337198581000052],[117.03290128800006,27.108187816000054],[116.65922012200008,27.000255409000033],[116.6036729220001,26.702907459000073],[116.68194397700006,26.54038925800006],[116.6364962670001,26.47260523600005],[116.47742928500008,26.35501831700003],[116.5077277580001,26.182945336000046],[116.36901756200007,26.010617884000055],[116.25066415100002,25.964517027000056],[116.22699347000002,25.804797748000055],[116.124420514,25.71597160500005],[116.02973778700004,25.29581901800003],[115.91532949100008,25.25657752500007],[115.90743926300001,25.14234839200003],[115.96841599700008,24.97318308900003],[116.12378550900007,24.960378485000035],[116.20341797600008,24.921931108000024],[116.33889658700002,24.934123038000052],[116.4505888760001,24.85626153900006],[116.55297347700002,24.684417879000023],[116.72361447700007,24.741725517000077],[116.78773412500004,24.724817811000037],[116.8131363650001,24.570546555000078],[117.03290128800006,24.29101290400007],[116.98492870500002,24.073212074000025],[117.10864747000005,23.835549805000028],[117.10864747000005,23.754691292000075],[117.176588766,23.711874153000053],[117.2148537160001,23.66831035900003],[117.22161590400003,23.642915019000043],[117.34074836900004,23.61636651200007],[117.40732216200001,23.764711093000074],[117.53381236900009,23.748462379000046],[117.524935862,23.94331280800003],[117.68027471300002,23.892598729000042],[117.72021898900005,24.056839996000065],[117.86002395500009,24.056839996000065],[118.09081310200008,24.251224411000067],[117.957665517,24.489748676000033],[118.13741475800009,24.47965085100003],[118.26210192600001,24.57075433800003],[118.4597428730001,24.636958397000058],[118.65044905000002,24.60228445000007],[118.77180752700008,24.76926125500006],[118.69205767000005,24.81333094300004],[118.66085120600007,24.932869637000067],[118.93130723900003,24.904568294000057],[118.97985063100009,24.961164482000072],[118.94170939500009,25.089980857000057],[119.16362203800009,25.231208733000074],[119.26764358900004,25.246890617000076],[119.21591020300002,25.357108425000035],[119.25585448000004,25.49339367400006],[119.35127691700006,25.55146839300005],[119.59538082300003,25.415248919000078],[119.61979121500008,25.489387485000066],[119.59538082300003,25.579494401000034],[119.5509982960001,25.66353303900007],[119.68192675500006,25.791478064000046],[119.67083112400007,25.837424646000045],[119.62422946800007,25.907309128000065],[119.6641737440001,26.050941291000072],[119.63532510100003,26.126676324000073],[119.67970762900006,26.246158010000045],[119.83726560600007,26.40130067000007],[119.68192675500006,26.623705174000065],[119.69746064000003,26.752581306000025],[119.87499075500011,26.736727495000025],[119.90383939700007,26.651475420000054],[119.97911216700004,26.850271183000075],[120.25889962800011,26.973115456000073],[120.26971787000002,27.09833477500007],[120.40494588600006,27.18473057500006],[120.33462687300005,27.253103090000025],[120.46824313800005,27.228858849000062],[120.54140008200011,27.28741374300006]]]]}}]}
