{"type":"FeatureCollection","features":[{"type":"Feature","properties":{"shapeName":"Gansu Province","shapeISO":"CHN","shapeID":"43563684B11053367304830","shapeGroup":"CHN","shapeType":"ADM1"},"geometry":{"type":"Polygon","coordinates":[[[105.82575884100004,32.994325169000035],[105.99731375500005,33.18596616900004],[106.07227091400006,33.28495992500007],[106.01309421000008,33.45299181400003],[105.88685057300006,33.52208701100005],[105.89079568600005,33.58455418900007],[106.00914909700003,33.656828148000045],[106.13933784700004,33.702789092000046],[106.54568455300006,33.69622474800008],[106.55357478200006,33.96167901800004],[106.50623341700003,34.06959048400006],[106.62458682600004,34.24587668800007],[106.74294023700008,34.40552124300007],[106.76661091800008,34.490107167000076],[106.62064171300005,34.57785568200006],[106.42733114500004,34.636303292000036],[106.43916648400005,34.72389752600003],[106.57330035000007,34.81787695200006],[106.60486125800008,34.97642637700005],[106.55357478200006,35.034592118000035],[106.57724546300005,35.137895711000056],[106.86523876000007,35.20239398500007],[107.07827489800007,35.17337609200007],[107.28342080800007,35.03136177300007],[107.87913297000006,35.12176315000005],[107.82784649300004,35.22173348900003],[107.82390137900006,35.389149399000075],[107.88307808400003,35.41809004500004],[108.04088263100004,35.340891906000024],[108.24208342700007,35.40201319100004],[108.53796695100004,35.379500208000024],[108.64843013300003,35.43737803500005],[108.68788127000005,35.636416575000055],[108.57741808700007,35.751760509000064],[108.61292411000005,35.99152396900007],[108.76678354400008,36.08084951600006],[108.78256399700007,36.42761483900006],[108.65237524600008,36.532295014000056],[108.54980229000006,36.56081960300003],[108.32887592600008,36.703284567000026],[108.20657740400009,36.66215508000005],[107.94225478800007,36.84864298600007],[107.68582240100005,36.914910580000026],[107.42544489800008,37.00002723700004],[107.33470728600008,37.18569155500006],[107.34676546600008,37.21850670500004],[107.03844503100004,37.19370199900004],[106.88816460300006,37.279897464000044],[106.74919560800004,37.28246894700004],[106.63284947300008,37.00940316100008],[106.71849315500003,36.91902358500005],[106.72980458500007,36.869915469000034],[106.54558987100006,36.798781991000055],[106.53195555800005,36.54953780200003],[106.58245301300008,36.391165681000075],[107.01925599700007,36.179500043000075],[106.97633316000008,36.01833227000003],[106.92583570500005,35.85274138400007],[106.79454232300009,35.79746737700003],[106.66829868600007,35.82408559300006],[106.56174905500006,35.77501924100005],[106.54882170700006,35.47949208500006],[106.36460699300005,35.42025567400003],[106.18039227700007,35.51632828400005],[105.95739551700007,35.53342506300004],[105.83458570600004,35.77633025600005],[105.53564077400006,35.83661354000003],[105.40959912600005,35.98058356300004],[105.39990361700006,36.10471034600005],[105.52958108000007,36.23857990500005],[105.50433235200006,36.417583500000035],[105.35788973300004,36.61644393200004],[105.31749177000006,36.85722945800006],[105.29508352400006,36.97481740500007],[104.99525488700004,37.188834486000076],[104.89662704400007,37.317581999000026],[104.75065783900004,37.30816891000006],[104.75854806700005,37.45237334800004],[104.54273383900005,37.57352119500007],[104.50975933700005,37.54607475500006],[104.30559970500008,37.52671813300003],[103.97938812000007,37.623450982000065],[103.96385423400005,37.69372319100006],[103.63542352300004,37.79900673900005],[103.61767051100009,38.05457048000005],[103.72640770600003,38.223871289000044],[103.73084595900008,38.42234087000003],[104.02155152200004,38.46579222200006],[104.13916522200009,38.56476346200003],[104.15469910700006,38.772678916000075],[104.12141221200005,38.87468248700003],[104.24790241700003,39.007585885000026],[104.21919246900006,39.21603787500004],[103.83431272900003,39.454721705000054],[103.38008528700004,39.46810672700008],[102.83223844900004,39.08428006500003],[102.37454362300008,38.94418579400008],[101.60825152600006,38.92260820300004],[101.39327365300005,38.960364679000065],[101.27884994600004,39.035817302000055],[101.11935023300003,39.04389674000004],[100.91824190000006,39.15422309100006],[100.89743759000004,39.37703783100005],[100.92517667200008,39.457398916000045],[100.88703543500009,39.52697023500008],[100.44039289800008,39.53716594500003],[100.28869480200007,39.68325105400004],[99.97988082200004,39.79573458100003],[99.81734714700008,39.97864749300004],[100.00155197800007,40.173492346000046],[100.43497511000004,40.45440801500007],[100.41872174300005,40.75878141600003],[100.13699670600005,40.91454229100003],[99.05885666700004,40.861296863000064],[98.60918016800008,40.56150796900005],[98.40330418200006,40.536807776000046],[98.23535271800006,40.61499379500003],[97.99696999700006,40.84490503500007],[97.78025843100005,40.97592607800004],[97.42810213600006,41.46088059400006],[97.40101319000007,41.67975711300005],[97.57438244200006,41.95835290900004],[97.40643098000004,42.167507931000046],[97.36665056300006,42.54598349100007],[97.28723961800006,42.52787794200003],[96.40396180600004,42.65992465800008],[96.28444392900008,42.40120571400007],[96.36729131700008,42.223246817000074],[96.05168222500004,42.00375549300003],[95.50725654000007,41.921617250000054],[95.18375722000007,41.733475198000065],[94.89181880900009,41.67162063400008],[94.63538642000003,41.541827700000056],[94.47316334800007,41.326506219000066],[94.09490585000003,41.109281843000076],[93.70828471100003,40.78149608900003],[93.67277868800005,40.71693985100006],[93.63490559600007,40.60968608200005],[93.40514217800006,40.45616734400005],[92.94814021100007,40.41965496800003],[92.88501839400004,40.04957598800007],[92.91926198000004,39.45412675500006],[92.88893391800008,39.22051509500005],[92.61770735400006,39.04359751800007],[92.64618733400005,39.03463173800003],[93.10073720800006,38.89138100200006],[93.30588311800005,38.66379111400005],[93.82663812100009,38.713061269000036],[93.97655244000003,38.534295593000024],[94.36317357900003,38.58982228100007],[94.62355108000008,38.22503350900007],[95.25476926600004,38.339614554000036],[95.85442654100007,38.20333567500006],[96.20159654400004,38.23742936700006],[96.45013870400004,38.125790610000024],[96.69333444700004,38.21517481600006],[96.88562875400004,38.257060082000066],[96.89694018400007,38.49268912600007],[97.08761857300004,38.72628945100007],[97.09408224600008,38.94907557100004],[96.98597341800007,39.108788624000056],[97.12165886700006,39.208353818000035],[97.83417294600008,39.08341573300004],[98.20906604900006,38.83714034900004],[98.48054036700006,39.069616833000055],[98.61950936200009,38.972949001000075],[98.79564448600007,39.08467004400006],[99.13660330000005,39.005604867000045],[99.39999802400007,38.79685087000007],[99.50664864900006,38.79811026100003],[100.03505401500007,38.35089687900006],[100.20149362700005,38.35089687900006],[100.25481894000006,38.497747986000036],[100.45687339600005,38.42679035300006],[100.58083050800008,38.33552990900006],[100.79544469100006,38.23643777600006],[101.12115327400005,38.03188191500004],[101.17165072900008,37.906482821000054],[101.49735931300006,37.760911391000036],[101.59330447600007,37.762907459000076],[101.84074200600008,37.66703539500003],[102.04778156900005,37.76889534500003],[102.12352775300008,37.75891526800007],[102.12352775300008,37.627052097000046],[102.36591553500006,37.494954574000076],[102.40883837200005,37.344559651000054],[102.52498251800006,37.213973227000054],[102.54518150000007,37.12947387200006],[102.54533930600007,36.99057452900007],[102.71103407900006,36.87389456400007],[102.73202208300006,36.62657616600006],[102.90118855600008,36.56373485700004],[102.94663626500005,36.40945589800003],[103.07792964900005,36.29761515000007],[103.01642374900007,36.14125773100005],[102.99460884900009,35.940690853000035],[102.77746979200003,35.65398524700004],[102.74212157400007,35.63551880000006],[102.60830331800008,35.69295594600004],[102.50579348500008,35.536055013000066],[102.41207020900003,35.49791229600004],[102.32804244300007,35.38337546200006],[102.42661347600006,35.268675779000034],[102.41530204700007,35.190798388000076],[102.31834693400003,35.095660355000064],[102.20038487800008,35.030850075000046],[102.05333629000006,34.99379253300003],[101.94830158300005,34.96201556700004],[101.95476525800007,34.63293263300005],[102.00809057000004,34.49986677100003],[101.90628770100005,34.274502109000025],[101.80610075100009,34.25313439100006],[101.69621828800007,34.25447003200003],[101.52493092200007,34.302538997000056],[101.33102069600005,34.39592769800004],[101.19689945600004,34.50386184400003],[101.03291604100008,34.49928081100006],[101.01430066000006,34.192741270000056],[101.13633482900008,34.11828600300004],[101.48453295800005,34.11812546800007],[101.72530482300004,34.04317597800008],[101.81902809900004,33.98022076900003],[101.90143994600004,33.848802437000074],[101.92083096900006,33.78436038000007],[102.32147197400008,33.78566620200007],[102.33289020000007,33.785703417000036],[102.27502011700005,33.95199298600005],[102.27754499000008,34.03154282700007],[102.42651248100003,34.13401024900003],[102.59820382700008,34.16326387200007],[102.75222106500007,34.209213377000026],[102.94916113800008,34.31355092900003],[103.04258143100009,34.323977564000074],[103.13095197700005,34.26974492100004],[103.19912354100006,34.24678980500005],[103.20164841300004,34.15699609200004],[103.18144943000004,34.002243656000076],[103.21679765000005,33.90171262600006],[103.27234485000008,33.83672325100002],[103.46676005100005,33.801062916000035],[103.54503110600007,33.614128135000044],[103.90356303500005,33.340347448000045],[103.97678434400007,33.323471168000026],[104.07525438100004,33.32769054500005],[104.16867467200007,33.41625023000006],[104.23937111000004,33.46260263600004],[104.30249292700006,33.46049624600005],[104.38581372900006,33.28337690700005],[104.43378631000007,33.188343331000056],[104.48933351100004,33.13550229100008],[104.47418427500008,32.949248785000066],[104.67112434700005,32.771094481000034],[104.90341263900007,32.754108753000025],[105.00945729500006,32.71375466500007],[105.08772835000008,32.70738129800003],[105.19882275100008,32.65425219600007],[105.49170799000007,32.75835549000004],[105.48160849800007,32.923820085000045],[105.57755366200007,32.99796668500005],[105.82575884100004,32.994325169000035]]]}}]}
