{"type":"FeatureCollection","features":[{"type":"Feature","properties":{"shapeName":"Guangxi Zhuang Autonomous Region","shapeISO":"CHN","shapeID":"43563684B59914390554750","shapeGroup":"CHN","shapeType":"ADM1"},"geometry":{"type":"Polygon","coordinates":[[[112.00096129100007,24.85742471100008],[111.96945281600006,24.861891727000057],[111.91360667200007,24.86939824600006],[111.76882036800004,24.89097694900005],[111.69849559200009,24.886286247000044],[111.65609389100007,24.84312343700003],[111.62713662900006,24.799945569000045],[111.56301698100009,24.754874366000024],[111.52371784200005,24.76520462800005],[111.51441015100005,24.819659071000046],[111.51234177600008,24.86939824600006],[111.51854690300007,24.915365724000026],[111.51130758700003,25.00256300600006],[111.51854690300007,25.057849659000055],[111.51751271500007,25.103746743000045],[111.51130758700003,25.13277478400005],[111.45442725500004,25.212332395000033],[111.31688026800003,25.226366580000047],[111.28068369200008,25.18425916600006],[111.23000848500004,25.14213719600008],[111.10487175400004,25.055039074000035],[111.09866662500008,25.073775087000058],[111.05212817100005,25.145881961000043],[111.06660680200008,25.240399147000062],[111.11004269200004,25.27313550200006],[111.14830764500005,25.304928078000046],[111.20932472900006,25.361012278000032],[111.23207686200004,25.40305836300007],[111.24448711600007,25.443222045000027],[111.25586318300009,25.46843425900005],[111.37844878500005,25.545239502000072],[111.37844878500005,25.58794540300005],[111.39817435300006,25.67331147300007],[111.40606458000008,25.747956671000054],[111.43368037600004,25.80834941100005],[111.47707662600004,25.868711382000072],[111.49680219400005,25.907752707000043],[111.51258264900008,26.00352662100005],[111.40606458000008,26.007072305000065],[111.35477810200007,26.024799124000026],[111.32321719200007,26.060244725000075],[111.29954651100007,26.106307978000075],[111.31739736200007,26.37501654600004],[111.28992674500006,26.39673016200004],[111.22529000300005,26.42422821300005],[111.12995080900004,26.469079374000046],[111.03127878100008,26.460032556000044],[111.00366298700004,26.438839537000035],[110.93265094100008,26.407042699000044],[110.83796821400006,26.41764261800006],[110.71961480300007,26.438839537000035],[110.38033503000008,26.113393022000025],[110.20675002800004,26.12401978500003],[110.19491468600006,26.20899906300008],[110.18702446000009,26.286842274000037],[110.15940866300008,26.32928021200007],[110.11601241400007,26.35049335000008],[110.03316502700005,26.336351689000026],[110.00160411800005,26.300989980000054],[109.98976877700005,26.240850316000035],[109.96609809500006,26.173598557000048],[109.93453718500007,26.109850554000047],[109.85563491300007,26.042523264000067],[109.73728150300008,26.042523264000067],[109.68204991200008,26.088593486000036],[109.67021457000004,26.116935383000055],[109.53818465300009,26.125609403000055],[109.52392975600009,26.078672201000074],[109.38253688300006,25.94706491100004],[109.31436531900005,25.881206011000074],[109.25376837300007,25.901648915000067],[109.12782771900004,25.92099827000004],[109.05995914100004,25.88756640500003],[109.04379995600004,25.848308221000025],[109.05834322300007,25.801763123000057],[109.08419791900008,25.750833484000054],[109.06803873400008,25.702794099000073],[109.01471342200006,25.67512626100006],[108.94038116800004,25.670757067000068],[108.84019421700003,25.673669880000034],[108.80141217300007,25.663474723000036],[108.67860236200005,25.52648395500006],[108.64305215500008,25.507526084000062],[108.49438764800004,25.587711983000077],[108.32310028000006,25.62122835200006],[108.29239782700006,25.567306118000033],[108.25846353800006,25.51627624300005],[108.18736312100003,25.440420362000054],[108.16958801800007,25.383497075000037],[108.13888556500007,25.329468114000065],[108.12111046100006,25.317783002000056],[108.07263290500003,25.316322284000023],[108.02900310200005,25.31924370200005],[107.99991657000004,25.313400795000064],[107.90942513100003,25.281259764000026],[107.88841818900005,25.25495622300008],[107.84317247000007,25.285643135000043],[107.77368797200006,25.357215731000053],[107.68642837000004,25.40539382600008],[107.64241074900008,25.40772924500004],[107.59897485800008,25.391847504000054],[107.54209452400005,25.40399255400007],[107.49659025800008,25.433882849000042],[107.47073556200007,25.461898267000038],[107.42523129500006,25.49924201300007],[107.41282104100009,25.53284146200008],[107.39420565900008,25.607473207000055],[107.37455609000006,25.62146147800007],[107.30836806600007,25.62146147800007],[107.24528260400007,25.607473207000055],[107.16047919800008,25.56549857400006],[107.12738518800006,25.47216895200006],[107.10049630200007,25.432014922000064],[107.03430827800008,25.364750301000072],[106.99707751500006,25.318016716000045],[106.96191512600006,25.302123186000074],[106.90400060700006,25.288097752000056],[106.74111601500005,25.268108706000078],[106.64254498400004,25.22279971100005],[106.59245150800007,25.173086561000048],[106.43409149000007,25.105795319000038],[106.39046168900006,25.077990294000074],[106.30481800600006,25.057498339000063],[106.25634044800006,25.05603449700004],[106.21917432300006,24.909562101000063],[106.23048575200005,24.881712642000025],[106.18362411500004,24.849458053000035],[106.11898737300004,24.81719505500007],[106.06404614100006,24.795192736000047],[106.03495960800007,24.780522356000063],[105.97355470300005,24.784923652000032],[105.93962041400005,24.812794904000043],[105.81034692800006,24.827461466000045],[105.78126039400007,24.86118796900007],[105.64067548000008,24.897836778000055],[105.57765465600005,24.88904205500006],[105.52594526300004,24.91249325800004],[105.48069954400006,25.000395542000035],[105.38697626700008,25.028218173000027],[105.22053665600004,25.044323130000066],[105.15105215900007,25.009182318000057],[105.08318357800005,24.911027688000047],[105.01854683700009,24.87584879700006],[104.94421458300008,24.874382792000063],[104.90058478200007,24.846525401000065],[104.85857090000007,24.79812660500005],[104.81170926300007,24.783456571000045],[104.75030435700006,24.779055223000057],[104.66304475600003,24.793725778000066],[104.63072638500006,24.806927793000057],[104.59032842100004,24.814261637000072],[104.58104757100006,24.817365169000027],[104.58022893000003,24.797301461000075],[104.54488071000009,24.74227952700005],[104.54235583900004,24.710172148000026],[104.55498020100003,24.655111662000024],[104.58275380100008,24.590843721000056],[104.64840049400004,24.508165018000057],[104.69637307600004,24.46220887900006],[104.72414667600003,24.47599748400006],[104.73424616700004,24.52883980200005],[104.77464413100006,24.54951118100007],[104.91098725900008,24.544917836000025],[104.96148471300006,24.515056990000062],[105.04733038700004,24.533433736000063],[105.07257911400006,24.558697367000036],[105.12307656900003,24.524245699000062],[105.18619838700005,24.47140145000003],[105.21144711500006,24.43692585100007],[105.23164609600008,24.34264447000004],[105.23164609600008,24.262104781000062],[105.24679533300008,24.22757213400007],[105.34526537000005,24.195333211000047],[105.46393438800004,24.15387118700005],[105.51948158900007,24.158478744000035],[105.60027751600006,24.21836184500006],[105.62047649800007,24.22066448000004],[105.66087446200004,24.211453692000077],[105.77196886400009,24.165389766000033],[105.85781453600003,24.11239570500004],[105.94013750800008,24.13066500800005],[105.98564177400004,24.164637866000078],[106.03321441600008,24.171242650000067],[106.07561611900007,24.147652566000033],[106.12112038500004,24.107067435000033],[106.17903490600008,24.027747748000024],[106.20385541500008,23.971060829000066],[106.19868447500005,23.916239762000032],[106.16765883900007,23.754476835000048],[106.15421439700003,23.637996544000032],[106.13973576700005,23.601042091000068],[106.08595799700004,23.583982675000073],[105.87601785900006,23.588721625000062],[105.83154778000005,23.564077221000048],[105.78604351300004,23.497703930000057],[105.74571018600005,23.458812610000052],[105.68365891400003,23.415164805000074],[105.66400934300003,23.393335500000035],[105.57603873800008,23.322662196000067],[105.53706587800008,23.28252977300008],[105.54165312800006,23.280448919000037],[105.58534218000005,23.16930721400007],[105.97022191900004,22.945980801000076],[106.16092809700007,23.022591583000064],[106.37937335600009,22.882105331000048],[106.56314476400007,22.936401400000022],[106.83013341300006,22.83098330300004],[106.81973125800005,22.709491556000046],[106.64917925400005,22.569882809000035],[106.65459704400007,22.424723881000034],[106.73586388200005,22.29946490800006],[106.74669946000006,22.013454937000063],[107.06093123000005,21.96321794100004],[107.21398680700008,21.784370934000037],[107.53354101200006,21.623385106000057],[107.59177089100007,21.628666182000075],[107.84031305200006,21.688064979000046],[108.04340750200004,21.581129555000075],[108.17975063000006,21.641868028000033],[108.22803882100004,21.622064807000072],[108.31893424000003,21.606220277000034],[108.38142484100007,21.715776043000062],[108.49078339100004,21.743481770000074],[108.52486917200008,21.946493519000057],[108.65411109700005,21.955714466000074],[108.69103736000005,21.83579558100007],[108.79471494700005,21.695982969000056],[108.85258976400007,21.753292934000058],[109.12554231500008,21.633699528000022],[109.15661008600006,21.437599915000078],[109.32304456800006,21.516071536000027],[109.54939546500009,21.53877910700004],[109.49835555700008,21.72031157200007],[109.56714847700005,21.734741850000034],[109.72026820000008,21.549099557000034],[109.74212505200006,21.546600053000077],[109.74349269000004,21.611460900000054],[109.79197024500007,21.67904966900005],[109.82428861800008,21.70907895700003],[109.84044780300007,21.719587729000068],[109.90185270800004,21.72409125400003],[109.92124373100006,21.73309787900007],[109.94225067200006,21.767618045000063],[109.96487353200007,21.85913129100004],[109.98426455500004,21.910113253000077],[110.06667640100005,21.961076975000026],[110.10869028400003,21.96257563200004],[110.20564539700007,21.96257563200004],[110.32037561400006,21.96707150700007],[110.37531684500004,21.973065785000074],[110.39632378600004,21.99404376600006],[110.34703826900005,22.056959092000056],[110.37733674300006,22.248715143000027],[110.53640372600006,22.24637823100005],[110.61719965300006,22.269745605000026],[110.76616714500005,22.344494965000024],[110.74344329000007,22.416870204000077],[110.72829405400006,22.503204202000063],[110.74596816300004,22.57083374900003],[110.79141587200007,22.62910846500006],[110.84948794400009,22.643090723000057],[110.91513463600006,22.65241143800006],[111.01107979900007,22.70133480900006],[111.09692547400005,22.754897502000063],[111.41000969300006,22.964288484000065],[111.44283303900005,23.036337196000034],[111.45798227500006,23.136211966000076],[111.45040765700008,23.184961017000035],[111.43020867500007,23.247612269000058],[111.42404798600006,23.328597589000026],[111.42404798600006,23.373104589000036],[111.43859125400007,23.427975982000078],[111.46606186800005,23.485788754000055],[111.48706880900005,23.536168962000033],[111.52100309900004,23.595415099000036],[111.54039412200007,23.659074864000047],[111.55816922600008,23.70642947300007],[111.66643576900009,23.76204918700006],[111.67936311700004,23.910449108000023],[111.75854312700005,23.923743590000072],[111.79570925300004,23.928174778000027],[111.86034599500005,23.957712154000035],[111.91043947000009,24.01824262200006],[111.93952600500006,24.069892438000068],[111.94275784100006,24.164284028000054],[111.93952600500006,24.29248575300005],[111.99769907200005,24.346969154000078],[112.0574880590001,24.40437223500004],[112.076879082,24.46027835500007],[112.06718357000011,24.520570297000063],[112.06395173400006,24.57201614300004],[112.06395173400006,24.605811920000065],[112.05910397700006,24.668970839000053],[112.00739458300006,24.768784803000074],[111.99608315400008,24.814261637000072],[112.00096129100007,24.85742471100008]]]}}]}
