{"type":"FeatureCollection","features":[{"type":"Feature","properties":{"shapeName":"Guangzhou Province","shapeISO":"CHN","shapeID":"43563684B38891657012300","shapeGroup":"CHN","shapeType":"ADM1"},"geometry":{"type":"MultiPolygon","coordinates":[[[[110.53676803200005,21.084862792000024],[110.48133133300007,21.09040466700003],[110.31485538800007,21.03956254900004],[110.29058369400008,20.96187294200007],[110.61305050300007,20.923012990000075],[110.53676803200005,21.084862792000024]]],[[[111.98457604700008,21.626025668000068],[111.93983394300005,21.71275003100004],[111.82976978600004,21.57716746400007],[111.98457604700008,21.626025668000068]]],[[[112.61622819500008,21.621322133000035],[112.66948722900008,21.703818053000077],[112.61918950400002,21.717663910000056],[112.53855877,21.621322133000035],[112.61622819500008,21.621322133000035]]],[[[112.80263481500003,21.693508644000076],[112.83370258500008,21.745048303000033],[112.79325721500004,21.763830746000053],[112.73606102100007,21.693508644000076],[112.76712879200011,21.58005650000007],[112.80263481500003,21.693508644000076]]],[[[113.43322178100004,22.082112712000026],[113.38647015000004,22.10497536200006],[113.34942756700002,22.03735956500003],[113.43322178100004,22.082112712000026]]],[[[109.74212505200006,21.546600053000077],[109.99100162500008,21.518136008000056],[109.75355509700006,21.23089421800006],[109.68254305100004,20.880903335000028],[109.79793762400004,20.841503922000072],[109.77574636000008,20.673422452000068],[109.80237587900007,20.621507781000048],[109.80015675200008,20.54671955500004],[109.98656337200003,20.469815735000054],[109.92442783100006,20.41367239500005],[109.94218084300007,20.284673206000036],[110.30611757700007,20.261775017000048],[110.52359196800006,20.442786315000035],[110.52803022200004,20.50723322700003],[110.36825311900009,20.70041107000003],[110.36603399200004,20.841503922000072],[110.21735252000008,20.930656244000033],[110.21291426700009,21.048753142000066],[110.49252419900006,21.224688554000068],[110.63232916300007,21.21227644100003],[110.79210626600008,21.43140298800006],[110.98960851900006,21.421074189000024],[111.08281182900004,21.524329245000047],[111.34244962100007,21.50368409200007],[111.44009118500009,21.56354695300007],[111.58655353000006,21.549099557000034],[111.73745412700003,21.64401321300005],[111.76630277100008,21.742987071000073],[112.03703619600003,21.80687149000005],[112.38321991900011,21.77802398600005],[112.42760244700003,21.878964818000043],[112.61622819500008,21.815112569000064],[112.81373044700001,21.928379206000045],[113.01123269800007,21.92220334500007],[113.03564309,22.191632205000076],[113.07114911300005,22.263529899000048],[113.21539233100009,22.066236839000055],[113.38182681400008,22.22245001700003],[113.41067545600004,22.273797987000023],[113.38182681400008,22.36617682900004],[113.523850906,22.255314887000054],[113.6334757510001,22.334569620000025],[113.57098515100006,22.580013653000037],[113.56726256700006,22.757461740000053],[113.54992564000008,22.843765612000027],[113.5707299500001,22.90765913100006],[113.67821888800006,22.792629173000023],[113.78570782400004,22.783038954000062],[113.90359891600008,22.568682119000073],[113.99732513700008,22.542234154000028],[114.01507643200011,22.525838134000026],[114.02795463400003,22.53015688100004],[114.03961332353636,22.534065890046644],[114.06234179677834,22.54168645556917],[114.1774439290001,22.58027872400004],[114.26638408600002,22.603194646000077],[114.374973812,22.628015924000067],[114.3763936470001,22.638936645000058],[114.46878267900001,22.626303422000035],[114.579739,22.552671924000038],[114.60747808100007,22.728681648000077],[114.78778210400003,22.802218718000063],[114.8016516450001,22.642305055000065],[114.91954273500005,22.616701547000048],[115.19346615500001,22.846961001000068],[115.41191141200011,22.83098330200005],[115.42924833900008,22.783038954000062],[115.41884618400002,22.677502090000075],[115.55060681500004,22.66790379400004],[115.6164871310001,22.853351556000064],[115.66503052200005,22.91404682800004],[115.84533454500001,22.78943250800006],[116.04991026100004,22.90765913100006],[116.160866585,22.898077019000027],[116.31689891200006,22.98109946900007],[116.55614847900006,22.984291622000057],[116.59775710100007,23.201180692000037],[116.81966974400007,23.258533800000066],[116.698311267,23.43998902800007],[116.958365146,23.395444071000043],[117.14907132400003,23.45907513000003],[117.07889145000001,23.557388399000047],[117.17653301300004,23.652960275000055],[117.22161590400003,23.642915019000043],[117.2148537160001,23.66831035900003],[117.176588766,23.711874153000053],[117.10864747000005,23.754691292000075],[117.10864747000005,23.835549805000028],[116.98492870500002,24.073212074000025],[117.03290128800006,24.29101290400007],[116.8131363650001,24.570546555000078],[116.78773412500004,24.724817811000037],[116.72361447700007,24.741725517000077],[116.55297347700002,24.684417879000023],[116.4505888760001,24.85626153900006],[116.33889658700002,24.934123038000052],[116.20341797600008,24.921931108000024],[116.12378550900007,24.960378485000035],[115.96841599700008,24.97318308900003],[115.97056108200002,24.967227816000047],[115.8245918770001,24.895678235000048],[115.85615278500006,24.730956888000037],[115.81275653600005,24.641342741000074],[115.70229335300007,24.644928544000038],[115.47347676000004,24.841988817000072],[115.14208721400007,24.723790129000065],[114.48325323300003,24.58754335900005],[114.27021709500002,24.759619799000063],[114.45958255000005,24.945767303000025],[114.49508857300009,25.092339483000046],[114.73574050800005,25.156632890000026],[114.75546607600006,25.29581901800003],[114.67656380100004,25.44909561000003],[114.51875925600007,25.427719859000035],[114.36489982300009,25.374263894000023],[114.13608323200003,25.402776689000063],[114.04385854500003,25.54367680300004],[114.02577785300002,25.53085842400003],[113.94245705300011,25.49212061000003],[113.86166112500007,25.451090487000045],[113.76066621600012,25.41460752200004],[113.6369474500001,25.43057017800004],[113.55110177800009,25.460209502000055],[113.47283072200003,25.510351726000067],[113.34658708500001,25.585525807000067],[113.27841552100006,25.567306118000033],[113.14207239300003,25.48528322900006],[113.048652102,25.453370304000032],[113.01077901100007,25.398642752000057],[113.0082541380001,25.366706875000034],[113.01330388400004,25.33932654800003],[113.03350286700004,25.31194002500007],[113.06632621100005,25.26628205800006],[113.06632621100005,25.23659516500004],[113.0612764660001,25.172629546000053],[113.03602773800003,25.104057690000047],[113.01077901100007,25.06060894500007],[112.995629774,25.02858421800005],[112.90220948300009,25.02858421800005],[112.72799326400002,25.16577409300004],[112.664871446,25.25714840200004],[112.28866540600006,25.26399870800003],[112.2836156620001,25.245730366000032],[112.25584206200006,25.19090886500004],[112.23564308000005,25.115489007000065],[112.240692824,25.065183224000066],[112.23311820700008,24.978242759000068],[112.1775710070001,24.891240795000044],[112.00254682900004,24.857199923000053],[112.00096129100007,24.85742471100008],[111.99608315400008,24.814261637000072],[112.00739458300006,24.768784803000074],[112.05910397700006,24.668970839000053],[112.06395173400006,24.605811920000065],[112.06395173400006,24.57201614300004],[112.06718357000011,24.520570297000063],[112.076879082,24.46027835500007],[112.0574880590001,24.40437223500004],[111.99769907200005,24.346969154000078],[111.93952600500006,24.29248575300005],[111.94275784100006,24.164284028000054],[111.93952600500006,24.069892438000068],[111.91043947000009,24.01824262200006],[111.86034599500005,23.957712154000035],[111.79570925300004,23.928174778000027],[111.75854312700005,23.923743590000072],[111.67936311700004,23.910449108000023],[111.66643576900009,23.76204918700006],[111.55816922600008,23.70642947300007],[111.54039412200007,23.659074864000047],[111.52100309900004,23.595415099000036],[111.48706880900005,23.536168962000033],[111.46606186800005,23.485788754000055],[111.43859125400007,23.427975982000078],[111.42404798600006,23.373104589000036],[111.42404798600006,23.328597589000026],[111.43020867500007,23.247612269000058],[111.45040765700008,23.184961017000035],[111.45798227500006,23.136211966000076],[111.44283303900005,23.036337196000034],[111.41000969300006,22.964288484000065],[111.09692547400005,22.754897502000063],[111.01107979900007,22.70133480900006],[110.91513463600006,22.65241143800006],[110.84948794400009,22.643090723000057],[110.79141587200007,22.62910846500006],[110.74596816300004,22.57083374900003],[110.72829405400006,22.503204202000063],[110.74344329000007,22.416870204000077],[110.76616714500005,22.344494965000024],[110.61719965300006,22.269745605000026],[110.53640372600006,22.24637823100005],[110.37733674300006,22.248715143000027],[110.34703826900005,22.056959092000056],[110.39632378600004,21.99404376600006],[110.37531684500004,21.973065785000074],[110.32037561400006,21.96707150700007],[110.20564539700007,21.96257563200004],[110.10869028400003,21.96257563200004],[110.06667640100005,21.961076975000026],[109.98426455500004,21.910113253000077],[109.96487353200007,21.85913129100004],[109.94225067200006,21.767618045000063],[109.92124373100006,21.73309787900007],[109.90185270800004,21.72409125400003],[109.84044780300007,21.719587729000068],[109.82428861800008,21.70907895700003],[109.79197024500007,21.67904966900005],[109.74349269000004,21.611460900000054],[109.74212505200006,21.546600053000077]]]]}}]}
