{"type":"FeatureCollection","features":[{"type":"Feature","properties":{"shapeName":"Guizhou Province","shapeISO":"CHN","shapeID":"43563684B78583622565599","shapeGroup":"CHN","shapeType":"ADM1"},"geometry":{"type":"Polygon","coordinates":[[[109.53818465300009,26.125609403000055],[109.53907899300003,26.12855357500007],[109.52897950200008,26.198804820000078],[109.48100692000008,26.257692562000045],[109.42293484600003,26.33465457400007],[109.37496226300004,26.41834924500006],[109.35728815500005,26.49746402100004],[109.42040997400005,26.569749908000063],[109.48353179100008,26.67583714500006],[109.40526073600006,26.815631147000033],[109.49868102900007,26.898974594000038],[109.57543716000004,26.97568629700004],[109.59644410100009,27.10809791500003],[109.59159634500008,27.198680866000075],[109.50918450000006,27.26046510900005],[109.42354081600007,27.271956069000055],[109.34759264300004,27.25615569400003],[109.21347140400007,27.254719184000066],[109.14075506900008,27.22742198800006],[109.03572036300005,27.16561941300006],[108.96461994600008,27.16993233200003],[108.93553341200004,27.207303981000052],[108.91291055300007,27.24897296200004],[108.93068565700008,27.279137314000025],[109.01794525800005,27.35953554500003],[109.16660976500003,27.45564962700007],[109.21670324100006,27.507258458000024],[109.35082448200006,27.535919578000062],[109.38960652600008,27.57746492600006],[109.47201837200004,27.649057894000066],[109.52372776600004,27.697714364000035],[109.54412873800004,27.782632297000077],[109.52392975600009,27.800501318000045],[109.48605666500004,27.842928468000025],[109.46333280900006,27.883107307000046],[109.43808408300004,27.945578101000024],[109.42293484600003,28.05258684300003],[109.41031048300005,28.09268770600005],[109.45323331900005,28.31297438200005],[109.43808408300004,28.412954305000028],[109.38506175400005,28.488432166000052],[109.33708917400008,28.588246407000042],[109.33744975400003,28.612592041000028],[109.31676091800006,28.612592041000028],[109.29607716100008,28.598064790000024],[109.25057289500006,28.576270144000034],[109.23609426400009,28.549020486000074],[109.22575238600007,28.474502120000068],[109.20713700200008,28.435404383000048],[109.18541905700005,28.397201946000052],[109.13164128900007,28.35625547500007],[109.07372676800009,28.344423552000023],[108.94962422200007,28.34533374800003],[108.90411995500006,28.357165568000028],[108.87412850800007,28.380825254000058],[108.86688919200009,28.431766651000032],[108.86792338100008,28.468138356000054],[108.86482081600008,28.51994641400006],[108.85034218700008,28.57899472300005],[108.82345330200008,28.602604771000074],[108.80690629600008,28.613499928000067],[108.77794903500006,28.604420709000067],[108.77070972000007,28.598064790000024],[108.76864134400006,28.584443666000027],[108.76967553200006,28.572637264000036],[108.76760715700004,28.543569709000053],[108.76760715700004,28.503588722000075],[108.76347040400009,28.488137462000054],[108.75312852600007,28.477229329000068],[108.71796613900005,28.459046603000047],[108.70969263600006,28.457228158000078],[108.70245332000007,28.46541091200004],[108.66418836900004,28.539935701000047],[108.66108580500008,28.558104490000062],[108.64951582800006,28.591084183000078],[108.67537052600005,28.73995978000005],[108.63820439800008,28.741376626000033],[108.54286520400007,28.758377274000054],[108.49923540300006,28.775375155000063],[108.44106233400004,28.836261481000065],[108.43621457900008,28.871644143000026],[108.44429417200007,28.94237332700004],[108.43944641600007,29.03142339200008],[108.42328723100007,29.08651116900006],[108.36349824400008,29.18813428900006],[108.09525576500005,29.19659834600003],[107.98052554700007,29.12039670400003],[107.92396839800006,29.13451238500005],[107.88518635300005,29.20647219400007],[107.87872267800009,29.221986320000042],[107.84963614500003,29.255827168000053],[107.78984715800004,29.28401932400004],[107.69450796300004,29.32065750000004],[107.64926224300007,29.34178892700004],[107.62017571000007,29.34883176200003],[107.57816182800008,29.347423234000075],[107.54261161800008,29.334745605000023],[107.52483651500006,29.30515833800007],[107.51352508500008,29.24595807600008],[107.55392304800006,29.16556005800004],[107.56200264100005,29.113338139000064],[107.55715488600003,29.07521351300005],[107.54422753800009,29.04413856700006],[107.49251814400009,28.979133439000066],[107.40687446100009,28.94944359300007],[107.34546955600007,28.95934115500006],[107.28729648700005,28.983374152000067],[107.24043485000004,29.017293581000047],[107.16287075800005,29.024358729000028],[107.09015442400005,28.99750859900007],[106.98511971800008,28.93813093700004],[106.92694665000005,28.815026105000072],[106.90593970800006,28.77820786500007],[106.88008501200005,28.71870479100005],[106.84938255900005,28.676181851000024],[106.81383235000004,28.632223340000053],[106.77181846900004,28.61520219500005],[106.71041356200004,28.632223340000053],[106.68132703000003,28.654913905000058],[106.65062457700009,28.69035808500007],[106.65385641400007,28.73995978000005],[106.65385641400007,28.806530743000053],[106.64254498400004,28.823520775000077],[106.60214702000007,28.861738211000045],[106.54720578900009,28.897112203000063],[106.56174905500006,28.822105045000058],[106.55366946400005,28.73854291600003],[106.51327150000009,28.67192860800003],[106.39369352800009,28.63364164400008],[106.37215745100008,28.674813466000046],[106.36783882900005,28.66581426700003],[106.16079926400005,28.80086678400005],[106.09767744600003,28.862799607000056],[106.02445613600008,28.85837705600005],[105.97395868300003,28.814141204000066],[105.95880944500004,28.752179441000067],[105.85528966300006,28.705683976000046],[105.76186937300008,28.659167840000066],[105.74167039100007,28.56829112500003],[105.76691911700004,28.47511645800006],[105.87043889900008,28.408512753000025],[105.98658304700007,28.348533589000056],[106.11282668200005,28.304082722000032],[106.19362261100008,28.284073770000077],[106.28704290100006,28.266284877000032],[106.30471701200008,28.14390590100004],[106.32491599400004,28.068183402000045],[106.37288857400006,28.003554360000066],[106.38803781200005,27.965650332000052],[106.36531395700007,27.92327124700006],[106.32996573900004,27.903191141000036],[106.17847337500007,27.89872839000003],[106.07495359100005,27.876411869000037],[105.95375970100008,27.854090751000058],[105.86538915500006,27.82953221200006],[105.77196886400009,27.809434727000053],[105.73662064400008,27.831765037000025],[105.68359831800007,27.874179963000074],[105.61542675400005,27.89203391700005],[105.53463082500008,27.86971601600004],[105.41091206100003,27.871948014000054],[105.36945876100003,27.865629813000055],[105.37404891900007,27.84926878500005],[105.32880320000004,27.747779261000062],[105.24800727200005,27.535919578000062],[105.21730481900005,27.501525337000032],[105.17205910000007,27.490058201000068],[105.09126317200008,27.491491659000076],[105.05409704600004,27.482890634000057],[104.91674396900004,27.425533315000052],[104.54993045600008,27.45278176100004],[104.45135942300004,27.511558102000038],[104.35602022900008,27.510124906000044],[104.27684022100004,27.459951287000024],[104.25906511600004,27.41836155200008],[104.23644225600003,27.39827814100005],[104.10878469100004,27.47572260000004],[103.99405447300006,27.487191231000054],[103.90194711500004,27.44274364200004],[103.81307159600004,27.316472313000077],[103.73873934200009,27.25615569400003],[103.69187770500008,27.198680866000075],[103.69510954100008,27.17280751900006],[103.72258015700004,27.14692817300005],[103.80660792000003,27.10809791500003],[103.83731037300004,27.05486419700003],[103.82438302500009,27.02463921900005],[103.80176016600007,26.99584596300008],[103.79529649100004,26.952642258000026],[103.79691241100005,26.905099041000028],[103.80660792000003,26.87050957500003],[103.84296608900007,26.813377769000056],[103.83539147100004,26.734481360000075],[103.85054070700005,26.669068563000053],[103.97678434400007,26.635219626000037],[104.06263001700006,26.63747653300004],[104.13332645400004,26.682605326000044],[104.17877416300007,26.73899120200008],[104.20654776500004,26.768300819000046],[104.33026652900008,26.76153773200008],[104.38076398200008,26.76153773200008],[104.49185838300008,26.802110210000023],[104.58780354800007,26.716440202000058],[104.65597511200008,26.617162757000074],[104.70899744000008,26.53587156900005],[104.69132333000005,26.490684886000054],[104.65849998500005,26.443219748000047],[104.58709658200007,26.372121090000064],[104.56770556100008,26.28232596400005],[104.57740107300003,26.205510468000057],[104.56447372300005,26.14895345700006],[104.45782309800006,25.971854656000062],[104.42065697300006,25.87157390400006],[104.35602022900008,25.798853447000056],[104.41580921600007,25.688232880000044],[104.49660514500005,25.519192820000058],[104.56770556100008,25.49148247100004],[104.65173332600006,25.478354285000023],[104.71960190400006,25.41269186100004],[104.74222476400007,25.380577208000034],[104.75999986900007,25.330928674000063],[104.75030435700006,25.20964232400007],[104.74222476400007,25.159923803000027],[104.70829047500007,25.057498339000063],[104.62820151200003,24.998839485000076],[104.58780354800007,24.918721735000076],[104.58275380100008,24.859171968000055],[104.58104757100006,24.817365169000027],[104.59032842100004,24.814261637000072],[104.63072638500006,24.806927793000057],[104.66304475600003,24.793725778000066],[104.75030435700006,24.779055223000057],[104.81170926300007,24.783456571000045],[104.85857090000007,24.79812660500005],[104.90058478200007,24.846525401000065],[104.94421458300008,24.874382792000063],[105.01854683700009,24.87584879700006],[105.08318357800005,24.911027688000047],[105.15105215900007,25.009182318000057],[105.22053665600004,25.044323130000066],[105.38697626700008,25.028218173000027],[105.48069954400006,25.000395542000035],[105.52594526300004,24.91249325800004],[105.57765465600005,24.88904205500006],[105.64067548000008,24.897836778000055],[105.78126039400007,24.86118796900007],[105.81034692800006,24.827461466000045],[105.93962041400005,24.812794904000043],[105.97355470300005,24.784923652000032],[106.03495960800007,24.780522356000063],[106.06404614100006,24.795192736000047],[106.11898737300004,24.81719505500007],[106.18362411500004,24.849458053000035],[106.23048575200005,24.881712642000025],[106.21917432300006,24.909562101000063],[106.25634044800006,25.05603449700004],[106.30481800600006,25.057498339000063],[106.39046168900006,25.077990294000074],[106.43409149000007,25.105795319000038],[106.59245150800007,25.173086561000048],[106.64254498400004,25.22279971100005],[106.74111601500005,25.268108706000078],[106.90400060700006,25.288097752000056],[106.96191512600006,25.302123186000074],[106.99707751500006,25.318016716000045],[107.03430827800008,25.364750301000072],[107.10049630200007,25.432014922000064],[107.12738518800006,25.47216895200006],[107.16047919800008,25.56549857400006],[107.24528260400007,25.607473207000055],[107.30836806600007,25.62146147800007],[107.37455609000006,25.62146147800007],[107.39420565900008,25.607473207000055],[107.41282104100009,25.53284146200008],[107.42523129500006,25.49924201300007],[107.47073556200007,25.461898267000038],[107.49659025800008,25.433882849000042],[107.54209452400005,25.40399255400007],[107.59897485800008,25.391847504000054],[107.64241074900008,25.40772924500004],[107.68642837000004,25.40539382600008],[107.77368797200006,25.357215731000053],[107.84317247000007,25.285643135000043],[107.88841818900005,25.25495622300008],[107.90942513100003,25.281259764000026],[107.99991657000004,25.313400795000064],[108.02900310200005,25.31924370200005],[108.07263290500003,25.316322284000023],[108.12111046100006,25.317783002000056],[108.13888556500007,25.329468114000065],[108.16958801800007,25.383497075000037],[108.18736312100003,25.440420362000054],[108.25846353800006,25.51627624300005],[108.29239782700006,25.567306118000033],[108.32310028000006,25.62122835200006],[108.49438764800004,25.587711983000077],[108.64305215500008,25.507526084000062],[108.67860236200005,25.52648395500006],[108.80141217300007,25.663474723000036],[108.84019421700003,25.673669880000034],[108.94038116800004,25.670757067000068],[109.01471342200006,25.67512626100006],[109.06803873400008,25.702794099000073],[109.08419791900008,25.750833484000054],[109.05834322300007,25.801763123000057],[109.04379995600004,25.848308221000025],[109.05995914100004,25.88756640500003],[109.12782771900004,25.92099827000004],[109.25376837300007,25.901648915000067],[109.31436531900005,25.881206011000074],[109.38253688300006,25.94706491100004],[109.52392975600009,26.078672201000074],[109.53818465300009,26.125609403000055]]]}}]}
