{"type":"FeatureCollection","features":[{"type":"Feature","properties":{"shapeName":"Hainan Province","shapeISO":"CHN","shapeID":"43563684B67556328368055","shapeGroup":"CHN","shapeType":"ADM1"},"geometry":{"type":"Polygon","coordinates":[[[110.92511515700005,20.000419416000057],[110.92164777200009,20.15999338000006],[110.83259892300003,20.152743516000044],[110.59571357700008,20.078598390000025],[110.10681228500005,20.049285836000024],[110.01319288900004,19.954797066000026],[109.65605222900007,20.019967807000057],[109.55203067700006,19.984127236000063],[109.39253096600004,19.87655664400006],[109.25730294900006,19.889599401000055],[109.17408570700007,19.840683527000067],[109.17408570700007,19.74607012200005],[109.25036817700004,19.72322398700004],[109.20529217200004,19.631806819000076],[109.05619461600008,19.589345425000033],[108.64704317900004,19.344157750000022],[108.63664102400008,19.19031853100006],[108.59849978800008,19.088771294000026],[108.60543455900006,18.800169554000036],[108.66784748900005,18.64582648800007],[108.66438010400009,18.504495973000076],[109.10473800600005,18.277466093000044],[109.43760697100004,18.251124482000023],[109.47574820600005,18.17207570000005],[109.69766084900004,18.19513530000006],[109.70459562000008,18.349884891000045],[110.03399719900005,18.379502021000064],[110.02359504400005,18.461745121000035],[110.20389906600008,18.64911184700003],[110.34606185500007,18.626112990000024],[110.46048556000005,18.721373680000056],[110.55757234200007,19.19031853100006],[110.78641975500005,19.484777391000023],[110.98406070400006,19.648135137000054],[110.98406070400006,19.817850958000065],[110.92511515700005,20.000419416000057]]]}}]}
