{"type":"FeatureCollection","features":[{"type":"Feature","properties":{"shapeName":"Hebei Province","shapeISO":"CHN","shapeID":"43563684B58229551045164","shapeGroup":"CHN","shapeType":"ADM1"},"geometry":{"type":"MultiPolygon","coordinates":[[[[117.29679354500001,40.153405484000075],[117.11883572600004,40.14668827200006],[117.02119416300002,40.150080771000034],[116.8450555610001,40.09470911300008],[116.83700666800007,40.03803885200006],[117.05448105800008,39.89006551500006],[117.027851542,39.77589083400005],[117.03319528000009,39.77543450500008],[117.24754505900012,39.75712760400006],[117.28527020800004,39.94623103200007],[117.29858496700001,40.15347310000004],[117.29679354500001,40.153405484000075]]],[[[115.54944646400008,36.22023203300006],[115.58311355,36.211007005000056],[115.61020249600006,36.30711706300008],[115.4314154540001,36.52075497900006],[115.46933997700012,36.73814644700008],[115.77815395900006,36.92461214700006],[116.1357280420001,37.45117518600006],[116.29826171700006,37.47697691500008],[116.43370644600009,37.70879148100005],[116.54748001700011,37.65733954900003],[116.94297862400003,37.91851621100005],[117.23012144900008,37.95697229000007],[117.51184648500009,37.93561028600004],[117.58227774400007,37.99113857800006],[117.6039488990001,38.13616779800003],[117.79357152000011,38.16599106100006],[117.88327616900006,38.30339074800003],[117.83691383300004,38.34042515200008],[117.6418734240001,38.64996538100007],[117.64775917000009,38.68902605900007],[117.59816703500007,38.687853045000054],[117.51827848300002,38.677459283000076],[117.37625439200008,38.73114413500008],[117.16099912700008,38.81764765100007],[117.03450892100011,38.789977941000075],[116.92133347300012,38.824563399000056],[116.79262414000004,38.96273727100004],[116.80815802500001,39.08341879500006],[116.87917007200008,39.15572879300004],[116.89692308300005,39.33446254100005],[116.86141706,39.40651431900005],[116.88360832400008,39.48020457000007],[116.91689522100012,39.60170845400006],[116.90421809400004,39.70628278500004],[116.87861529000008,39.69792597900005],[116.660170031,39.695258042000034],[116.55961586400008,39.64988735000003],[116.55268109500003,39.57509420400004],[116.38971399700006,39.604486863000034],[116.27529029000004,39.66857300800007],[115.84186715900012,39.628526125000064],[115.6719652920001,39.72993316900005],[115.57141112500005,39.831191268000055],[115.54020466000009,39.950909412000044],[115.60608497600003,40.115511757000036],[115.76099664300011,40.26871147300005],[115.91438266300008,40.30662943400006],[115.99391615500008,40.44511963900004],[115.89876001400012,40.542325075000065],[115.93426603700004,40.62753376400008],[116.24387855600003,40.75137764400006],[116.39726457600011,40.76321151800005],[116.368859756,40.91364039300004],[116.47537782600011,40.894318662000046],[116.49100047500008,40.97800538400003],[116.62166264000007,41.06694018300004],[116.69693540900005,41.07550586600007],[116.75232480400007,41.073364550000065],[117.14005057500003,40.75352941500006],[117.17413635600008,40.752453538000054],[117.27923418300009,40.79332460000006],[117.40989634700009,40.76321151800005],[117.47238694900011,40.76428722000003],[117.50647273100003,40.71048078000007],[117.34882598900003,40.60489394600006],[117.32752237500006,40.52829299100006],[117.36018791700008,40.425661655000056],[117.50232562800011,40.30506980200005],[117.49548738900012,40.30002925500003],[117.64503143500008,40.280804196000076],[117.75228802900006,40.22530723800003],[117.7322910370001,40.08288862000006],[117.64503143500008,40.03836506000005],[117.63775980100002,39.96037883500003],[117.65559802700011,39.867654542000025],[117.76211609600011,39.72142924100007],[117.92828428300004,39.686463795000066],[117.96237006600006,39.525613726000074],[118.12995849300012,39.49274128300004],[118.15694307100011,39.42914380600007],[118.1192513850001,39.20940789700006],[118.23241244000008,39.20210070200005],[118.39494611400005,39.118083322000075],[118.63332883600003,39.21469465300004],[118.87171155900012,39.210496920000026],[119.01257407700007,39.22308936600007],[119.09925870300003,39.43681521600007],[119.28888132300006,39.69992686300003],[119.58144193600003,39.86230482900004],[119.58685972400008,39.94958035900004],[119.97126983200008,40.07433721700005],[119.85697144900007,40.128773067000054],[119.85555120700008,40.280630838000036],[119.71210687500002,40.39105578200008],[119.67970762900006,40.591346816000055],[119.37346818000003,40.64693321500005],[119.2847031230001,40.75292423600007],[119.10051563000002,40.78653690500005],[118.9562724110001,40.96104861500004],[119.08054349200006,41.05649924800008],[119.07166698700007,41.16517767700003],[119.27138836600011,41.25365922000003],[119.28470498700005,41.38653246000007],[119.10120910700005,41.41019032400004],[118.99025278600004,41.363364173000036],[118.47014502800005,41.430991121000034],[118.43547117700007,41.48815895700005],[118.43200379200005,41.61530616500005],[118.2378302300001,41.83269074700007],[118.24823238500005,41.907569359000036],[118.275971464,42.06993437300008],[118.08859397600008,42.26833109900008],[118.00648629900002,42.435608857000034],[117.82007967900006,42.66284883800006],[117.64920694300008,42.68079652900008],[117.42729430000009,42.58610487200008],[117.23866855400001,42.582837073000064],[116.94130561100008,42.46835620500008],[116.92355259900012,42.36842327000005],[116.95240124400004,42.26833109900008],[116.89914220900005,42.051193356000056],[116.83034929000007,42.02482300600008],[116.57736887600004,42.051193356000056],[116.46641255500003,42.10225476800008],[116.16780135400006,41.94110715900007],[116.06072428700008,41.94747639900004],[115.92710802200008,41.990052809000076],[115.5121881880001,41.825043031000064],[115.31468593500006,41.66277941200008],[115.00844648900011,41.684327765000035],[114.97737871900006,41.732371175000026],[115.02619950100006,42.04295379800004],[114.91169257600006,42.195311262000075],[114.6035002960001,42.22266251700006],[114.28394609100008,41.90529434200005],[114.24844006800004,41.697783539000056],[114.03966465400003,41.550213126000074],[113.99847766700009,41.39378211600007],[114.06522898900005,41.298888773000044],[113.9487692350001,41.16858559600007],[114.22953311100002,40.814569464000044],[114.2123338670001,40.79157821800004],[114.34048943300002,40.68059942900004],[114.40290236300007,40.48045727600004],[114.52772822500003,40.41449019500004],[114.49998914500009,40.36959560100007],[114.29194604100007,40.28765195400007],[114.170587565,40.26119729800007],[114.12204417400005,40.18177124700003],[114.16018541000005,40.062457634000054],[114.26420696200012,40.03060531400007],[114.43410882800003,39.99342546400004],[114.47571745000005,39.911026597000046],[114.47225006400004,39.79656710800003],[114.60054331200001,39.657896108000045],[114.622318489,39.59144874900005],[114.54242993800005,39.445939734000035],[114.48473265100006,39.23999662800003],[114.28501127200002,39.172934518000034],[114.00540134100004,39.15744955400004],[113.85006249100002,39.03344715900005],[113.93882754900005,38.88504754500008],[113.66809412400005,38.675726843000064],[113.65394719200003,38.39734449800005],[113.85158813900011,38.28856413600005],[113.9244032260001,38.272232993000046],[113.95907707700007,38.10599129600007],[114.20068446700009,37.77971596800006],[114.21178010000006,37.70952527000003],[113.97433357000011,37.42104814800007],[113.9452075370001,37.316000976000055],[113.87585983500003,37.22770516300005],[113.8862619900001,37.04250067600003],[113.7198275080001,36.88735537300005],[113.59500164600001,36.85961759700007],[113.60887118700009,36.73467301300008],[113.813192447,36.46220698500008],[114.13656384900003,36.45106027800006],[114.244919632,36.37257882200004],[114.56998698100006,36.337672730000065],[114.65125381700011,36.26781360500007],[114.77044517800005,36.24596979800003],[114.88963654000008,36.311482891000026],[115.11176589500008,36.20226386400003],[115.29597072600006,36.28965130300003],[115.54944646400008,36.22023203300006]]]]}}]}
