{"type":"FeatureCollection","features":[{"type":"Feature","properties":{"shapeName":"Heilongjiang Province","shapeISO":"CHN","shapeID":"43563684B55920014778896","shapeGroup":"CHN","shapeType":"ADM1"},"geometry":{"type":"Polygon","coordinates":[[[131.32245463700008,43.451513834000025],[131.33262658400008,43.47875356000003],[131.24594195800012,43.53769440200006],[131.36513331900005,44.04999747800008],[131.0563193370001,44.77753408500007],[131.0779904950001,44.85823943200006],[131.4843246800001,44.93883181700005],[131.90149444500003,45.26388515300005],[132.02610359400012,45.15319259300003],[132.94170996000003,44.965670844000044],[133.0446479530001,45.01931124300006],[133.14758594800003,45.40099692600006],[133.3805508800001,45.50361292200006],[133.68936486200005,46.04398500100007],[133.8627341130001,46.209200096000075],[133.9385831620001,46.49340470200008],[134.0686101020001,46.78355206100008],[134.2148904080001,47.30777653000007],[134.51286881200008,47.388533632000076],[134.740415954,47.64831624100003],[134.54537554500007,47.93948857600003],[134.69165585300004,48.24707244200005],[134.3069928230001,48.36239217200006],[133.96567210800004,48.265108327000064],[133.6947826500001,48.207371101000035],[133.50516003100006,48.06998400300006],[133.18551047100004,48.11702622800004],[132.87669649000009,47.96851609200007],[132.64914934500007,47.90318124800007],[132.49203346100012,47.71761741500006],[131.7985564500001,47.67385896400003],[131.3922222640001,47.74312622100007],[131.05090154900006,47.70668124500003],[130.95338134400004,47.72490692000008],[130.87753229600003,47.89954911400008],[130.6879096770001,48.06998400300006],[130.8179366160001,48.28674298900006],[130.58497168400004,48.59583355400008],[130.6120606290001,48.88167217600005],[130.26532212400002,48.90304456500007],[129.43098259600004,49.39914210100005],[129.15662575400006,49.37699496500005],[128.65385492200005,49.64490856200007],[128.22389917500004,49.56626275100007],[127.74540003900006,49.65388857700003],[127.50268308400007,49.95599321000003],[127.5835164990001,50.18952232200007],[127.33429819800006,50.328070437000065],[127.41556503600009,50.648638608000056],[126.94421738000005,51.14411686900007],[126.99297748300012,51.310363807000044],[126.5223070510001,51.94202137800005],[126.55616823200012,52.11909979200004],[126.35300114000006,52.455682704000026],[126.09057697900005,52.63072391800006],[126.04825050000011,52.75386245100003],[125.66731220200006,53.08562083400005],[125.1001374010001,53.242949827000075],[124.710733806,53.17704336500003],[123.64410657000008,53.57096340100003],[121.61243564100005,53.40979586600008],[121.59307227900001,53.40578626000007],[121.9165090570001,53.08012929600005],[121.33680561800008,52.661541113000055],[121.62936623200005,52.50352792500007],[121.79731769600005,52.47053678900005],[121.93276242400009,52.34494469900005],[122.06820715300012,52.33501430100006],[122.19281630300009,52.384643992000065],[122.24699419400008,52.51342044100005],[122.35534997700006,52.52990302000006],[122.496212495,52.46063462200004],[122.59915048900007,52.32839279600006],[122.7887731080001,52.29858376000004],[122.83990349300007,52.254039843000044],[122.7806464250001,52.08269979000005],[122.87376467500007,51.96810631000005],[122.82297290100007,51.77995591500007],[123.03460529100005,51.47516697900005],[123.2377723840001,51.369592228000045],[123.39861299800009,51.33258343300008],[123.55098831900011,51.37487675800003],[123.66103716100008,51.29554474200006],[123.82187777400009,51.29554474200006],[123.9234613220001,51.38016067900003],[124.09276723300002,51.35902133700006],[124.1858854830001,51.40657113300006],[124.40598316800003,51.369592228000045],[124.61761555500004,51.42241008900004],[124.88003971700005,51.40129026300008],[125.150929173,51.67508755700004],[125.54033276900009,51.633072079000044],[125.94666695500007,51.18955509300008],[126.09057697900005,51.18955509300008],[126.10750757000005,51.06204498200003],[126.07364638700005,50.93418269800003],[125.87894459000006,50.85943359600003],[125.86201399800007,50.72565450600007],[125.91280577200007,50.68276431000004],[125.86201399800007,50.55385824600006],[125.60805513200012,50.435383855000055],[125.51493688300002,50.25170232600004],[125.3625615630001,50.17044043900006],[125.3117697890001,49.89856737500003],[125.30330449300004,49.80577971200006],[125.26944331200002,49.679959816000064],[125.3794921540001,49.47136820900005],[125.2779086060001,49.22872658400007],[125.184790356,49.18448131000008],[124.99008855800002,49.22319809000004],[124.84753298100009,49.091437334000034],[124.6308214170001,48.502585907000025],[124.59289689200011,48.23624785800007],[124.45203437400005,48.35879237300003],[124.42494542800011,48.54205780400008],[124.26241175500002,48.56357496600003],[123.48766790800005,48.03739109600008],[123.35222317900002,47.99752730200004],[123.2926274990001,47.84503651700004],[122.64834401400003,47.58213902800003],[122.56859415800011,47.41581625900005],[122.70382217500003,47.17595122100005],[122.87719142600008,47.131150244000025],[123.13724530600007,46.88288465200003],[123.52212504700003,46.79037778000003],[123.64695090900011,46.87103369700003],[123.59840751800004,46.735747788000026],[123.41463610900007,46.64774850600003],[123.1441800770001,46.67868351100003],[123.09910407100006,46.59773917900003],[123.0887019160001,46.49280792900004],[123.02975637000009,46.37810612900006],[123.16845177000005,46.29910858200003],[123.16723220800009,46.29186184200006],[123.36609271900011,46.335030706000055],[123.5706684380001,46.323059285000056],[123.87926570700006,46.34939295400005],[124.10464573500008,46.18880034600005],[124.11504789000003,46.08548553800006],[124.05956972900003,45.97233830700003],[124.19133036100004,45.79613970300005],[124.51379717000009,45.52715023700006],[124.70103596400008,45.49313185500006],[125.00963323400003,45.57813925900007],[125.1483286350001,45.46882042200008],[125.43958897900006,45.446931164000034],[125.5401431460001,45.55872032500008],[125.71351239900002,45.55872032500008],[125.78286010000011,45.52472103400004],[125.77939271500009,45.39582318200007],[125.90879552400008,45.29073642800006],[126.29492352400007,45.21418717700004],[126.5479039380001,45.329752419000044],[126.68992802800005,45.31258869200008],[126.79422697100006,45.22356609900004],[127.02945437300002,45.17039842300005],[127.11378117800007,44.985489922000056],[127.0472073840001,44.862933773000066],[127.13819156800002,44.71646742400003],[127.30906430400012,44.688076169000055],[127.4333353830001,44.714890498000045],[127.58645510800011,44.63125189100003],[127.56204471700005,44.49053062200005],[127.87494154400008,44.10936127400004],[128.06800554200004,44.13803480800004],[128.13014108400012,44.25894740000007],[128.10129243900008,44.511106641000026],[128.15455147400007,44.64388432100003],[128.42750402500008,44.58227524700004],[128.48742044000005,44.50635897300003],[128.44747616200004,44.231922706000034],[128.60503414000004,44.00410591600007],[128.7958790140001,43.92104568700006],[128.9564550020001,43.58745081200004],[129.15812921200006,43.579220547000034],[129.31293547200005,43.65633512100004],[129.33992004900006,43.815391815000055],[129.57852052400006,43.881967264000025],[129.81286027400006,43.86558635500006],[129.89665448900007,44.01080955900005],[130.0315773760001,44.00059418200004],[130.1693407460001,43.87889618600008],[130.39231857000004,43.959715086000074],[130.52724145600007,43.65016959600007],[130.73175614800004,43.59670851800007],[130.95286990600005,43.428304843000035],[131.32245463700008,43.451513834000025]]]}}]}
