{"type":"FeatureCollection","features":[{"type":"Feature","properties":{"shapeName":"Henan Province","shapeISO":"CHN","shapeID":"43563684B96917371447908","shapeGroup":"CHN","shapeType":"ADM1"},"geometry":{"type":"Polygon","coordinates":[[[115.48626782300005,31.518355946000042],[115.51292789600006,31.51406773700006],[115.54575124300004,31.673215666000033],[115.58614920700006,31.795616995000046],[115.78308928000001,31.898566249000055],[115.9749796100001,31.924285600000076],[116.08102426500011,32.266521918000024],[115.99012884500007,32.486156720000054],[116.01790244500012,32.656377966000036],[115.86893495400011,32.60321853700003],[115.79066389900004,32.511710495000045],[115.6467461530001,32.53299976200003],[115.53312687900006,32.68613345000006],[115.34123655100007,32.70100747400005],[115.30083858700004,32.82627571100005],[115.34376142400004,32.93653534900005],[115.22761727800003,33.03184154300004],[115.04835131200002,33.05935528100002],[115.00037873100007,33.12915922700006],[115.03825182300011,33.20524573700004],[115.27811473300005,33.20313311500007],[115.4119329880001,33.29181933600006],[115.43970658800004,33.40360436700007],[115.42708222400006,33.48787532800003],[115.48767917000009,33.630947898000045],[115.73511669900006,33.69399275600006],[115.75784055300005,33.78427643800006],[115.71239284400008,33.96874650900003],[115.74521619000006,34.09429270100003],[115.82348724400003,34.161174663000054],[115.96740499200007,34.15908540300006],[116.05325066500006,34.12565021000006],[116.13657146500009,34.02317266700004],[116.23504150200006,33.884945911000045],[116.31836230200008,33.83043133000007],[116.5077277580001,33.89332968000008],[116.62639677600009,33.99805723400004],[116.73244143000011,34.05037266800008],[116.71476732200006,34.15072784500006],[116.68699372200001,34.194595796000044],[116.676894231,34.28852172200004],[116.65417037700001,34.35733409100004],[116.62134703100003,34.388593782000044],[116.53550135800003,34.39901108500004],[116.37643437500003,34.48022154300003],[116.28806382800008,34.57382777600003],[116.2628151020001,34.66940533800005],[116.2696651010001,34.706579856000076],[116.260033797,34.70748066600004],[116.08028455600004,34.70018323900007],[115.82952326800012,34.718425602000025],[115.69637568300004,34.67463717100003],[115.54769421100002,34.76765988400007],[115.5543515920001,34.91154709700004],[115.44561439600011,34.94065817000006],[115.27252253400002,35.07334629700006],[114.97737871900006,35.16047592700005],[114.94853007400002,35.23663787800007],[115.09499241900005,35.33264503200007],[115.16600446500001,35.43757892800005],[115.37460235000003,35.545987499000034],[115.42120400400006,35.665067874000044],[116.1623922330001,36.10555564600003],[116.15573485400012,36.19335884700007],[115.80955113100003,36.07507034900004],[115.47668216700004,35.91887239400006],[115.44783352200011,36.07507034900004],[115.54769421100002,36.13961345200005],[115.54944646400008,36.22023203300006],[115.29597072600006,36.28965130300003],[115.11176589500008,36.20226386400003],[114.88963654000008,36.311482891000026],[114.77044517800005,36.24596979800003],[114.65125381700011,36.26781360500007],[114.56998698100006,36.337672730000065],[114.244919632,36.37257882200004],[114.13656384900003,36.45106027800006],[113.813192447,36.46220698500008],[113.77898976600011,36.18914732200005],[113.70855850800001,35.90880487100003],[113.6652161930001,35.69789371400003],[113.01508149600011,35.36280771400004],[112.74419203900004,35.38047868600006],[112.63583625600006,35.30535033700005],[112.30535111900008,35.35397077600004],[112.19699533500011,35.28766292900008],[112.1428174450001,35.19031311500004],[111.92025466600006,35.17986319600004],[111.54924446600006,34.930083858000046],[111.28225581700008,34.91586892400005],[111.03607147900004,34.85329397600003],[110.84536530100007,34.728001232000054],[110.43970339000003,34.71986913400008],[110.43833766800009,34.58505345300006],[110.54983604800009,34.48122056400007],[110.54948177700004,34.35607206100008],[110.71591625900004,34.30516795300008],[110.72208049900007,34.01953498700004],[110.86385802100006,33.937748261000024],[110.93166466300005,33.77906278000006],[111.11659186500009,33.65087605200006],[111.10426338400003,33.393929369000034],[111.08785002600007,33.38212823400005],[111.22064423800003,33.265170141000056],[111.32716230700004,33.067025847000025],[111.38239389800009,32.97771495300003],[111.49680219400005,32.92143577000007],[111.55203378500005,32.86512077300006],[111.61515560400005,32.74242918600004],[111.80057594600004,32.732473801000026],[111.93470980900008,32.62621386500007],[112.04122787900008,32.602952661000074],[112.26215424300005,32.519827623000026],[112.41601367600003,32.47990026300005],[112.6172144730001,32.49986615900008],[112.7040069740001,32.49986615900008],[112.8341957240001,32.469915653000044],[113.11035368000012,32.52648046000007],[113.33917027300004,32.54311039600003],[113.56798686400009,32.409984751000025],[113.80074857000011,32.52980669300007],[113.89148618400009,32.50984744500005],[113.8875410710001,32.17320266100006],[114.120302777,31.885569884000063],[114.250491527,31.898968169000057],[114.32544868600007,31.945846806000077],[114.4853046930001,31.829946178000057],[114.62417269200012,31.857829242000037],[114.65194629200005,31.836381479000067],[114.68224476500006,31.71403407500003],[114.83626200200001,31.615179685000044],[115.1569208410001,31.59152501400007],[115.23519189600006,31.688256117000037],[115.29578884200009,31.68181050700008],[115.33618680600011,31.63882834700007],[115.37910964200012,31.535590096000078],[115.48626782300005,31.518355946000042]]]}}]}
