{"type":"FeatureCollection","features":[{"type":"Feature","properties":{"shapeName":"Hong Kong Special Administrative Region","shapeISO":"CHN","shapeID":"43563684B69230098435171","shapeGroup":"CHN","shapeType":"ADM1"},"geometry":{"type":"MultiPolygon","coordinates":[[[[114.26099499800011,22.255725649000055],[114.22281892100011,22.282642724000027],[114.17652785400003,22.287996905000057],[114.12556082300011,22.278437273000065],[114.17009957900007,22.237217157000032],[114.20100402100002,22.237217157000032],[114.23009055500006,22.206925260000048],[114.26099499800011,22.255725649000055]]],[[[114.0130080560001,22.251399740000068],[114.01093968100008,22.284896794000076],[114.02317102500001,22.29701271500005],[113.93798742000001,22.301838003000057],[113.8423111840001,22.22134264500005],[113.8413328690001,22.21885207200006],[113.85167474800005,22.193000012000027],[113.89097388700009,22.211192699000037],[113.91682858400009,22.231297661000042],[113.9519909710001,22.225553680000075],[113.98405079500003,22.211192699000037],[114.02748668700008,22.221724229000074],[114.0130080560001,22.251399740000068]]],[[[114.41427295200003,22.43696795900007],[114.33360629800006,22.466597687000046],[114.32326441900011,22.488576942000066],[114.3377430490001,22.50386480000003],[114.33257210900001,22.523927548000074],[114.30671741200001,22.543032220000043],[114.30051228500008,22.56595433600006],[114.2773802260001,22.60404713300005],[114.06234179677834,22.54168645556917],[114.03961332353636,22.534065890046644],[114.04345196200006,22.458877244000064],[113.92548990800003,22.411455038000042],[113.931953582,22.359159827000042],[113.97558338200008,22.374103321000064],[114.03005147200008,22.356802195000057],[114.07770685000003,22.36720799400007],[114.11013898200008,22.364147546000027],[114.08101625100005,22.34884429400006],[114.10485686700008,22.326278496000043],[114.14848666800003,22.323288900000023],[114.1662617720001,22.30385496300005],[114.20433281300006,22.298293369000078],[114.22605075900003,22.307861565000053],[114.25811058200009,22.287767597000027],[114.2787943400001,22.26192825000004],[114.299478098,22.286810669000033],[114.31809348000002,22.305947978000063],[114.26328152200006,22.357605611000054],[114.26534989700008,22.384383514000035],[114.28810203100011,22.392989603000046],[114.31705929100008,22.371951557000045],[114.33670886100003,22.348040827000034],[114.3729054370001,22.348997334000046],[114.41427295200003,22.39107718500003],[114.41427295200003,22.43696795900007]]]]}}]}
