{"type":"FeatureCollection","features":[{"type":"Feature","properties":{"shapeName":"Hubei Province","shapeISO":"CHN","shapeID":"43563684B41908353419915","shapeGroup":"CHN","shapeType":"ADM1"},"geometry":{"type":"Polygon","coordinates":[[[116.2457002110001,29.88968471800007],[116.22494201100005,30.058687504000034],[116.22494201100005,30.150427941000032],[116.17444455500004,30.26607395800005],[116.13625585600005,30.365927232000047],[116.01001221900003,30.46459050800007],[116.03368290000003,30.603909575000046],[115.89560392300007,30.83453396400006],[116.124420514,31.054467018000025],[116.1086400590001,31.15580364500005],[115.93505505900009,31.270520960000056],[115.67073244300002,31.307605571000067],[115.48626782300005,31.518355946000042],[115.37910964200012,31.535590096000078],[115.33618680600011,31.63882834700007],[115.29578884200009,31.68181050700008],[115.23519189600006,31.688256117000037],[115.1569208410001,31.59152501400007],[114.83626200200001,31.615179685000044],[114.68224476500006,31.71403407500003],[114.65194629200005,31.836381479000067],[114.62417269200012,31.857829242000037],[114.4853046930001,31.829946178000057],[114.32544868600007,31.945846806000077],[114.250491527,31.898968169000057],[114.120302777,31.885569884000063],[113.8875410710001,32.17320266100006],[113.89148618400009,32.50984744500005],[113.80074857000011,32.52980669300007],[113.56798686400009,32.409984751000025],[113.33917027300004,32.54311039600003],[113.11035368000012,32.52648046000007],[112.8341957240001,32.469915653000044],[112.7040069740001,32.49986615900008],[112.6172144730001,32.49986615900008],[112.41601367600003,32.47990026300005],[112.26215424300005,32.519827623000026],[112.04122787900008,32.602952661000074],[111.93470980900008,32.62621386500007],[111.80057594600004,32.732473801000026],[111.61515560400005,32.74242918600004],[111.55203378500005,32.86512077300006],[111.49680219400005,32.92143577000007],[111.38239389800009,32.97771495300003],[111.32716230700004,33.067025847000025],[111.22064423800003,33.265170141000056],[111.08785002600007,33.38212823400005],[110.88235074200009,33.23423962500004],[110.66043809900009,33.37334068200005],[110.49868843800004,33.28825778700008],[110.41584105300007,33.291555523000056],[110.08445150400007,33.36407418400006],[109.84774468500007,33.39701725200007],[109.72544616100004,33.39372350700006],[109.62287320700005,33.33111863800008],[109.63865366000005,33.22887722300004],[109.86352514000004,33.20907473600005],[109.86747025300008,33.050493621000044],[110.04105525500006,33.030650851000075],[110.25014627700006,32.90818840400004],[110.24225605100008,32.77892274900006],[110.02527480000003,32.75238346000003],[109.89903116200009,32.719198223000035],[109.68599502500007,32.659433673000024],[109.62681832000004,32.409984751000025],[109.77278752600006,32.19657484000004],[109.74122661600006,32.139803431000075],[109.73082396200004,31.972288990000038],[110.02132968600006,31.91999954000005],[110.02637943100007,31.711886186000072],[110.19049615900008,31.597976884000047],[110.24099361400005,31.51406773700006],[110.25866772300009,31.41931047500003],[110.25614285200004,31.350335905000065],[110.22331950600005,31.30072916200004],[110.20059565000008,31.24677915500007],[110.21322001400006,31.164716089000024],[110.20564539700007,31.030671031000054],[110.15009819500006,30.96790765700007],[110.13494895900004,30.95924739900005],[109.98345659600005,30.987390365000067],[109.90771041300007,30.987390365000067],[109.78399164800004,30.90077012000006],[109.69562110200008,30.818408223000063],[109.62239979300006,30.76635375400008],[109.54917848400004,30.72078298400004],[109.42798459200009,30.707758806000072],[109.27144248200005,30.694732870000053],[109.18054706400005,30.72078298400004],[109.10227600900004,30.72078298400004],[109.05430342700004,30.707758806000072],[108.98108211700008,30.668675720000067],[108.89018669900008,30.644783827000026],[108.80434102400005,30.638266830000077],[108.69829637100008,30.67084741800005],[108.65537353300004,30.61871320800003],[108.62002531600007,30.586115060000054],[108.56447811400005,30.55350594500004],[108.53165476900006,30.540459231000057],[108.64274917000006,30.38158392300005],[108.62759993400005,30.287878714000044],[108.60487607800007,30.167892650000056],[108.56459646700006,29.90532418400005],[108.70020975000006,29.95874458800006],[108.82958975300005,29.800485724000055],[108.90028619000009,29.750080342000047],[108.99875622500008,29.74788822900007],[109.00380597200007,29.625053423000054],[108.99875622500008,29.550401974000067],[109.00885571600008,29.508660946000077],[109.14945956800005,29.31882480200005],[109.25992275100003,29.25689002000007],[109.32884620600004,29.24048923600003],[109.36738764600005,29.352529056000037],[109.41283535600007,29.429525478000073],[109.48605666500004,29.535025705000066],[109.50120590100005,29.592125768000074],[109.53402924700003,29.67332785600007],[109.67542212000006,29.74569606800003],[109.82186473900003,29.796103655000024],[109.92790939400004,29.853055581000035],[110.01627994000006,29.881519369000046],[110.07940175900006,29.89027582400007],[110.13999870400005,29.881519369000046],[110.18039666800007,29.861814534000075],[110.20817026800006,29.84210580900003],[110.23846874100008,29.80486760200006],[110.28139157800007,29.780764901000055],[110.33693877900004,29.767615526000043],[110.55660270600004,29.774190430000033],[110.70334831100007,29.83220618100006],[110.74213035500009,29.86584339500007],[110.74697811200008,29.912076054000067],[110.73081892600004,29.970886591000067],[110.68557320700006,30.01427205500005],[110.60639319800003,30.082810382000048],[110.59184993000008,30.126146858000027],[110.60154544100004,30.158287441000027],[110.67264585900006,30.172258343000067],[110.76798505300007,30.176449226000045],[110.81969444700007,30.19600433000005],[110.90533813000008,30.23649897300004],[111.12348713600005,30.214159162000044],[111.19458755100004,30.189020810000045],[111.28346307200007,30.17924305100007],[111.34002022100009,30.169464321000078],[111.41112063800006,30.135929883000074],[111.44343900900009,30.11496507100003],[111.46767778700007,30.088403253000024],[111.50807575100004,30.059037153000077],[111.94922151700007,30.008674996000025],[112.0720313270001,29.94288591000003],[112.12050888300007,29.900870105000024],[112.25139828500005,29.794350774000065],[112.33381013200005,29.736839246000045],[112.40006279400006,29.693333014000075],[112.45338810600003,29.698947779000036],[112.50186566100001,29.71298332400005],[112.53903178900009,29.746660623000025],[112.5697342420001,29.75086949200005],[112.67961670200009,29.75507818400007],[112.80081059300005,29.812579240000048],[112.90422938100005,29.86584339500007],[113.02703919200007,29.85743515400003],[113.0625893990001,29.80977507700004],[113.04804613300007,29.73543611300005],[113.0464302150001,29.696140436000064],[113.056125726,29.639977084000066],[113.0674371560001,29.610478775000047],[113.13045798000007,29.587998077000066],[113.19024696500003,29.596428926000044],[113.25488370700009,29.60766896100006],[113.31628861200011,29.649807934000023],[113.33891147300005,29.720000361000075],[113.46656903900009,29.81398129200005],[113.53443761800008,29.844821463000073],[113.55059680400007,29.860237979000033],[113.5958425230001,29.89526665900007],[113.64351341300005,29.935331095000038],[113.69911135300003,29.936478246000036],[113.70242075400006,29.874513231000037],[113.71301083800006,29.83834918100007],[113.724262801,29.812509698000042],[113.73948604800012,29.783791327000074],[113.77787510200005,29.745870461000038],[113.81368854300001,29.686489592000044],[113.803589052,29.616273767000052],[113.75561647000006,29.54381243100005],[113.72784287000002,29.473497252000072],[113.7404672340001,29.381134530000054],[113.79298458700009,29.323475276000067],[113.8026800990001,29.255827168000053],[113.82207112000003,29.20506170300007],[113.84630989900006,29.200830111000073],[113.87539643200012,29.231857723000076],[113.89640337300011,29.226217039000062],[113.957808279,29.213524360000065],[113.97719930200003,29.200830111000073],[114.0489992570001,29.19659834600003],[114.06617581700004,29.260056488000032],[114.28583974500009,29.341524811000056],[114.419658,29.44711647500003],[114.62417269200012,29.438321358000053],[114.93725691300006,29.491080625000052],[114.98775436800008,29.565775904000077],[115.08622440300007,29.642610441000045],[115.13924673200006,29.646999218000076],[115.18974418700009,29.640415981000046],[115.21751778700002,29.649193533000073],[115.21751778700002,29.734734540000034],[115.26044062400001,29.752272408000067],[115.37153502400008,29.74788822900007],[115.49525378800001,29.776381967000077],[115.53843517100006,29.834617225000045],[115.68115309900008,29.862424128000043],[115.8083582060001,29.78885353700008],[115.94176844300011,29.722414107000077],[116.05346073400005,29.769105876000026],[116.10930687900009,29.83641145100006],[116.21996498100009,29.87766978800005],[116.2457002110001,29.88968471800007]]]}}]}
