{"type":"FeatureCollection","features":[{"type":"Feature","properties":{"shapeName":"Hunan Province","shapeISO":"CHN","shapeID":"43563684B64987462919315","shapeGroup":"CHN","shapeType":"ADM1"},"geometry":{"type":"Polygon","coordinates":[[[112.00096129100007,24.85742471100008],[112.00254682900004,24.857199923000053],[112.1775710070001,24.891240795000044],[112.23311820700008,24.978242759000068],[112.240692824,25.065183224000066],[112.23564308000005,25.115489007000065],[112.25584206200006,25.19090886500004],[112.2836156620001,25.245730366000032],[112.28866540600006,25.26399870800003],[112.664871446,25.25714840200004],[112.72799326400002,25.16577409300004],[112.90220948300009,25.02858421800005],[112.995629774,25.02858421800005],[113.01077901100007,25.06060894500007],[113.03602773800003,25.104057690000047],[113.0612764660001,25.172629546000053],[113.06632621100005,25.23659516500004],[113.06632621100005,25.26628205800006],[113.03350286700004,25.31194002500007],[113.01330388400004,25.33932654800003],[113.0082541380001,25.366706875000034],[113.01077901100007,25.398642752000057],[113.048652102,25.453370304000032],[113.14207239300003,25.48528322900006],[113.27841552100006,25.567306118000033],[113.34658708500001,25.585525807000067],[113.47283072200003,25.510351726000067],[113.55110177800009,25.460209502000055],[113.6369474500001,25.43057017800004],[113.76066621600012,25.41460752200004],[113.86166112500007,25.451090487000045],[113.94245705300011,25.49212061000003],[114.02577785300002,25.53085842400003],[114.04385854500003,25.54367680300004],[114.03351027600002,25.559476494000023],[114.04534561600008,25.666199964000043],[113.97827868500008,25.77993312800004],[114.11635766200004,25.978703832000065],[114.11635766200004,26.13818729600007],[114.2544366410001,26.247927187000073],[114.2544366410001,26.308063186000027],[114.17947948100004,26.297453216000065],[114.10057720900011,26.262079637000056],[114.02956516100005,26.290379363000056],[114.07122556200011,26.45000168000007],[114.14949661700007,26.53361265700005],[114.16212098100004,26.67583714500006],[113.99042963500005,26.76604650200005],[113.91973319800002,26.85618427600008],[113.91720832500005,26.939497842000037],[113.99800425300009,27.056483162000063],[113.87176061600007,27.198052070000074],[113.8591362520001,27.260913997000046],[113.94277266200004,27.364110030000063],[113.93882754900005,27.430659718000072],[113.863870388,27.49716931000006],[113.75735232000011,27.423656375000064],[113.713956069,27.469170164000047],[113.67845004600008,27.616086197000072],[113.690285388,27.759314394000057],[113.72184629800006,27.857020660000046],[113.80074857000011,27.930242633000034],[113.83230948000005,28.003415032000078],[113.844144819,28.069575841000074],[113.95066288900011,28.114820309000038],[114.02167493400009,28.125258631000065],[114.09663209400003,28.180912508000063],[114.17158925500007,28.309501166000075],[114.21893061800006,28.365059011000028],[114.3175584600001,28.458746934000033],[114.31361334500002,28.55581715200003],[114.2347110720001,28.683951328000035],[114.23897810800008,28.865983726000024],[114.04022012500002,29.164149004000024],[114.0489992570001,29.19659834600003],[113.97719930200003,29.200830111000073],[113.957808279,29.213524360000065],[113.89640337300011,29.226217039000062],[113.87539643200012,29.231857723000076],[113.84630989900006,29.200830111000073],[113.82207112000003,29.20506170300007],[113.8026800990001,29.255827168000053],[113.79298458700009,29.323475276000067],[113.7404672340001,29.381134530000054],[113.72784287000002,29.473497252000072],[113.75561647000006,29.54381243100005],[113.803589052,29.616273767000052],[113.81368854300001,29.686489592000044],[113.77787510200005,29.745870461000038],[113.73948604800012,29.783791327000074],[113.724262801,29.812509698000042],[113.71301083800006,29.83834918100007],[113.70242075400006,29.874513231000037],[113.69911135300003,29.936478246000036],[113.64351341300005,29.935331095000038],[113.5958425230001,29.89526665900007],[113.55059680400007,29.860237979000033],[113.53443761800008,29.844821463000073],[113.46656903900009,29.81398129200005],[113.33891147300005,29.720000361000075],[113.31628861200011,29.649807934000023],[113.25488370700009,29.60766896100006],[113.19024696500003,29.596428926000044],[113.13045798000007,29.587998077000066],[113.0674371560001,29.610478775000047],[113.056125726,29.639977084000066],[113.0464302150001,29.696140436000064],[113.04804613300007,29.73543611300005],[113.0625893990001,29.80977507700004],[113.02703919200007,29.85743515400003],[112.90422938100005,29.86584339500007],[112.80081059300005,29.812579240000048],[112.67961670200009,29.75507818400007],[112.5697342420001,29.75086949200005],[112.53903178900009,29.746660623000025],[112.50186566100001,29.71298332400005],[112.45338810600003,29.698947779000036],[112.40006279400006,29.693333014000075],[112.33381013200005,29.736839246000045],[112.25139828500005,29.794350774000065],[112.12050888300007,29.900870105000024],[112.0720313270001,29.94288591000003],[111.94922151700007,30.008674996000025],[111.50807575100004,30.059037153000077],[111.46767778700007,30.088403253000024],[111.44343900900009,30.11496507100003],[111.41112063800006,30.135929883000074],[111.34002022100009,30.169464321000078],[111.28346307200007,30.17924305100007],[111.19458755100004,30.189020810000045],[111.12348713600005,30.214159162000044],[110.90533813000008,30.23649897300004],[110.81969444700007,30.19600433000005],[110.76798505300007,30.176449226000045],[110.67264585900006,30.172258343000067],[110.60154544100004,30.158287441000027],[110.59184993000008,30.126146858000027],[110.60639319800003,30.082810382000048],[110.68557320700006,30.01427205500005],[110.73081892600004,29.970886591000067],[110.74697811200008,29.912076054000067],[110.74213035500009,29.86584339500007],[110.70334831100007,29.83220618100006],[110.55660270600004,29.774190430000033],[110.33693877900004,29.767615526000043],[110.28139157800007,29.780764901000055],[110.23846874100008,29.80486760200006],[110.20817026800006,29.84210580900003],[110.18039666800007,29.861814534000075],[110.13999870400005,29.881519369000046],[110.07940175900006,29.89027582400007],[110.01627994000006,29.881519369000046],[109.92790939400004,29.853055581000035],[109.82186473900003,29.796103655000024],[109.67542212000006,29.74569606800003],[109.53402924700003,29.67332785600007],[109.50120590100005,29.592125768000074],[109.48605666500004,29.535025705000066],[109.41283535600007,29.429525478000073],[109.36738764600005,29.352529056000037],[109.32884620600004,29.24048923600003],[109.34671525100003,29.236236752000025],[109.33744975400003,28.612592041000028],[109.33708917400008,28.588246407000042],[109.38506175400005,28.488432166000052],[109.43808408300004,28.412954305000028],[109.45323331900005,28.31297438200005],[109.41031048300005,28.09268770600005],[109.42293484600003,28.05258684300003],[109.43808408300004,27.945578101000024],[109.46333280900006,27.883107307000046],[109.48605666500004,27.842928468000025],[109.52392975600009,27.800501318000045],[109.54412873800004,27.782632297000077],[109.52372776600004,27.697714364000035],[109.47201837200004,27.649057894000066],[109.38960652600008,27.57746492600006],[109.35082448200006,27.535919578000062],[109.21670324100006,27.507258458000024],[109.16660976500003,27.45564962700007],[109.01794525800005,27.35953554500003],[108.93068565700008,27.279137314000025],[108.91291055300007,27.24897296200004],[108.93553341200004,27.207303981000052],[108.96461994600008,27.16993233200003],[109.03572036300005,27.16561941300006],[109.14075506900008,27.22742198800006],[109.21347140400007,27.254719184000066],[109.34759264300004,27.25615569400003],[109.42354081600007,27.271956069000055],[109.50918450000006,27.26046510900005],[109.59159634500008,27.198680866000075],[109.59644410100009,27.10809791500003],[109.57543716000004,26.97568629700004],[109.49868102900007,26.898974594000038],[109.40526073600006,26.815631147000033],[109.48353179100008,26.67583714500006],[109.42040997400005,26.569749908000063],[109.35728815500005,26.49746402100004],[109.37496226300004,26.41834924500006],[109.42293484600003,26.33465457400007],[109.48100692000008,26.257692562000045],[109.52897950200008,26.198804820000078],[109.53907899300003,26.12855357500007],[109.53818465300009,26.125609403000055],[109.67021457000004,26.116935383000055],[109.68204991200008,26.088593486000036],[109.73728150300008,26.042523264000067],[109.85563491300007,26.042523264000067],[109.93453718500007,26.109850554000047],[109.96609809500006,26.173598557000048],[109.98976877700005,26.240850316000035],[110.00160411800005,26.300989980000054],[110.03316502700005,26.336351689000026],[110.11601241400007,26.35049335000008],[110.15940866300008,26.32928021200007],[110.18702446000009,26.286842274000037],[110.19491468600006,26.20899906300008],[110.20675002800004,26.12401978500003],[110.38033503000008,26.113393022000025],[110.71961480300007,26.438839537000035],[110.83796821400006,26.41764261800006],[110.93265094100008,26.407042699000044],[111.00366298700004,26.438839537000035],[111.03127878100008,26.460032556000044],[111.12995080900004,26.469079374000046],[111.22529000300005,26.42422821300005],[111.28992674500006,26.39673016200004],[111.31739736200007,26.37501654600004],[111.29954651100007,26.106307978000075],[111.32321719200007,26.060244725000075],[111.35477810200007,26.024799124000026],[111.40606458000008,26.007072305000065],[111.51258264900008,26.00352662100005],[111.49680219400005,25.907752707000043],[111.47707662600004,25.868711382000072],[111.43368037600004,25.80834941100005],[111.40606458000008,25.747956671000054],[111.39817435300006,25.67331147300007],[111.37844878500005,25.58794540300005],[111.37844878500005,25.545239502000072],[111.25586318300009,25.46843425900005],[111.24448711600007,25.443222045000027],[111.23207686200004,25.40305836300007],[111.20932472900006,25.361012278000032],[111.14830764500005,25.304928078000046],[111.11004269200004,25.27313550200006],[111.06660680200008,25.240399147000062],[111.05212817100005,25.145881961000043],[111.09866662500008,25.073775087000058],[111.10487175400004,25.055039074000035],[111.23000848500004,25.14213719600008],[111.28068369200008,25.18425916600006],[111.31688026800003,25.226366580000047],[111.45442725500004,25.212332395000033],[111.51130758700003,25.13277478400005],[111.51751271500007,25.103746743000045],[111.51854690300007,25.057849659000055],[111.51130758700003,25.00256300600006],[111.51854690300007,24.915365724000026],[111.51234177600008,24.86939824600006],[111.51441015100005,24.819659071000046],[111.52371784200005,24.76520462800005],[111.56301698100009,24.754874366000024],[111.62713662900006,24.799945569000045],[111.65609389100007,24.84312343700003],[111.69849559200009,24.886286247000044],[111.76882036800004,24.89097694900005],[111.91360667200007,24.86939824600006],[111.96945281600006,24.861891727000057],[112.00096129100007,24.85742471100008]]]}}]}
