{"type":"FeatureCollection","features":[{"type":"Feature","properties":{"shapeName":"Inner Mongolia Autonomous Region","shapeISO":"CHN","shapeID":"43563684B95381459098578","shapeGroup":"CHN","shapeType":"ADM1"},"geometry":{"type":"Polygon","coordinates":[[[107.58140655100004,37.825796156000024],[107.58255596900005,37.82168886900007],[108.09919634100004,37.86002444500008],[108.19281573600006,37.925696207000044],[108.30723944400006,37.912019421000025],[108.40432622400004,37.761407001000066],[108.68865179900007,37.75044137800006],[108.76146688600005,37.79977388000003],[108.85161889800008,37.96671130300007],[109.00418383900006,38.18234607000005],[109.17061832100006,38.27767711600006],[109.29544418300009,38.40821354800005],[109.38559619500006,38.511387984000066],[109.49308513200003,38.57376395700004],[109.56243283200007,38.70376556800005],[109.77394332100005,38.71999918600005],[109.90917133800008,38.79570731800004],[109.91610610800006,38.860536065000076],[109.85022579200006,38.94418579400008],[109.91957349100005,39.186481065000066],[110.20736645200009,39.41455119900007],[110.28364892300004,39.51627148600005],[110.35646400900004,39.44668945700005],[110.59224619300005,39.457398916000045],[110.75044563600005,39.38239811900007],[111.11343750800006,39.64571575400004],[111.27180531600004,39.502719666000075],[111.30306012700004,39.474463710000066],[111.49810053600004,39.60398595700008],[111.60103853100009,39.75409542300008],[111.80691451800004,39.71659864500003],[111.92610587900003,39.72493302500004],[112.04529724000008,39.849827821000076],[112.38120016700009,40.36777938200004],[112.54091659100004,40.38808523500006],[112.76282923400004,40.28236185000003],[112.89805725100007,40.30616405400008],[113.1095677400001,40.49364292100006],[113.27253483700008,40.50946227800006],[113.39042592900012,40.43296750500008],[113.54992564100007,40.42240966300005],[113.84118598500004,40.556897958000036],[114.06656601300006,40.59640203600003],[114.2123338670001,40.79157821800004],[114.22953311100002,40.814569464000044],[113.9487692350001,41.16858559600007],[114.06522898900005,41.298888773000044],[113.99847766700009,41.39378211600007],[114.03966465400003,41.550213126000074],[114.24844006800004,41.697783539000056],[114.28394609100008,41.90529434200005],[114.6035002960001,42.22266251700006],[114.91169257600006,42.195311262000075],[115.02619950100006,42.04295379800004],[114.97737871900006,41.732371175000026],[115.00844648900011,41.684327765000035],[115.31468593500006,41.66277941200008],[115.5121881880001,41.825043031000064],[115.92710802200008,41.990052809000076],[116.06072428700008,41.94747639900004],[116.16780135400006,41.94110715900007],[116.46641255500003,42.10225476800008],[116.57736887600004,42.051193356000056],[116.83034929000007,42.02482300600008],[116.89914220900005,42.051193356000056],[116.95240124400004,42.26833109900008],[116.92355259900012,42.36842327000005],[116.94130561100008,42.46835620500008],[117.23866855400001,42.582837073000064],[117.42729430000009,42.58610487200008],[117.64920694300008,42.68079652900008],[117.82007967900006,42.66284883800006],[118.00648629900002,42.435608857000034],[118.08859397600008,42.26833109900008],[118.275971464,42.06993437300008],[118.24823238500005,41.907569359000036],[118.2378302300001,41.83269074700007],[118.43200379200005,41.61530616500005],[118.43547117700007,41.48815895700005],[118.47014502800005,41.430991121000034],[118.99025278600004,41.363364173000036],[119.10120910700005,41.41019032400004],[119.28470498700005,41.38653246000007],[119.32312175000004,41.38157835100003],[119.45488238200005,41.45438405400006],[119.49302361800005,41.57122220000008],[119.37859991100004,41.724090389000025],[119.45834976700007,42.177947594000045],[119.38553468000009,42.278080672000044],[119.37513252600002,42.370370206000075],[119.62131686400005,42.46508224100006],[119.74961011100004,42.35756031000005],[119.97845752600006,42.32680590700005],[119.94031628900007,42.213911075000055],[120.0928812300001,42.04676472700004],[120.2073049380001,41.84302404600004],[120.60952160400007,42.19336302100004],[120.94932533800011,42.370370206000075],[121.17968973300003,42.375973712000075],[121.56435276200011,42.607679533000066],[121.78648211600012,42.55981083000006],[121.98694031500008,42.627613980000035],[122.00319368200007,42.755043295000064],[122.12780283300003,42.79083568000004],[122.39327450000008,42.73514969900003],[122.49079470600009,42.77493050600003],[122.46370576000004,42.85838707500005],[122.49079470600009,42.945696946000055],[122.72375963900004,42.898088707000056],[122.86462215600011,42.79083568000004],[123.20594287300003,42.862358389000065],[123.31429865600012,43.036843230000045],[123.68812610600003,43.15157411900003],[123.8099180050001,43.42951353600006],[123.78385887000002,43.43983521000007],[123.46664688600004,43.56533746000008],[123.48745119600005,43.665750779000064],[123.59494013200003,43.713388364000025],[123.53876849500011,43.96738206100008],[123.3856487700001,44.099800336000044],[123.40770134000002,44.19265518000003],[123.23086470300007,44.532268619000035],[123.1615170010001,44.55698082200007],[122.41949660000012,44.29201587500006],[122.29813812400005,44.41350402200004],[122.37095321000004,44.48281274200008],[122.33627936000005,44.57180310800004],[122.14210579700011,44.756763024000065],[122.1213014870001,45.10533736700006],[122.14515709500006,45.20793370400003],[122.27164730200002,45.24388178800007],[122.31602983100004,45.406145853000055],[122.282742933,45.499548323000056],[122.111870199,45.555515555000056],[122.01727993400004,45.74050929300006],[121.84391068100001,45.767122063000045],[121.77456298200002,45.82755843600006],[121.8612476080001,45.90240850600003],[121.94099746400002,46.07827029500004],[122.14557318200002,46.046993334000035],[122.35361628400005,45.885515686000076],[122.47150737700008,45.97474810700004],[122.54085507700006,45.97715780100003],[122.72115909900003,45.80822592800007],[122.82864803700011,45.81547640500003],[122.904930508,46.01088251700003],[122.84598496100011,46.097508848000075],[122.904930508,46.167192356000044],[123.06096283500005,46.17439596300005],[123.15111484600004,46.19600112200004],[123.16723220800009,46.29186184200006],[123.16845177000005,46.29910858200003],[123.02975637000009,46.37810612900006],[123.0887019160001,46.49280792900004],[123.09910407100006,46.59773917900003],[123.1441800770001,46.67868351100003],[123.41463610900007,46.64774850600003],[123.59840751800004,46.735747788000026],[123.64695090900011,46.87103369700003],[123.52212504700003,46.79037778000003],[123.13724530600007,46.88288465200003],[122.87719142600008,47.131150244000025],[122.70382217500003,47.17595122100005],[122.56859415800011,47.41581625900005],[122.64834401400003,47.58213902800003],[123.2926274990001,47.84503651700004],[123.35222317900002,47.99752730200004],[123.48766790800005,48.03739109600008],[124.26241175500002,48.56357496600003],[124.42494542800011,48.54205780400008],[124.45203437400005,48.35879237300003],[124.59289689200011,48.23624785800007],[124.6308214170001,48.502585907000025],[124.84753298100009,49.091437334000034],[124.99008855800002,49.22319809000004],[125.184790356,49.18448131000008],[125.2779086060001,49.22872658400007],[125.3794921540001,49.47136820900005],[125.26944331200002,49.679959816000064],[125.30330449300004,49.80577971200006],[125.3117697890001,49.89856737500003],[125.3625615630001,50.17044043900006],[125.51493688300002,50.25170232600004],[125.60805513200012,50.435383855000055],[125.86201399800007,50.55385824600006],[125.91280577200007,50.68276431000004],[125.86201399800007,50.72565450600007],[125.87894459000006,50.85943359600003],[126.07364638700005,50.93418269800003],[126.10750757000005,51.06204498200003],[126.09057697900005,51.18955509300008],[125.94666695500007,51.18955509300008],[125.54033276900009,51.633072079000044],[125.150929173,51.67508755700004],[124.88003971700005,51.40129026300008],[124.61761555500004,51.42241008900004],[124.40598316800003,51.369592228000045],[124.1858854830001,51.40657113300006],[124.09276723300002,51.35902133700006],[123.9234613220001,51.38016067900003],[123.82187777400009,51.29554474200006],[123.66103716100008,51.29554474200006],[123.55098831900011,51.37487675800003],[123.39861299800009,51.33258343300008],[123.2377723840001,51.369592228000045],[123.03460529100005,51.47516697900005],[122.82297290100007,51.77995591500007],[122.87376467500007,51.96810631000005],[122.7806464250001,52.08269979000005],[122.83990349300007,52.254039843000044],[122.7887731080001,52.29858376000004],[122.59915048900007,52.32839279600006],[122.496212495,52.46063462200004],[122.35534997700006,52.52990302000006],[122.24699419400008,52.51342044100005],[122.19281630300009,52.384643992000065],[122.06820715300012,52.33501430100006],[121.93276242400009,52.34494469900005],[121.79731769600005,52.47053678900005],[121.62936623200005,52.50352792500007],[121.33680561800008,52.661541113000055],[121.9165090570001,53.08012929600005],[121.59307227900001,53.40578626000007],[120.80823256400004,53.242949827000075],[120.43575956100005,52.96342138300008],[120.1479395130001,52.830647749000036],[120.11969156500004,52.61241020400007],[120.57623470800002,52.56973629400005],[120.689410156,52.48603250800005],[120.63171286900001,52.35340099100006],[120.75376482200011,52.24075800900005],[120.63171286900001,51.91206067300004],[120.09912252400011,51.65534378900003],[119.7152136520001,51.104090115000076],[119.58428519200004,50.91559735700008],[119.52214965100006,50.804938710000044],[119.41563158200006,50.70807255500006],[119.27138836600011,50.56733083700004],[119.21812933100011,50.48833132200008],[119.19149981300006,50.42333989200006],[119.24697797400006,50.304429414000026],[119.32464739800002,50.18806265400008],[119.30023700900006,50.121236500000066],[119.128387857,50.00978506800004],[118.84433967500001,49.982395444000076],[118.65970835600001,49.96869478200006],[118.5812400430001,49.94448074200005],[118.4103673090001,49.83153079200008],[118.2949727350001,49.75130487700005],[118.126319125,49.67812634400008],[118.00648629900002,49.597646405000035],[117.87555784000006,49.57462770400008],[117.71799986200006,49.57606669000006],[117.36293963300011,49.653708993000066],[117.06779581800004,49.70827203500005],[116.72826947300007,49.848704773000065],[116.56405411700007,49.64652508700004],[116.0580932900001,48.87171237200005],[116.12466708400007,48.80306299600005],[116.08250368200004,48.73139218400007],[115.91385007200006,48.61855990300006],[115.8339615210001,48.27559218600004],[115.5077499360001,48.15582029400008],[115.5991502060001,47.90390764400007],[115.96669302100008,47.67094042800005],[116.24755121100009,47.85972421900004],[116.46599646900006,47.843436616000076],[117.04504977200008,47.85972421900004],[117.41259258700006,47.663935276000075],[117.76973324700009,48.006082494000054],[118.4597428730001,47.98984092000006],[118.82381830200006,47.78755456300007],[119.08040479700003,47.78289501100005],[119.1693085490001,47.56323759500003],[119.46001411200007,47.369715057000064],[119.72852841100007,47.199609750000036],[119.78178744500008,47.10906598200006],[119.8838672600001,46.95630216400008],[119.92603066400011,46.88051467100007],[119.87055250300011,46.75599109700005],[119.52214965100006,46.667739303000076],[118.39705255000001,46.78031102500006],[117.76779705900003,46.579770272000076],[117.51925489900009,46.62855800800003],[117.40137490400002,46.52996151700006],[117.32610213400005,46.43607983100003],[116.84748094500003,46.456630293000046],[116.56627324500005,46.29642545100006],[116.41981089900003,46.17670091800005],[116.37542837100011,46.09366167300004],[116.28888244000007,45.988915606000035],[116.25337641700003,45.908681674000036],[116.25559554300003,45.85924921800006],[116.27112942800011,45.786565550000034],[115.64169640700004,45.44651470000008],[114.65255408700011,45.444498499000076],[114.503456529,45.20558847400008],[113.64701242300009,44.81090599000004],[112.73162276900007,44.882198679000055],[112.5513187460001,45.04167211300006],[111.92025466600006,45.07106489000006],[111.44175553000008,44.37138360300003],[112.02774360400008,43.83606856500006],[112.00000452300003,43.728423951000025],[111.58391831700004,43.51003866800005],[111.06727794400007,43.36400787700006],[110.41929302700004,42.78511665000008],[109.42308729700005,42.46795975800006],[108.23442435900006,42.43693955100008],[107.90155539200003,42.38829966900005],[107.39531717500006,42.45996633000004],[107.24275223300003,42.360122499000056],[106.84400295200004,42.30116574700003],[105.91127637500006,42.026162389000035],[105.62001603100003,41.88175905600008],[105.14845166200007,41.66972125400008],[105.00282149200007,41.56862808900007],[104.60753959500005,41.63085802200004],[104.57286574500006,41.80426557200008],[103.79963887900004,41.78617025600005],[103.09575971200007,41.96689347000006],[102.22891345100004,42.093095564000066],[101.84750109500004,42.411344316000054],[100.33745490500007,42.57577114800006],[100.06114765800004,42.55981083000006],[99.30265717800006,42.44797427200007],[97.45248218600005,42.56554703900008],[97.36665056300006,42.54598349100007],[97.40643098000004,42.167507931000046],[97.57438244200006,41.95835290900004],[97.40101319000007,41.67975711300005],[97.42810213600006,41.46088059400006],[97.78025843100005,40.97592607800004],[97.99696999700006,40.84490503500007],[98.23535271800006,40.61499379500003],[98.40330418200006,40.536807776000046],[98.60918016800008,40.56150796900005],[99.05885666700004,40.861296863000064],[100.13699670600005,40.91454229100003],[100.41872174300005,40.75878141600003],[100.43497511000004,40.45440801500007],[100.00155197800007,40.173492346000046],[99.81734714700008,39.97864749300004],[99.97988082200004,39.79573458100003],[100.28869480200007,39.68325105400004],[100.44039289800008,39.53716594500003],[100.88703543500009,39.52697023500008],[100.92517667200008,39.457398916000045],[100.89743759000004,39.37703783100005],[100.91824190000006,39.15422309100006],[101.11935023300003,39.04389674000004],[101.27884994600004,39.035817302000055],[101.39327365300005,38.960364679000065],[101.60825152600006,38.92260820300004],[102.37454362300008,38.94418579400008],[102.83223844900004,39.08428006500003],[103.38008528700004,39.46810672700008],[103.83431272900003,39.454721705000054],[104.21919246900006,39.21603787500004],[104.24790241700003,39.007585885000026],[104.12141221200005,38.87468248700003],[104.15469910700006,38.772678916000075],[104.13916522200009,38.56476346200003],[104.02155152200004,38.46579222200006],[103.73084595900008,38.42234087000003],[103.72640770600003,38.223871289000044],[103.61767051100009,38.05457048000005],[103.63542352300004,37.79900673900005],[103.96385423400005,37.69372319100006],[103.97938812000007,37.623450982000065],[104.30559970500008,37.52671813300003],[104.50975933700005,37.54607475500006],[104.54273383900005,37.57352119500007],[104.59852439500008,37.61993562600003],[105.09560871500008,37.674404965000065],[105.30198747200006,37.88487715000008],[105.45288807000009,38.003878531000055],[105.90558986300005,38.293571616000065],[105.90558986300005,38.75710620500007],[106.09643473500006,38.966188174000024],[106.09199648300006,39.13163370600006],[106.32056650600003,39.241715328000055],[106.38048291900009,39.341327817000035],[106.52028788500007,39.34304403200008],[106.66009284900008,39.432229076000056],[106.87312898700009,39.40479966400005],[106.87312898700009,39.26405458600004],[107.06619298700008,39.11613965300006],[106.63595984900007,38.386473815000045],[106.93415496500006,38.228665326000055],[107.24621961900004,38.23955969200006],[107.50974088200007,38.081431724000026],[107.58140655100004,37.825796156000024]]]}}]}
