{"type":"FeatureCollection","features":[{"type":"Feature","properties":{"shapeName":"Jiangxi Province","shapeISO":"CHN","shapeID":"43563684B87813050901813","shapeGroup":"CHN","shapeType":"ADM1"},"geometry":{"type":"Polygon","coordinates":[[[118.59094838800002,28.390088225000056],[118.59997933500006,28.398032730000068],[118.56299389500009,28.733690978000027],[118.38423093200004,28.92270143500008],[118.16848252900002,29.186738011000045],[118.16848252900002,29.288937358000055],[118.26711036900008,29.433992232000037],[118.29055000100004,29.512701785000047],[118.20349541300004,29.60735614600003],[118.08908711700008,29.641650371000026],[117.70246597700009,29.682788027000072],[117.61961859100006,29.730760690000068],[117.49732006700003,29.898484301000053],[117.42236290900007,29.91558312500007],[117.3552959760001,29.973697161000075],[117.26455836200012,29.977114576000076],[117.20932677100006,29.93267901400003],[117.18565608900008,29.823214628000073],[116.96867483800008,29.63479245900004],[116.85032142700004,29.655364793000047],[116.81481540400011,29.754738425000028],[116.92133347300012,29.83348201700005],[116.97656506400006,30.001033190000044],[116.81876051800009,30.147835258000043],[116.72802290300001,30.13760032400006],[116.65701085700005,30.014698381000073],[116.24671903800004,29.88138254300003],[116.2457002110001,29.88968471800007],[116.21996498100009,29.87766978800005],[116.10930687900009,29.83641145100006],[116.05346073400005,29.769105876000026],[115.94176844300011,29.722414107000077],[115.8083582060001,29.78885353700008],[115.68115309900008,29.862424128000043],[115.53843517100006,29.834617225000045],[115.49525378800001,29.776381967000077],[115.37153502400008,29.74788822900007],[115.26044062400001,29.752272408000067],[115.21751778700002,29.734734540000034],[115.21751778700002,29.649193533000073],[115.18974418700009,29.640415981000046],[115.13924673200006,29.646999218000076],[115.08622440300007,29.642610441000045],[114.98775436800008,29.565775904000077],[114.93725691300006,29.491080625000052],[114.62417269200012,29.438321358000053],[114.419658,29.44711647500003],[114.28583974500009,29.341524811000056],[114.06617581700004,29.260056488000032],[114.0489992570001,29.19659834600003],[114.04022012500002,29.164149004000024],[114.23897810800008,28.865983726000024],[114.2347110720001,28.683951328000035],[114.31361334500002,28.55581715200003],[114.3175584600001,28.458746934000033],[114.21893061800006,28.365059011000028],[114.17158925500007,28.309501166000075],[114.09663209400003,28.180912508000063],[114.02167493400009,28.125258631000065],[113.95066288900011,28.114820309000038],[113.844144819,28.069575841000074],[113.83230948000005,28.003415032000078],[113.80074857000011,27.930242633000034],[113.72184629800006,27.857020660000046],[113.690285388,27.759314394000057],[113.67845004600008,27.616086197000072],[113.713956069,27.469170164000047],[113.75735232000011,27.423656375000064],[113.863870388,27.49716931000006],[113.93882754900005,27.430659718000072],[113.94277266200004,27.364110030000063],[113.8591362520001,27.260913997000046],[113.87176061600007,27.198052070000074],[113.99800425300009,27.056483162000063],[113.91720832500005,26.939497842000037],[113.91973319800002,26.85618427600008],[113.99042963500005,26.76604650200005],[114.16212098100004,26.67583714500006],[114.14949661700007,26.53361265700005],[114.07122556200011,26.45000168000007],[114.02956516100005,26.290379363000056],[114.10057720900011,26.262079637000056],[114.17947948100004,26.297453216000065],[114.2544366410001,26.308063186000027],[114.2544366410001,26.247927187000073],[114.11635766200004,26.13818729600007],[114.11635766200004,25.978703832000065],[113.97827868500008,25.77993312800004],[114.04534561600008,25.666199964000043],[114.03351027600002,25.559476494000023],[114.04385854500003,25.54367680300004],[114.13608323200003,25.402776689000063],[114.36489982300009,25.374263894000023],[114.51875925600007,25.427719859000035],[114.67656380100004,25.44909561000003],[114.75546607600006,25.29581901800003],[114.73574050800005,25.156632890000026],[114.49508857300009,25.092339483000046],[114.45958255000005,24.945767303000025],[114.27021709500002,24.759619799000063],[114.48325323300003,24.58754335900005],[115.14208721400007,24.723790129000065],[115.47347676000004,24.841988817000072],[115.70229335300007,24.644928544000038],[115.81275653600005,24.641342741000074],[115.85615278500006,24.730956888000037],[115.8245918770001,24.895678235000048],[115.97056108200002,24.967227816000047],[115.96841599700008,24.97318308900003],[115.90743926300001,25.14234839200003],[115.91532949100008,25.25657752500007],[116.02973778700004,25.29581901800003],[116.124420514,25.71597160500005],[116.22699347000002,25.804797748000055],[116.25066415100002,25.964517027000056],[116.36901756200007,26.010617884000055],[116.5077277580001,26.182945336000046],[116.47742928500008,26.35501831700003],[116.6364962670001,26.47260523600005],[116.68194397700006,26.54038925800006],[116.6036729220001,26.702907459000073],[116.65922012200008,27.000255409000033],[117.03290128800006,27.108187816000054],[117.23741597900005,27.337198581000052],[117.19196827000007,27.543352335000066],[117.2626647080001,27.724537703000067],[117.36365961600006,27.845161016000077],[117.39648296200005,27.938886529000058],[117.55554994400006,28.008012782000037],[117.65906972800008,28.005783594000036],[117.72471641800007,27.916578293000043],[117.85348492900005,27.90095978900007],[117.87620878300004,27.972340247000034],[118.45203757200011,28.153741377000074],[118.48902301400005,28.300383434000025],[118.59094838800002,28.390088225000056]]]}}]}
