{"type":"FeatureCollection","features":[{"type":"Feature","properties":{"shapeName":"Jiangsu Province","shapeISO":"CHN","shapeID":"43563684B64367354813847","shapeGroup":"CHN","shapeType":"ADM1"},"geometry":{"type":"Polygon","coordinates":[[[121.0018690170001,31.09295347400007],[121.03876338400005,31.10653782600008],[121.129254822,31.213012347000074],[121.20197115600001,31.273801175000074],[121.24398503900011,31.39801998300004],[121.30054218900011,31.508298902000035],[121.37472026300009,31.550450451000074],[121.23711829900003,31.638124580000067],[120.86957548200007,31.806239368000035],[120.79676039700007,31.92403237600007],[120.50896743700002,32.00345749200005],[120.3564024960001,31.929918074000057],[120.2974569490001,32.00639784400005],[120.43615235200002,32.07693796900003],[120.60605421900004,32.100439262000066],[120.92505364300007,31.941688338000063],[121.01520565500005,31.82391791300006],[121.13309674700008,31.82097172400006],[121.21631398700004,31.865154689000065],[121.34807462000003,31.85042938500004],[121.49023740700011,31.82097172400006],[121.70174789500004,31.720745386000033],[121.98260608400005,31.63222028100006],[121.97567131400001,31.770872127000075],[121.73295436,32.08575166400004],[121.46596571200007,32.18558075200008],[121.42088970600003,32.40833244600003],[120.8938471780001,32.66557020100004],[120.96666226500008,32.87840046500003],[120.33213080000007,34.26505923600007],[119.59011039900008,34.60822617700006],[119.47568669200007,34.770736052000075],[119.23643712500007,34.83337377500004],[119.25030666300006,35.08061065700008],[119.43407807100004,35.16002236800006],[119.44213042800004,35.186350823000055],[119.28151313,35.199699183000064],[119.17402419300004,35.194032253000046],[119.06306787100004,35.17419488200005],[118.96598109000001,35.08912275700004],[118.82381830200006,34.80775500500005],[118.60537304500008,34.728001232000054],[118.4978841090001,34.545417789000055],[118.2933083910001,34.513995805000036],[118.27250408000009,34.67098709000004],[118.08526528700008,34.767887752000036],[117.97084158000007,34.75079588800003],[117.89109172300005,34.63390683700004],[117.6587769250001,34.57397294000003],[117.48540767400004,34.65957954800007],[117.28429934100006,34.60822617700006],[117.19761471400011,34.790671399000075],[117.02077807600006,35.052230577000046],[116.85434359400006,35.060745637000025],[116.58042017500009,34.99828124700008],[116.51800724400005,34.759342262000075],[116.45645125200008,34.73220183800004],[116.53642647200002,34.69933253000005],[116.70086234300004,34.571695559000034],[116.96147768600008,34.508655678000025],[117.05869134700004,34.477970371000026],[117.06360374000008,34.30654350300006],[117.22034784000004,34.128827122000075],[117.46111970400011,34.12748948900003],[117.74067361300001,34.06325823700007],[117.83762872800003,33.95073633900006],[117.88449036500003,33.81255975400006],[118.01376385000003,33.805846459000065],[118.23191285400003,33.83001185300003],[118.21138563900001,33.61741350300008],[118.09697734300005,33.37725290800006],[118.11275779900006,33.304745223000054],[118.29423302700002,33.248675228000025],[118.35735484400004,33.103385815000024],[118.41653154900007,32.911500431000036],[118.55066541400004,32.82534746300007],[118.834713598,32.82866258700005],[118.9057256420001,33.027343287000065],[119.02013393900006,33.03726560400003],[119.15821291600002,32.94130310300005],[119.19371893900006,32.86180701100005],[119.2292249620001,32.66275497500004],[119.14637757700007,32.58965783100007],[118.98462791700001,32.66275497500004],[118.75975643700008,32.66275497500004],[118.74397598400003,32.58633381400006],[118.83076848300004,32.423306172000025],[118.71241507400009,32.26665535500007],[118.49148871000011,32.11641668800007],[118.61378723200005,31.898968169000057],[118.79920757500008,31.79508050000004],[118.8426038240001,31.731349618000024],[118.98857303000011,31.68436194800006],[118.96095723300004,31.496173501000044],[118.901780529,31.432237567000072],[118.94123166500003,31.341306191000058],[119.12665200900005,31.300863999000057],[119.32390769100004,31.358151976000045],[119.43437087400002,31.331197271000065],[119.505382918,31.277264700000046],[119.73999731800006,31.22506099000003],[119.79337621500008,31.21317969900008],[120.03008303500008,31.219927537000046],[120.30624099200008,30.969937291000065],[120.42064928800005,31.013902106000046],[120.55478315200003,31.003758177000066],[120.60212451600012,30.87856105000003],[120.83488622200002,30.96655454300003],[120.87717152900007,31.047026002000052],[121.0018690170001,31.09295347400007]]]}}]}
