{"type":"FeatureCollection","features":[{"type":"Feature","properties":{"shapeName":"Jilin Province","shapeISO":"CHN","shapeID":"43563684B3982601277390","shapeGroup":"CHN","shapeType":"ADM1"},"geometry":{"type":"Polygon","coordinates":[[[125.78043022800011,40.86282897400008],[125.92567302100008,40.88178094400007],[126.49454088200002,41.30641200300005],[126.62998561000006,41.63523130600004],[127.00923085000011,41.76063424800003],[127.30179146300009,41.52175400900006],[128.19572667300008,41.37962707500003],[128.30408245400008,41.558250599000075],[128.0873708900001,41.914020304000076],[128.1578021480001,41.998628534000034],[128.683327694,41.97446621600005],[129.17092871700004,42.11930254400005],[129.28470228800006,42.35595889000007],[129.6802008960001,42.39598215900003],[129.91316583000003,42.945696946000055],[130.10278844900006,42.945696946000055],[130.36284232800006,42.58773870700003],[130.5741361040001,42.547837911000045],[130.50370484600012,42.66746372500006],[130.55246494900007,42.766976388000046],[130.9100390310001,42.83058073500007],[131.17551070000002,43.05663975200008],[131.32245463700008,43.451513834000025],[130.95286990600005,43.428304843000035],[130.73175614800004,43.59670851800007],[130.52724145600007,43.65016959600007],[130.39231857000004,43.959715086000074],[130.1693407460001,43.87889618600008],[130.0315773760001,44.00059418200004],[129.89665448900007,44.01080955900005],[129.81286027400006,43.86558635500006],[129.57852052400006,43.881967264000025],[129.33992004900006,43.815391815000055],[129.31293547200005,43.65633512100004],[129.15812921200006,43.579220547000034],[128.9564550020001,43.58745081200004],[128.7958790140001,43.92104568700006],[128.60503414000004,44.00410591600007],[128.44747616200004,44.231922706000034],[128.48742044000005,44.50635897300003],[128.42750402500008,44.58227524700004],[128.15455147400007,44.64388432100003],[128.10129243900008,44.511106641000026],[128.13014108400012,44.25894740000007],[128.06800554200004,44.13803480800004],[127.87494154400008,44.10936127400004],[127.56204471700005,44.49053062200005],[127.58645510800011,44.63125189100003],[127.4333353830001,44.714890498000045],[127.30906430400012,44.688076169000055],[127.13819156800002,44.71646742400003],[127.0472073840001,44.862933773000066],[127.11378117800007,44.985489922000056],[127.02945437300002,45.17039842300005],[126.79422697100006,45.22356609900004],[126.68992802800005,45.31258869200008],[126.5479039380001,45.329752419000044],[126.29492352400007,45.21418717700004],[125.90879552400008,45.29073642800006],[125.77939271500009,45.39582318200007],[125.78286010000011,45.52472103400004],[125.71351239900002,45.55872032500008],[125.5401431460001,45.55872032500008],[125.43958897900006,45.446931164000034],[125.1483286350001,45.46882042200008],[125.00963323400003,45.57813925900007],[124.70103596400008,45.49313185500006],[124.51379717000009,45.52715023700006],[124.19133036100004,45.79613970300005],[124.05956972900003,45.97233830700003],[124.11504789000003,46.08548553800006],[124.10464573500008,46.18880034600005],[123.87926570700006,46.34939295400005],[123.5706684380001,46.323059285000056],[123.36609271900011,46.335030706000055],[123.16723220800009,46.29186184200006],[123.15111484600004,46.19600112200004],[123.06096283500005,46.17439596300005],[122.904930508,46.167192356000044],[122.84598496100011,46.097508848000075],[122.904930508,46.01088251700003],[122.82864803700011,45.81547640500003],[122.72115909900003,45.80822592800007],[122.54085507700006,45.97715780100003],[122.47150737700008,45.97474810700004],[122.35361628400005,45.885515686000076],[122.14557318200002,46.046993334000035],[121.94099746400002,46.07827029500004],[121.8612476080001,45.90240850600003],[121.77456298200002,45.82755843600006],[121.84391068100001,45.767122063000045],[122.01727993400004,45.74050929300006],[122.111870199,45.555515555000056],[122.282742933,45.499548323000056],[122.31602983100004,45.406145853000055],[122.27164730200002,45.24388178800007],[122.14515709500006,45.20793370400003],[122.1213014870001,45.10533736700006],[122.14210579700011,44.756763024000065],[122.33627936000005,44.57180310800004],[122.37095321000004,44.48281274200008],[122.29813812400005,44.41350402200004],[122.41949660000012,44.29201587500006],[123.1615170010001,44.55698082200007],[123.23086470300007,44.532268619000035],[123.40770134000002,44.19265518000003],[123.3856487700001,44.099800336000044],[123.53876849500011,43.96738206100008],[123.59494013200003,43.713388364000025],[123.48745119600005,43.665750779000064],[123.46664688600004,43.56533746000008],[123.78385887000002,43.43983521000007],[123.8592103530001,43.53805233500003],[124.06372504500007,43.43604006400005],[124.2014884130001,43.37103347200008],[124.36339587600003,43.32145782100008],[124.50257948700005,43.14866043400008],[124.47417466900004,42.98888016800004],[124.54518671300002,42.94835024500003],[124.68295008400003,43.00550010200004],[124.74260020200006,43.11030968400007],[124.91586959300002,43.173523739000075],[124.97836019300007,43.08023417900006],[124.9627375440001,42.915074978000064],[125.07493657600003,42.81409949300007],[125.05931392700006,42.72443672500003],[125.1970772950001,42.631509540000025],[125.40159198700007,42.25946281100005],[125.56039267400001,42.21576007300007],[125.48494237600005,42.049545530000046],[125.39617731800001,41.90436944900006],[125.44943635300001,41.715808536000054],[125.53820141100005,41.689299438000035],[125.6757872500001,41.441908872000056],[125.8422217320001,41.27534396400006],[125.79073799900004,41.068010955000034],[125.74671053000009,41.04552109300005],[125.72966764000012,40.99623072300005],[125.73108788000002,40.95762992300007],[125.75097125200011,40.912567111000044],[125.78043022800011,40.86282897400008]]]}}]}
