{"type":"FeatureCollection","features":[{"type":"Feature","properties":{"shapeName":"Liaoning Province","shapeISO":"CHN","shapeID":"43563684B26929678147954","shapeGroup":"CHN","shapeType":"ADM1"},"geometry":{"type":"MultiPolygon","coordinates":[[[[122.7258581000001,39.23140250000006],[122.72301761800009,39.28198957500007],[122.65342581300001,39.29518020000006],[122.59223113500002,39.30129066400008],[122.53980654000009,39.286386726000046],[122.60939834500005,39.224801496000055],[122.7258581000001,39.23140250000006]]],[[[119.97126983200008,40.07433721700005],[120.5401739020001,40.25855126300007],[120.61645637400011,40.488368974000025],[121.01173827100001,40.751558361000036],[121.03947735000008,40.890628107000055],[121.21978137300005,40.95612581100005],[121.56305249200011,40.91159443500004],[121.826573757,40.95874437000003],[121.99300823900012,40.90635347600005],[122.32934458900002,40.53581957800003],[122.15944272100012,40.34053021100004],[122.0103451650001,40.18706921300003],[121.95139961900009,40.096947517000046],[121.53531341300004,39.887085755000044],[121.4867700210001,39.67657960200006],[121.31686815400008,39.60982964200008],[121.62546542400003,39.40651431900005],[121.8057694470001,39.403835152000056],[121.70798918800006,39.291539286000045],[121.65251102700006,39.20905284200006],[121.63475801600009,39.143682280000064],[121.48385741700008,39.10925231400006],[121.38843498100005,39.04034190100003],[121.350709832,39.016207361000056],[121.23309613200001,39.02137974100003],[121.17317971700004,38.94202833000003],[121.14433107400009,38.85394783800007],[121.17317971700004,38.78305883500008],[121.21534312100005,38.76056710100005],[121.36402459100009,38.822834525000076],[121.65694928000005,38.98861493900006],[121.954312221,39.079973610000025],[122.14959534800005,39.18497602200006],[122.30049594600007,39.33961156200007],[123.14376399000002,39.72982650300003],[123.3235132310001,39.71617189800003],[123.39896352900007,39.82192435700006],[123.66303957600007,39.79976391400004],[123.81172104600012,39.87303656800003],[124.11158050600011,39.847165767000035],[124.44098208500009,39.96685603100008],[124.4999276310001,40.17382352100003],[124.87440521600001,40.44088479800007],[125.05124185400007,40.48045727600004],[125.15179602100011,40.601667484000075],[125.31129573200008,40.638514007000026],[125.77245794400005,40.86178855500003],[125.78043022800011,40.86282897400008],[125.75097125200011,40.912567111000044],[125.73108788000002,40.95762992300007],[125.72966764000012,40.99623072300005],[125.74671053000009,41.04552109300005],[125.79073799900004,41.068010955000034],[125.8422217320001,41.27534396400006],[125.6757872500001,41.441908872000056],[125.53820141100005,41.689299438000035],[125.44943635300001,41.715808536000054],[125.39617731800001,41.90436944900006],[125.48494237600005,42.049545530000046],[125.56039267400001,42.21576007300007],[125.40159198700007,42.25946281100005],[125.1970772950001,42.631509540000025],[125.05931392700006,42.72443672500003],[125.07493657600003,42.81409949300007],[124.9627375440001,42.915074978000064],[124.97836019300007,43.08023417900006],[124.91586959300002,43.173523739000075],[124.74260020200006,43.11030968400007],[124.68295008400003,43.00550010200004],[124.54518671300002,42.94835024500003],[124.47417466900004,42.98888016800004],[124.50257948700005,43.14866043400008],[124.36339587600003,43.32145782100008],[124.2014884130001,43.37103347200008],[124.06372504500007,43.43604006400005],[123.8592103530001,43.53805233500003],[123.78385887000002,43.43983521000007],[123.8099180050001,43.42951353600006],[123.68812610600003,43.15157411900003],[123.31429865600012,43.036843230000045],[123.20594287300003,42.862358389000065],[122.86462215600011,42.79083568000004],[122.72375963900004,42.898088707000056],[122.49079470600009,42.945696946000055],[122.46370576000004,42.85838707500005],[122.49079470600009,42.77493050600003],[122.39327450000008,42.73514969900003],[122.12780283300003,42.79083568000004],[122.00319368200007,42.755043295000064],[121.98694031500008,42.627613980000035],[121.78648211600012,42.55981083000006],[121.56435276200011,42.607679533000066],[121.17968973300003,42.375973712000075],[120.94932533800011,42.370370206000075],[120.60952160400007,42.19336302100004],[120.2073049380001,41.84302404600004],[120.0928812300001,42.04676472700004],[119.94031628900007,42.213911075000055],[119.97845752600006,42.32680590700005],[119.74961011100004,42.35756031000005],[119.62131686400005,42.46508224100006],[119.37513252600002,42.370370206000075],[119.38553468000009,42.278080672000044],[119.45834976700007,42.177947594000045],[119.37859991100004,41.724090389000025],[119.49302361800005,41.57122220000008],[119.45488238200005,41.45438405400006],[119.32312175000004,41.38157835100003],[119.28470498700005,41.38653246000007],[119.27138836600011,41.25365922000003],[119.07166698700007,41.16517767700003],[119.08054349200006,41.05649924800008],[118.9562724110001,40.96104861500004],[119.10051563000002,40.78653690500005],[119.2847031230001,40.75292423600007],[119.37346818000003,40.64693321500005],[119.67970762900006,40.591346816000055],[119.71210687500002,40.39105578200008],[119.85555120700008,40.280630838000036],[119.85697144900007,40.128773067000054],[119.97126983200008,40.07433721700005]]]]}}]}
