{"type":"FeatureCollection","features":[{"type":"Feature","properties":{"shapeName":"Ningxia Ningxia Hui Autonomous Region","shapeISO":"CHN","shapeID":"43563684B64666899633249","shapeGroup":"CHN","shapeType":"ADM1"},"geometry":{"type":"Polygon","coordinates":[[[107.58140655100004,37.825796156000024],[107.50974088200007,38.081431724000026],[107.24621961900004,38.23955969200006],[106.93415496500006,38.228665326000055],[106.63595984900007,38.386473815000045],[107.06619298700008,39.11613965300006],[106.87312898700009,39.26405458600004],[106.87312898700009,39.40479966400005],[106.66009284900008,39.432229076000056],[106.52028788500007,39.34304403200008],[106.38048291900009,39.341327817000035],[106.32056650600003,39.241715328000055],[106.09199648300006,39.13163370600006],[106.09643473500006,38.966188174000024],[105.90558986300005,38.75710620500007],[105.90558986300005,38.293571616000065],[105.45288807000009,38.003878531000055],[105.30198747200006,37.88487715000008],[105.09560871500008,37.674404965000065],[104.59852439500008,37.61993562600003],[104.54273383900005,37.57352119500007],[104.75854806700005,37.45237334800004],[104.75065783900004,37.30816891000006],[104.89662704400007,37.317581999000026],[104.99525488700004,37.188834486000076],[105.29508352400006,36.97481740500007],[105.31749177000006,36.85722945800006],[105.35788973300004,36.61644393200004],[105.50433235200006,36.417583500000035],[105.52958108000007,36.23857990500005],[105.39990361700006,36.10471034600005],[105.40959912600005,35.98058356300004],[105.53564077400006,35.83661354000003],[105.83458570600004,35.77633025600005],[105.95739551700007,35.53342506300004],[106.18039227700007,35.51632828400005],[106.36460699300005,35.42025567400003],[106.54882170700006,35.47949208500006],[106.56174905500006,35.77501924100005],[106.66829868600007,35.82408559300006],[106.79454232300009,35.79746737700003],[106.92583570500005,35.85274138400007],[106.97633316000008,36.01833227000003],[107.01925599700007,36.179500043000075],[106.58245301300008,36.391165681000075],[106.53195555800005,36.54953780200003],[106.54558987100006,36.798781991000055],[106.72980458500007,36.869915469000034],[106.71849315500003,36.91902358500005],[106.63284947300008,37.00940316100008],[106.74919560800004,37.28246894700004],[106.88816460300006,37.279897464000044],[107.03844503100004,37.19370199900004],[107.34676546600008,37.21850670500004],[107.38204864900007,37.31444443400005],[107.31103660300005,37.45550514700005],[107.38599376200006,37.67128235500007],[107.58140655100004,37.825796156000024]]]}}]}
