{"type":"FeatureCollection","features":[{"type":"Feature","properties":{"shapeName":"Qinghai Province","shapeISO":"CHN","shapeID":"43563684B46172434476792","shapeGroup":"CHN","shapeType":"ADM1"},"geometry":{"type":"Polygon","coordinates":[[[102.32147197400008,33.78566620200007],[101.92083096900006,33.78436038000007],[101.90143994600004,33.848802437000074],[101.81902809900004,33.98022076900003],[101.72530482300004,34.04317597800008],[101.48453295800005,34.11812546800007],[101.13633482900008,34.11828600300004],[101.01430066000006,34.192741270000056],[101.03291604100008,34.49928081100006],[101.19689945600004,34.50386184400003],[101.33102069600005,34.39592769800004],[101.52493092200007,34.302538997000056],[101.69621828800007,34.25447003200003],[101.80610075100009,34.25313439100006],[101.90628770100005,34.274502109000025],[102.00809057000004,34.49986677100003],[101.95476525800007,34.63293263300005],[101.94830158300005,34.96201556700004],[102.05333629000006,34.99379253300003],[102.20038487800008,35.030850075000046],[102.31834693400003,35.095660355000064],[102.41530204700007,35.190798388000076],[102.42661347600006,35.268675779000034],[102.32804244300007,35.38337546200006],[102.41207020900003,35.49791229600004],[102.50579348500008,35.536055013000066],[102.60830331800008,35.69295594600004],[102.74212157400007,35.63551880000006],[102.77746979200003,35.65398524700004],[102.99460884900009,35.940690853000035],[103.01642374900007,36.14125773100005],[103.07792964900005,36.29761515000007],[102.94663626500005,36.40945589800003],[102.90118855600008,36.56373485700004],[102.73202208300006,36.62657616600006],[102.71103407900006,36.87389456400007],[102.54533930600007,36.99057452900007],[102.54518150000007,37.12947387200006],[102.52498251800006,37.213973227000054],[102.40883837200005,37.344559651000054],[102.36591553500006,37.494954574000076],[102.12352775300008,37.627052097000046],[102.12352775300008,37.75891526800007],[102.04778156900005,37.76889534500003],[101.84074200600008,37.66703539500003],[101.59330447600007,37.762907459000076],[101.49735931300006,37.760911391000036],[101.17165072900008,37.906482821000054],[101.12115327400005,38.03188191500004],[100.79544469100006,38.23643777600006],[100.58083050800008,38.33552990900006],[100.45687339600005,38.42679035300006],[100.25481894000006,38.497747986000036],[100.20149362700005,38.35089687900006],[100.03505401500007,38.35089687900006],[99.50664864900006,38.79811026100003],[99.39999802400007,38.79685087000007],[99.13660330000005,39.005604867000045],[98.79564448600007,39.08467004400006],[98.61950936200009,38.972949001000075],[98.48054036700006,39.069616833000055],[98.20906604900006,38.83714034900004],[97.83417294600008,39.08341573300004],[97.12165886700006,39.208353818000035],[96.98597341800007,39.108788624000056],[97.09408224600008,38.94907557100004],[97.08761857300004,38.72628945100007],[96.89694018400007,38.49268912600007],[96.88562875400004,38.257060082000066],[96.69333444700004,38.21517481600006],[96.45013870400004,38.125790610000024],[96.20159654400004,38.23742936700006],[95.85442654100007,38.20333567500006],[95.25476926600004,38.339614554000036],[94.62355108000008,38.22503350900007],[94.36317357900003,38.58982228100007],[93.97655244000003,38.534295593000024],[93.82663812100009,38.713061269000036],[93.30588311800005,38.66379111400005],[93.10073720800006,38.89138100200006],[92.64618733400005,39.03463173800003],[92.63427631000008,39.024638795000044],[92.434013,39.07844236400007],[92.12629413400003,38.919011298000044],[91.86591663400009,38.857596038000054],[91.45956992600009,38.783827657000074],[90.69421787700009,38.688430433000065],[90.23263957900008,38.40765805800004],[90.33915764800008,37.833483744000034],[91.17946685700008,37.45550514700005],[91.23627649300005,37.38469449400003],[91.11255772900006,37.26623498300006],[91.14790594700008,37.09121693900005],[90.98631409200004,36.980364285000064],[90.86259532800005,36.950103666000075],[90.67242191300005,36.822069320000026],[90.70797212200006,36.68742258200007],[90.79038396600004,36.526573616000064],[90.91319377700006,36.529170616000044],[91.01338072700008,36.538259425000035],[91.08932890000006,36.50319670300007],[91.07963338900004,36.442123699000035],[91.05216277300008,36.40311577700004],[90.89380275500008,36.367991895000046],[90.77422478200003,36.31332321600007],[90.57586446800008,36.217830638000066],[90.31943208000007,36.185995916000024],[89.97620719200006,36.30054030500003],[89.82024837300008,36.29902461800003],[89.84183977700008,36.15039191900007],[89.72226180300004,36.073370476000036],[89.57198137800003,36.01980263400003],[89.59298831900009,35.93218652200005],[89.76427568500009,35.92040978600005],[89.88708549600005,35.86804752000006],[89.91617203000004,35.629362370000024],[89.82406467200008,35.43868945100007],[89.78043487100007,35.329341863000025],[89.74488466200006,35.190798388000076],[89.72710955900004,35.04408084000005],[89.82083283600008,34.946122460000026],[89.79659405600006,34.83743712800003],[89.76750752300006,34.781713377000074],[89.50411279900004,34.73790400300004],[89.46856259000003,34.68477057700005],[89.46694667100007,34.61564611500006],[89.48148993800004,34.56243424500008],[89.50734463600008,34.52383433600005],[89.54935851800008,34.49453970900004],[89.58167688900005,34.48122056400007],[89.58006097100008,34.445248254000035],[89.55905403000008,34.40792726800004],[89.56551770300007,34.367922011000076],[89.55905403000008,34.29719935800006],[89.56228586600008,34.26515440000003],[89.58975648200004,34.22240878900004],[89.72640259400004,34.088019805000044],[89.80719852300007,33.99177721600006],[89.88546957800008,33.95618167600003],[89.91829292200003,33.916380797000045],[89.95364114200004,33.90171262600006],[89.98898935900007,33.75489218400003],[90.00918834100008,33.717097626000054],[90.15563096100004,33.58047876200004],[90.22885227000006,33.50682500700003],[90.28944921600004,33.43310851600006],[90.35257103300006,33.34667520900007],[90.37529488900003,33.28337690700005],[90.41316798000008,33.22214488000003],[90.45104107000003,33.137616544000025],[90.67322987200004,33.14395899700003],[90.85249583700005,33.137616544000025],[90.98631409200004,33.139730746000055],[91.05448565600005,33.09320654100003],[91.15295569400007,33.067819317000044],[91.24385111100008,33.061471367000024],[91.31202267500004,33.061471367000024],[91.44079118500008,33.046657700000026],[91.47866427600007,33.017022894000036],[91.51653736800006,33.002201754000055],[91.70842769500007,33.002201754000055],[91.80689773200004,32.993731413000035],[91.94576573400008,32.945011177000026],[92.04171089800008,32.881422677000046],[92.18310377100005,32.79868937700007],[92.25127533500006,32.745614674000024],[92.32702151700005,32.71375466500007],[92.48861337300008,32.69250833500007],[92.67040421000007,32.728624086000025],[92.82694632100004,32.72225178100007],[92.97591381100005,32.63299170800008],[93.13498079400006,32.645748608000076],[93.28899803200005,32.61810636000007],[93.52886094200005,32.55002754100008],[94.16765374500005,32.605345519000025],[94.26107403800006,32.594710098000064],[94.48941721600005,32.58965783100007],[94.72612403400007,32.59298172300004],[94.91154437800009,32.50984744500005],[94.99439176300007,32.39666136200003],[95.16797676500005,32.27332686900007],[95.29027528900008,32.229953253000076],[95.45991517500005,32.18989768700004],[95.50725654000007,31.992701538000063],[95.60588438100007,31.85541661800005],[95.80314006400005,31.85541661800005],[96.05957245100007,31.727994145000025],[96.15820029400004,31.727994145000025],[96.31600483900007,31.815196920000062],[96.46197404400004,31.805139258000054],[96.65133950100005,31.711214959000074],[96.77363802200006,31.768251793000047],[96.96521274200006,32.052774432000035],[97.13690409000009,32.255846458000065],[97.13185434300004,32.34548128600005],[97.20002590700005,32.456334808000065],[97.23789899800005,32.545770900000036],[97.25052336300007,32.645748608000076],[97.18992641600005,32.720127578000074],[97.21012539800006,32.78170891600007],[97.43043593900006,32.832427395000025],[97.52573449000005,32.85385347700003],[97.59390605500005,32.93441626500004],[97.57449609700006,33.04387986000006],[97.52715473200004,33.113299561000076],[97.66128859600008,33.27506559400007],[97.93744655100005,33.37395841400007],[98.07947064400008,33.400310871000045],[98.22938496400008,33.38054727800005],[98.53710382900005,33.38713564100004],[98.65940235100004,33.38054727800005],[98.86060314900004,33.439824577000024],[99.02629792200008,33.38054727800005],[99.17621224100009,33.28495992500007],[99.40108371900004,33.225577120000025],[99.50760178800004,33.23217720200006],[99.66540633500006,33.327822397000034],[99.91789360900003,33.33441475400008],[100.01257633600005,33.16945631700003],[100.29267940500006,32.937992190000045],[100.50177043000008,32.76565409300002],[100.71480656800009,32.715879020000045],[100.99096452400005,32.745747401000074],[101.07775702500004,32.88168772300003],[101.05803145600004,33.00418687300004],[101.07775702500004,33.093470952000075],[101.19611043300006,33.22887722300004],[101.36969543500004,33.31133932400007],[101.49199395900007,33.350893462000045],[101.59456691300005,33.33111863800008],[101.68135941300005,33.24207639200006],[101.77604214100006,33.126516148000064],[101.81943839000007,33.16615397400005],[102.00091362100005,33.29815062100005],[102.17449862100005,33.29485313400005],[102.26918134800007,33.20907473600005],[102.39937009800008,33.21567606200006],[102.42698589500009,33.406897737000065],[102.49799794100005,33.505640775000074],[102.49405282700008,33.64369193700003],[102.37569941700008,33.679811692000044],[102.34808362200005,33.75528579000007],[102.32147197400008,33.78566620200007]]]}}]}
