{"type":"FeatureCollection","features":[{"type":"Feature","properties":{"shapeName":"Shaanxi Province","shapeISO":"CHN","shapeID":"43563684B62959128536432","shapeGroup":"CHN","shapeType":"ADM1"},"geometry":{"type":"Polygon","coordinates":[[[109.73082396200004,31.972288990000038],[109.74122661600006,32.139803431000075],[109.77278752600006,32.19657484000004],[109.62681832000004,32.409984751000025],[109.68599502500007,32.659433673000024],[109.89903116200009,32.719198223000035],[110.02527480000003,32.75238346000003],[110.24225605100008,32.77892274900006],[110.25014627700006,32.90818840400004],[110.04105525500006,33.030650851000075],[109.86747025300008,33.050493621000044],[109.86352514000004,33.20907473600005],[109.63865366000005,33.22887722300004],[109.62287320700005,33.33111863800008],[109.72544616100004,33.39372350700006],[109.84774468500007,33.39701725200007],[110.08445150400007,33.36407418400006],[110.41584105300007,33.291555523000056],[110.49868843800004,33.28825778700008],[110.66043809900009,33.37334068200005],[110.88235074200009,33.23423962500004],[111.08785002600007,33.38212823400005],[111.10426338400003,33.393929369000034],[111.11659186500009,33.65087605200006],[110.93166466300005,33.77906278000006],[110.86385802100006,33.937748261000024],[110.72208049900007,34.01953498700004],[110.71591625900004,34.30516795300008],[110.54948177700004,34.35607206100008],[110.54983604800009,34.48122056400007],[110.43833766800009,34.58505345300006],[110.43970339000003,34.71986913400008],[110.41887694000008,34.719451615000025],[110.37033354800008,34.816295480000065],[110.38767047500005,35.21953032700003],[110.68933297400008,35.63768155500003],[110.71013728400004,35.76720461900004],[110.54717018700006,36.17410431600007],[110.56797449700008,36.67629582200004],[110.46048556000005,36.76801149400006],[110.49515941000004,37.09783305700006],[110.73440897900008,37.39592957700006],[110.77948498500007,37.59675208400006],[110.85576745600008,37.77237099900003],[110.54717018700006,38.10053432700005],[110.54370280200004,38.23955969200006],[110.91471300300009,38.535802416000024],[110.93634948500005,38.64626894100007],[111.00736153100007,38.81937665100003],[111.05174405800005,39.04723597000003],[111.23717981200008,39.186481065000066],[111.27180531600004,39.502719666000075],[111.11343750800006,39.64571575400004],[110.75044563600005,39.38239811900007],[110.59224619300005,39.457398916000045],[110.35646400900004,39.44668945700005],[110.28364892300004,39.51627148600005],[110.20736645200009,39.41455119900007],[109.91957349100005,39.186481065000066],[109.85022579200006,38.94418579400008],[109.91610610800006,38.860536065000076],[109.90917133800008,38.79570731800004],[109.77394332100005,38.71999918600005],[109.56243283200007,38.70376556800005],[109.49308513200003,38.57376395700004],[109.38559619500006,38.511387984000066],[109.29544418300009,38.40821354800005],[109.17061832100006,38.27767711600006],[109.00418383900006,38.18234607000005],[108.85161889800008,37.96671130300007],[108.76146688600005,37.79977388000003],[108.68865179900007,37.75044137800006],[108.40432622400004,37.761407001000066],[108.30723944400006,37.912019421000025],[108.19281573600006,37.925696207000044],[108.09919634100004,37.86002444500008],[107.58255596900005,37.82168886900007],[107.58140655100004,37.825796156000024],[107.38599376200006,37.67128235500007],[107.31103660300005,37.45550514700005],[107.38204864900007,37.31444443400005],[107.34676546600008,37.21850670500004],[107.33470728600008,37.18569155500006],[107.42544489800008,37.00002723700004],[107.68582240100005,36.914910580000026],[107.94225478800007,36.84864298600007],[108.20657740400009,36.66215508000005],[108.32887592600008,36.703284567000026],[108.54980229000006,36.56081960300003],[108.65237524600008,36.532295014000056],[108.78256399700007,36.42761483900006],[108.76678354400008,36.08084951600006],[108.61292411000005,35.99152396900007],[108.57741808700007,35.751760509000064],[108.68788127000005,35.636416575000055],[108.64843013300003,35.43737803500005],[108.53796695100004,35.379500208000024],[108.24208342700007,35.40201319100004],[108.04088263100004,35.340891906000024],[107.88307808400003,35.41809004500004],[107.82390137900006,35.389149399000075],[107.82784649300004,35.22173348900003],[107.87913297000006,35.12176315000005],[107.28342080800007,35.03136177300007],[107.07827489800007,35.17337609200007],[106.86523876000007,35.20239398500007],[106.57724546300005,35.137895711000056],[106.55357478200006,35.034592118000035],[106.60486125800008,34.97642637700005],[106.57330035000007,34.81787695200006],[106.43916648400005,34.72389752600003],[106.42733114500004,34.636303292000036],[106.62064171300005,34.57785568200006],[106.76661091800008,34.490107167000076],[106.74294023700008,34.40552124300007],[106.62458682600004,34.24587668800007],[106.50623341700003,34.06959048400006],[106.55357478200006,33.96167901800004],[106.54568455300006,33.69622474800008],[106.13933784700004,33.702789092000046],[106.00914909700003,33.656828148000045],[105.89079568600005,33.58455418900007],[105.88685057300006,33.52208701100005],[106.01309421000008,33.45299181400003],[106.07227091400006,33.28495992500007],[105.99731375500005,33.18596616900004],[105.82575884100004,32.994325169000035],[105.81978364100007,32.98764285400006],[106.12750250600004,32.97109573300003],[106.17484387000007,32.86512077300006],[106.18667921000008,32.75570130400007],[106.32870330200006,32.71255969400005],[106.62458682600004,32.759019024000054],[106.88496432800008,32.83197758600005],[107.11772603500003,32.822032216000025],[107.22818921700008,32.58300967500003],[107.42149978500004,32.576361028000065],[107.46884115000006,32.61292248800004],[107.59902990000006,32.50984744500005],[107.76077956000006,32.48655605400006],[108.07638865400008,32.27332686900007],[108.40383308500009,32.37667259400007],[108.59319854200004,32.37334070300005],[108.69871478700009,32.29969266300003],[108.95614899900005,32.11975801800003],[109.23230695400008,32.07296826600003],[109.28359343200009,31.90566657900007],[109.72939127600006,31.94919436500004],[109.73082396200004,31.972288990000038]]]}}]}
