{"type":"FeatureCollection","features":[{"type":"Feature","properties":{"shapeName":"Shandong Province","shapeISO":"CHN","shapeID":"43563684B58995436924100","shapeGroup":"CHN","shapeType":"ADM1"},"geometry":{"type":"Polygon","coordinates":[[[116.45645125200008,34.73220183800004],[116.51800724400005,34.759342262000075],[116.58042017500009,34.99828124700008],[116.85434359400006,35.060745637000025],[117.02077807600006,35.052230577000046],[117.19761471400011,34.790671399000075],[117.28429934100006,34.60822617700006],[117.48540767400004,34.65957954800007],[117.6587769250001,34.57397294000003],[117.89109172300005,34.63390683700004],[117.97084158000007,34.75079588800003],[118.08526528700008,34.767887752000036],[118.27250408000009,34.67098709000004],[118.2933083910001,34.513995805000036],[118.4978841090001,34.545417789000055],[118.60537304500008,34.728001232000054],[118.82381830200006,34.80775500500005],[118.96598109000001,35.08912275700004],[119.06306787100004,35.17419488200005],[119.17402419300004,35.194032253000046],[119.28151313,35.199699183000064],[119.44213042800004,35.186350823000055],[119.49649100300007,35.36386808000003],[119.75307749700005,35.64895278200004],[119.94378367500008,35.671490463000055],[120.09634861600011,35.93583123700006],[120.27318525400005,36.014400857000055],[120.1344898530001,36.16010823000005],[120.25238094300005,36.23286058200006],[120.36680465000006,36.143309628000054],[120.51243482300004,36.09849576600004],[120.703141,36.185299386000054],[120.81409732200007,36.51204657100004],[120.9319884140001,36.60952475200003],[120.98399918900009,36.58725486800006],[121.79536729200004,36.90122048500007],[121.94446484700006,37.02866127500005],[122.14557318200002,36.99543642000003],[122.21145349800008,37.01481935000004],[122.37442059500006,36.88180862400003],[122.53738769300003,36.97604854800005],[122.58939846800001,37.144833833000064],[122.65527878400007,37.442744692000076],[122.46110522000004,37.52253820400006],[122.32240982000008,37.453755760000035],[122.1213014870001,37.561028703000034],[121.58038941900008,37.45650827400004],[121.35500939000008,37.654422871000065],[121.1920422930001,37.62971229800007],[120.87997763700002,37.88465822000006],[120.38067419100003,37.77511174500006],[120.2419787880001,37.57202233900006],[119.95418583000003,37.420717696000054],[119.9264467480001,37.27186601300008],[119.65945810000005,37.13654169800003],[119.01257407700007,37.322033041000054],[119.03424523300009,37.764490790000025],[118.89338271500003,37.96978651200004],[118.67125336100003,38.01675285600004],[118.47079516200006,38.183027448000075],[118.13489223500005,38.10206914100007],[117.88327616900006,38.30339074800003],[117.79357152000011,38.16599106100006],[117.6039488990001,38.13616779800003],[117.58227774400007,37.99113857800006],[117.51184648500009,37.93561028600004],[117.23012144900008,37.95697229000007],[116.94297862400003,37.91851621100005],[116.54748001700011,37.65733954900003],[116.43370644600009,37.70879148100005],[116.29826171700006,37.47697691500008],[116.1357280420001,37.45117518600006],[115.77815395900006,36.92461214700006],[115.46933997700012,36.73814644700008],[115.4314154540001,36.52075497900006],[115.61020249600006,36.30711706300008],[115.58311355,36.211007005000056],[115.54944646400008,36.22023203300006],[115.54769421100002,36.13961345200005],[115.44783352200011,36.07507034900004],[115.47668216700004,35.91887239400006],[115.80955113100003,36.07507034900004],[116.15573485400012,36.19335884700007],[116.1623922330001,36.10555564600003],[115.42120400400006,35.665067874000044],[115.37460235000003,35.545987499000034],[115.16600446500001,35.43757892800005],[115.09499241900005,35.33264503200007],[114.94853007400002,35.23663787800007],[114.97737871900006,35.16047592700005],[115.27252253400002,35.07334629700006],[115.44561439600011,34.94065817000006],[115.5543515920001,34.91154709700004],[115.54769421100002,34.76765988400007],[115.69637568300004,34.67463717100003],[115.82952326800012,34.718425602000025],[116.08028455600004,34.70018323900007],[116.260033797,34.70748066600004],[116.2696651010001,34.706579856000076],[116.3758444560001,34.69664831500006],[116.45645125200008,34.73220183800004]]]}}]}
