{"type":"FeatureCollection","features":[{"type":"Feature","properties":{"shapeName":"Shanghai Municipality","shapeISO":"CHN","shapeID":"43563684B32591653033375","shapeGroup":"CHN","shapeType":"ADM1"},"geometry":{"type":"MultiPolygon","coordinates":[[[[122.0441424600001,31.317851835000056],[121.85809090100008,31.370009598000024],[121.59898113400004,31.463474317000077],[121.5953463300001,31.437892608000027],[121.69618343500008,31.374860012000056],[121.98875306500008,31.28630055800005],[122.0441424600001,31.317851835000056]]],[[[121.41811606100009,30.710089537000044],[121.64626973400004,30.816827475000025],[121.89592145800009,30.94478845200007],[121.95833438900002,31.14976342500006],[121.67747619900001,31.357257119000053],[121.37472026300009,31.550450451000074],[121.30054218900011,31.508298902000035],[121.24398503900011,31.39801998300004],[121.20197115600001,31.273801175000074],[121.129254822,31.213012347000074],[121.03876338400005,31.10653782600008],[121.0018690170001,31.09295347400007],[121.11167362900005,31.021493710000072],[121.11063944000011,30.93105108700007],[121.15821208300008,30.88313502300008],[121.27610950000008,30.860055772000067],[121.33919496100009,30.820985921000045],[121.41811606100009,30.710089537000044]]],[[[121.98449234100008,31.511780694000038],[121.85667065900009,31.613432671000055],[121.48172705700006,31.774154777000035],[121.35390537500007,31.827264670000034],[121.21614200500005,31.836917734000053],[121.18067896800005,31.772484253000073],[121.4092947690001,31.613432671000055],[121.760094277,31.473027005000063],[121.90495884900008,31.447586172000058],[121.98449234100008,31.511780694000038]]]]}}]}
