{"type":"FeatureCollection","features":[{"type":"Feature","properties":{"shapeName":"Shanxi Province","shapeISO":"CHN","shapeID":"43563684B34303967365755","shapeGroup":"CHN","shapeType":"ADM1"},"geometry":{"type":"Polygon","coordinates":[[[113.813192447,36.46220698500008],[113.60887118700009,36.73467301300008],[113.59500164600001,36.85961759700007],[113.7198275080001,36.88735537300005],[113.8862619900001,37.04250067600003],[113.87585983500003,37.22770516300005],[113.9452075370001,37.316000976000055],[113.97433357000011,37.42104814800007],[114.21178010000006,37.70952527000003],[114.20068446700009,37.77971596800006],[113.95907707700007,38.10599129600007],[113.9244032260001,38.272232993000046],[113.85158813900011,38.28856413600005],[113.65394719200003,38.39734449800005],[113.66809412400005,38.675726843000064],[113.93882754900005,38.88504754500008],[113.85006249100002,39.03344715900005],[114.00540134100004,39.15744955400004],[114.28501127200002,39.172934518000034],[114.48473265100006,39.23999662800003],[114.54242993800005,39.445939734000035],[114.622318489,39.59144874900005],[114.60054331200001,39.657896108000045],[114.47225006400004,39.79656710800003],[114.47571745000005,39.911026597000046],[114.43410882800003,39.99342546400004],[114.26420696200012,40.03060531400007],[114.16018541000005,40.062457634000054],[114.12204417400005,40.18177124700003],[114.170587565,40.26119729800007],[114.29194604100007,40.28765195400007],[114.49998914500009,40.36959560100007],[114.52772822500003,40.41449019500004],[114.40290236300007,40.48045727600004],[114.34048943300002,40.68059942900004],[114.2123338670001,40.79157821800004],[114.06656601300006,40.59640203600003],[113.84118598500004,40.556897958000036],[113.54992564100007,40.42240966300005],[113.39042592900012,40.43296750500008],[113.27253483700008,40.50946227800006],[113.1095677400001,40.49364292100006],[112.89805725100007,40.30616405400008],[112.76282923400004,40.28236185000003],[112.54091659100004,40.38808523500006],[112.38120016700009,40.36777938200004],[112.04529724000008,39.849827821000076],[111.92610587900003,39.72493302500004],[111.80691451800004,39.71659864500003],[111.60103853100009,39.75409542300008],[111.49810053600004,39.60398595700008],[111.30306012700004,39.474463710000066],[111.27180531600004,39.502719666000075],[111.23717981200008,39.186481065000066],[111.05174405800005,39.04723597000003],[111.00736153100007,38.81937665100003],[110.93634948500005,38.64626894100007],[110.91471300300009,38.535802416000024],[110.54370280200004,38.23955969200006],[110.54717018700006,38.10053432700005],[110.85576745600008,37.77237099900003],[110.77948498500007,37.59675208400006],[110.73440897900008,37.39592957700006],[110.49515941000004,37.09783305700006],[110.46048556000005,36.76801149400006],[110.56797449700008,36.67629582200004],[110.54717018700006,36.17410431600007],[110.71013728400004,35.76720461900004],[110.68933297400008,35.63768155500003],[110.38767047500005,35.21953032700003],[110.37033354800008,34.816295480000065],[110.41887694000008,34.719451615000025],[110.43970339000003,34.71986913400008],[110.84536530100007,34.728001232000054],[111.03607147900004,34.85329397600003],[111.28225581700008,34.91586892400005],[111.54924446600006,34.930083858000046],[111.92025466600006,35.17986319600004],[112.1428174450001,35.19031311500004],[112.19699533500011,35.28766292900008],[112.30535111900008,35.35397077600004],[112.63583625600006,35.30535033700005],[112.74419203900004,35.38047868600006],[113.01508149600011,35.36280771400004],[113.6652161930001,35.69789371400003],[113.70855850800001,35.90880487100003],[113.77898976600011,36.18914732200005],[113.813192447,36.46220698500008]]]}}]}
