{"type":"FeatureCollection","features":[{"type":"Feature","properties":{"shapeName":"Sichuan Province","shapeISO":"CHN","shapeID":"43563684B14397599951889","shapeGroup":"CHN","shapeType":"ADM1"},"geometry":{"type":"Polygon","coordinates":[[[105.36945876100003,27.865629813000055],[105.41091206100003,27.871948014000054],[105.53463082500008,27.86971601600004],[105.61542675400005,27.89203391700005],[105.68359831800007,27.874179963000074],[105.73662064400008,27.831765037000025],[105.77196886400009,27.809434727000053],[105.86538915500006,27.82953221200006],[105.95375970100008,27.854090751000058],[106.07495359100005,27.876411869000037],[106.17847337500007,27.89872839000003],[106.32996573900004,27.903191141000036],[106.36531395700007,27.92327124700006],[106.38803781200005,27.965650332000052],[106.37288857400006,28.003554360000066],[106.32491599400004,28.068183402000045],[106.30471701200008,28.14390590100004],[106.28704290100006,28.266284877000032],[106.19362261100008,28.284073770000077],[106.11282668200005,28.304082722000032],[105.98658304700007,28.348533589000056],[105.87043889900008,28.408512753000025],[105.76691911700004,28.47511645800006],[105.74167039100007,28.56829112500003],[105.76186937300008,28.659167840000066],[105.85528966300006,28.705683976000046],[105.95880944500004,28.752179441000067],[105.97395868300003,28.814141204000066],[106.02445613600008,28.85837705600005],[106.09767744600003,28.862799607000056],[106.16079926400005,28.80086678400005],[106.36783882900005,28.66581426700003],[106.37215745100008,28.674813466000046],[106.38803781200005,28.707898516000057],[106.38046319400007,28.774312869000028],[106.35521446500007,28.90259409400005],[106.27189366600004,29.010846213000036],[106.20372210200009,29.03954715800006],[106.13050079300007,29.061619376000067],[105.87296377200005,29.09913130600006],[105.85276479000004,29.18513643500006],[105.83256580800008,29.28868790000007],[105.76439424600005,29.39873390400004],[105.70127242600006,29.400933611000028],[105.60785213500009,29.414130857000032],[105.50938209800006,29.480091376000075],[105.44626027900006,29.609688523000045],[105.38566333300008,29.679908940000075],[105.37303897000004,29.72815704900006],[105.46898413400004,29.824583675000042],[105.59775264400008,29.90997503400007],[105.84266529900003,30.052131357000064],[105.86033940800007,30.113305166000032],[105.83761555400008,30.176623842000026],[105.76691911700004,30.27261589400007],[105.75429475300007,30.33583211800004],[105.76439424600005,30.38594012200008],[105.81994144600009,30.46431847100007],[105.95880944500004,30.523060884000074],[106.05727948300006,30.527410764000024],[106.16079926400005,30.47955139000004],[106.28199315700004,30.42731431800007],[106.33754035700008,30.401185287000033],[106.49155759300004,30.364157187000046],[106.53700530400005,30.388118147000057],[106.60517686800006,30.41425067700004],[106.66829868600007,30.46431847100007],[106.73899512300005,30.38376204700006],[106.77686821400005,30.32929439800006],[106.87028850500008,30.24208313300005],[106.96118392400007,30.18535426300008],[107.15559912500004,30.17007551900008],[107.25911890700007,30.24208313300005],[107.37273818000006,30.38158392300005],[107.51160618200004,30.499133071000074],[107.60297501500008,30.61070051400003],[107.62664569600008,30.71929072100005],[107.63453592300004,30.831146428000068],[107.68976751400004,30.89887442500003],[107.75683444700007,30.92933640600006],[107.97776081100005,30.905644593000034],[108.06455331200004,30.922567916000048],[108.14740069900006,30.96655454300003],[108.19868717600008,31.04432741000005],[108.24997365400009,31.176057988000025],[108.33676615500008,31.358151976000045],[108.48273536000005,31.526443700000073],[108.61292411000005,31.633991609000077],[108.73522263400008,31.70450243500005],[108.75889331500008,31.791727337000054],[108.74311286100004,31.831957259000035],[108.65632036100004,31.895618781000053],[108.58925342800006,31.94919436500004],[108.57741808700007,31.999393118000057],[108.60897899700007,32.04956440600006],[108.68393615600007,32.139803431000075],[108.69577149800006,32.23996438800003],[108.69871478700009,32.29969266300003],[108.59319854200004,32.37334070300005],[108.40383308500009,32.37667259400007],[108.07638865400008,32.27332686900007],[107.76077956000006,32.48655605400006],[107.59902990000006,32.50984744500005],[107.46884115000006,32.61292248800004],[107.42149978500004,32.576361028000065],[107.22818921700008,32.58300967500003],[107.11772603500003,32.822032216000025],[106.88496432800008,32.83197758600005],[106.62458682600004,32.759019024000054],[106.32870330200006,32.71255969400005],[106.18667921000008,32.75570130400007],[106.17484387000007,32.86512077300006],[106.12750250600004,32.97109573300003],[105.81978364100007,32.98764285400006],[105.82575884100004,32.994325169000035],[105.57755366200007,32.99796668500005],[105.48160849800007,32.923820085000045],[105.49170799000007,32.75835549000004],[105.19882275100008,32.65425219600007],[105.08772835000008,32.70738129800003],[105.00945729500006,32.71375466500007],[104.90341263900007,32.754108753000025],[104.67112434700005,32.771094481000034],[104.47418427500008,32.949248785000066],[104.48933351100004,33.13550229100008],[104.43378631000007,33.188343331000056],[104.38581372900006,33.28337690700005],[104.30249292700006,33.46049624600005],[104.23937111000004,33.46260263600004],[104.16867467200007,33.41625023000006],[104.07525438100004,33.32769054500005],[103.97678434400007,33.323471168000026],[103.90356303500005,33.340347448000045],[103.54503110600007,33.614128135000044],[103.46676005100005,33.801062916000035],[103.27234485000008,33.83672325100002],[103.21679765000005,33.90171262600006],[103.18144943000004,34.002243656000076],[103.20164841300004,34.15699609200004],[103.19912354100006,34.24678980500005],[103.13095197700005,34.26974492100004],[103.04258143100009,34.323977564000074],[102.94916113800008,34.31355092900003],[102.75222106500007,34.209213377000026],[102.59820382700008,34.16326387200007],[102.42651248100003,34.13401024900003],[102.27754499000008,34.03154282700007],[102.27502011700005,33.95199298600005],[102.33289020000007,33.785703417000036],[102.32147197400008,33.78566620200007],[102.34808362200005,33.75528579000007],[102.37569941700008,33.679811692000044],[102.49405282700008,33.64369193700003],[102.49799794100005,33.505640775000074],[102.42698589500009,33.406897737000065],[102.39937009800008,33.21567606200006],[102.26918134800007,33.20907473600005],[102.17449862100005,33.29485313400005],[102.00091362100005,33.29815062100005],[101.81943839000007,33.16615397400005],[101.77604214100006,33.126516148000064],[101.68135941300005,33.24207639200006],[101.59456691300005,33.33111863800008],[101.49199395900007,33.350893462000045],[101.36969543500004,33.31133932400007],[101.19611043300006,33.22887722300004],[101.07775702500004,33.093470952000075],[101.05803145600004,33.00418687300004],[101.07775702500004,32.88168772300003],[100.99096452400005,32.745747401000074],[100.71480656800009,32.715879020000045],[100.50177043000008,32.76565409300002],[100.29267940500006,32.937992190000045],[100.01257633600005,33.16945631700003],[99.91789360900003,33.33441475400008],[99.66540633500006,33.327822397000034],[99.50760178800004,33.23217720200006],[99.40108371900004,33.225577120000025],[99.17621224100009,33.28495992500007],[99.02629792200008,33.38054727800005],[98.86060314900004,33.439824577000024],[98.65940235100004,33.38054727800005],[98.53710382900005,33.38713564100004],[98.22938496400008,33.38054727800005],[98.07947064400008,33.400310871000045],[97.93744655100005,33.37395841400007],[97.66128859600008,33.27506559400007],[97.52715473200004,33.113299561000076],[97.57449609700006,33.04387986000006],[97.59390605500005,32.93441626500004],[97.52573449000005,32.85385347700003],[97.43043593900006,32.832427395000025],[97.51531939100005,32.692641141000024],[97.70073973400008,32.57968541300005],[97.94928189300003,32.53645879000004],[98.05974507500008,32.50984744500005],[98.17809848600007,32.43662562700007],[98.29250678100004,32.38666753200005],[98.29645189400009,32.21994101700005],[98.44242110000005,32.109733660000074],[98.48581735100004,31.969277160000047],[98.48187223800005,31.842012],[98.51737825900005,31.785020647000067],[98.59233542000004,31.677647480000076],[98.72646928400007,31.593675688000076],[98.83298735300008,31.516354722000074],[98.87638360200003,31.462528452000072],[98.84876780800005,31.391834491000054],[98.78959110300008,31.31434666000007],[98.67518280600007,31.307605571000067],[98.67960133300005,31.21223496300007],[98.80836984400008,31.07825705500005],[98.83614344300008,31.030671031000054],[98.84119319000007,30.957082211000056],[98.85381755200007,30.91160194300005],[98.90936475400008,30.848760310000046],[98.96996169900007,30.809734436000042],[98.98763580900004,30.76418420600004],[99.00571389700008,30.513925504000042],[98.99601838600006,30.33975453800008],[99.00409797900005,30.19600433000005],[99.10882970000006,30.084907747000045],[99.09873020900005,29.975610929000027],[99.06338199100009,29.846485861000076],[99.05833224500009,29.723771816000067],[99.12145406400003,29.36133159700006],[99.12145406400003,29.340099191000036],[99.12145406400003,29.27767676800005],[99.16245799700005,29.05402706500007],[99.16407391600006,28.93247414500007],[99.20982461000006,28.74996584200005],[99.21487435500006,28.535023912000042],[99.26789668300006,28.412954305000028],[99.31586926300008,28.35297765300004],[99.39161544700005,28.246268822000047],[99.48503573800008,28.321865299000024],[99.50523472000003,28.35964340000004],[99.65925195700004,28.375195183000073],[99.81579406700007,28.539460148000046],[99.89658999500006,28.59933103900005],[99.93698795800003,28.637010039000074],[100.00263465100005,28.652520990000028],[100.07080621500006,28.654736654000033],[100.14150265000006,28.61706401600003],[100.20462447000006,28.557203221000066],[100.17432599700004,28.470677516000023],[100.12382854100008,28.38630220300007],[100.12382854100008,28.317419934000043],[100.15412701500009,28.20622544300005],[100.17685087000007,28.14390590100004],[100.18190061400009,28.086005269000054],[100.50966065600005,27.961608308000052],[100.63195918000008,27.975545684000053],[100.75820281700004,27.874458955000023],[100.89628179700009,27.738365909000038],[100.97912918200007,27.672002477000035],[100.99490963700003,27.591613839000047],[101.01069009200006,27.521662724000066],[101.05014122800009,27.455167921000054],[101.15665929700003,27.40614607400005],[101.24345179800008,27.308037135000063],[101.27264563800009,27.04973731700005],[101.41908825700006,26.93724693300004],[101.49230956800005,26.84942642900006],[101.53018265900005,26.797602874000063],[101.52513291200006,26.723205972000073],[101.51503342100006,26.669068563000053],[101.52260803900003,26.63747653300004],[101.65137654900008,26.531353700000068],[101.65137654900008,26.393473381000035],[101.68167502200004,26.32333983700005],[101.71449836800008,26.314287250000064],[101.79276942400008,26.27806983100004],[101.84074200600008,26.221457480000026],[101.86346585900009,26.20107028500007],[101.96193589700005,26.17614775100003],[102.05535618900007,26.17161581000005],[102.14625160600008,26.194273760000044],[102.26492062600005,26.264485382000032],[102.32551757200008,26.316550462000066],[102.42398760900005,26.38442628200005],[102.46691044500005,26.402519769000037],[102.51235815400008,26.427393686000073],[102.55780586400004,26.44548043700007],[102.60577844600004,26.44548043700007],[102.63607692000005,26.431915639000067],[102.67142513700009,26.382164397000054],[102.71939771900009,26.332391717000064],[102.77242004800007,26.332391717000064],[102.84059161200008,26.37311641200006],[102.92391241100006,26.41156545000007],[103.02490732000007,26.483905351000033],[103.06025554000007,26.51779902900006],[103.06166946800005,26.66419493400008],[103.07136498000006,26.76956321600005],[103.06974906100004,26.83158377600006],[103.01803966800009,26.88780563100005],[102.99541680800007,26.93823733800008],[102.95017108700006,26.982886593000046],[102.95421088500007,27.099197417000028],[102.96178550300004,27.17559278600004],[102.97693473800007,27.274379792000047],[102.99208397500007,27.35738278100007],[103.01480782900006,27.42911902000003],[103.02238244900008,27.489610241000037],[103.05268092200004,27.520962988000065],[103.09307888400008,27.534397143000035],[103.13852659500009,27.536636010000052],[103.19912354100006,27.56573712100004],[103.27991946800006,27.65746699400006],[103.41373772300005,27.784866085000033],[103.57280470600006,27.907653710000034],[103.57106885500008,28.00689819400003],[103.58290419700006,28.09742084800007],[103.55528840000005,28.142653575000054],[103.55528840000005,28.236537438000028],[103.61841022000004,28.32339335100005],[103.66969669800005,28.330338762000054],[103.76043431200009,28.347700305000046],[103.91034863100003,28.378943931000038],[103.93796442500008,28.465683483000078],[103.87484260800005,28.55581715200003],[103.86695237900005,28.638949034000063],[103.91823885700006,28.70125475900005],[103.97741556100004,28.711635443000034],[104.06026294900005,28.704715101000033],[104.19045169900005,28.718555327000047],[104.30091488200009,28.749689138000065],[104.39954272400007,28.704715101000033],[104.40743295100003,28.59739131200007],[104.34431113300008,28.500359393000053],[104.35614647300008,28.420587786000056],[104.42715851900005,28.354644129000064],[104.49028033800005,28.316447485000026],[104.48633522500006,28.187867207000068],[104.45871942800005,28.114820309000038],[104.50606079300007,28.031277174000024],[104.58496306600006,27.98948125800007],[104.82166988500006,27.975545684000053],[105.02681579500006,28.052169047000064],[105.05443159100008,28.17047961000003],[105.12938875000003,28.208728595000025],[105.20829102300007,28.194821456000057],[105.30297375200007,28.114820309000038],[105.34242488800004,28.076537770000073],[105.33453466000009,27.992964870000037],[105.36945876100003,27.865629813000055]]]}}]}
