{"type":"FeatureCollection","features":[{"type":"Feature","properties":{"shapeName":"Taiwan Province","shapeISO":"CHN","shapeID":"43563684B32372453033755","shapeGroup":"CHN","shapeType":"ADM1"},"geometry":{"type":"Polygon","coordinates":[[[121.73295436,25.16218442400003],[121.61853065300011,25.281383638000023],[121.50410694800007,25.27511290900003],[121.40971762700008,25.16532344600006],[121.40702016500006,25.10568091300007],[121.27872691900006,25.115099980000025],[121.13656413300009,25.07741936000008],[121.0429447360001,25.008308106000072],[120.90771671900006,24.860531080000044],[120.853625512,24.69758315000007],[120.71160142000008,24.59270013500003],[120.65168500700008,24.457432788000062],[120.46749751300001,24.152044318000037],[120.23227011100005,23.852013140000054],[120.1691637030001,23.668839802000036],[120.02700091500003,23.162931609000054],[120.16222893200006,22.891688569000053],[120.26555700600011,22.550750575000052],[120.5251948,22.401059575000033],[120.62505548900003,22.296385127000065],[120.66721889200005,22.058010296000077],[120.72269705300005,21.90161520500004],[120.82033861500008,21.905733072000032],[120.88247415400008,22.027156499000057],[120.88025502800008,22.294331901000078],[120.97567746600009,22.546651610000026],[121.14349890200003,22.699895500000025],[121.3792810860001,23.115104888000076],[121.6740088150001,24.201264493000053],[121.80923683200001,24.406670012000063],[121.84391068100001,24.624350803000027],[121.81617160200005,24.794445852000024],[121.94793223300007,25.005165760000068],[121.92366053800004,25.10568091300007],[121.73295436,25.16218442400003]]]}}]}
