{"type":"FeatureCollection","features":[{"type":"Feature","properties":{"shapeName":"Tianjin Municipality","shapeISO":"CHN","shapeID":"43563684B84701301190484","shapeGroup":"CHN","shapeType":"ADM1"},"geometry":{"type":"Polygon","coordinates":[[[118.1192513850001,39.20940789700006],[118.15694307100011,39.42914380600007],[118.12995849300012,39.49274128300004],[117.96237006600006,39.525613726000074],[117.92828428300004,39.686463795000066],[117.76211609600011,39.72142924100007],[117.65559802700011,39.867654542000025],[117.63775980100002,39.96037883500003],[117.64503143500008,40.03836506000005],[117.7322910370001,40.08288862000006],[117.75228802900006,40.22530723800003],[117.64503143500008,40.280804196000076],[117.49548738900012,40.30002925500003],[117.29679354500001,40.153405484000075],[117.29858496700001,40.15347310000004],[117.28527020800004,39.94623103200007],[117.24754505900012,39.75712760400006],[117.03319528000009,39.77543450500008],[116.993038995,39.735266257000035],[116.90421809400004,39.70628278500004],[116.91689522100012,39.60170845400006],[116.88360832400008,39.48020457000007],[116.86141706,39.40651431900005],[116.89692308300005,39.33446254100005],[116.87917007200008,39.15572879300004],[116.80815802500001,39.08341879500006],[116.79262414000004,38.96273727100004],[116.92133347300012,38.824563399000056],[117.03450892100011,38.789977941000075],[117.16099912700008,38.81764765100007],[117.37625439200008,38.73114413500008],[117.51827848300002,38.677459283000076],[117.59816703500007,38.687853045000054],[117.64775917000009,38.68902605900007],[117.6960513140001,39.00871077900007],[117.8098248870001,39.13489482500006],[118.10238550000008,39.210496920000026],[118.1192513850001,39.20940789700006]]]}}]}
