{"type":"FeatureCollection","features":[{"type":"Feature","properties":{"shapeName":"Tibet Autonomous Region","shapeISO":"CHN","shapeID":"43563684B19802372559419","shapeGroup":"CHN","shapeType":"ADM1"},"geometry":{"type":"Polygon","coordinates":[[[99.12145406400003,29.340099191000036],[99.12145406400003,29.36133159700006],[99.05833224500009,29.723771816000067],[99.06338199100009,29.846485861000076],[99.09873020900005,29.975610929000027],[99.10882970000006,30.084907747000045],[99.00409797900005,30.19600433000005],[98.99601838600006,30.33975453800008],[99.00571389700008,30.513925504000042],[98.98763580900004,30.76418420600004],[98.96996169900007,30.809734436000042],[98.90936475400008,30.848760310000046],[98.85381755200007,30.91160194300005],[98.84119319000007,30.957082211000056],[98.83614344300008,31.030671031000054],[98.80836984400008,31.07825705500005],[98.67960133300005,31.21223496300007],[98.67518280600007,31.307605571000067],[98.78959110300008,31.31434666000007],[98.84876780800005,31.391834491000054],[98.87638360200003,31.462528452000072],[98.83298735300008,31.516354722000074],[98.72646928400007,31.593675688000076],[98.59233542000004,31.677647480000076],[98.51737825900005,31.785020647000067],[98.48187223800005,31.842012],[98.48581735100004,31.969277160000047],[98.44242110000005,32.109733660000074],[98.29645189400009,32.21994101700005],[98.29250678100004,32.38666753200005],[98.17809848600007,32.43662562700007],[98.05974507500008,32.50984744500005],[97.94928189300003,32.53645879000004],[97.70073973400008,32.57968541300005],[97.51531939100005,32.692641141000024],[97.43043593900006,32.832427395000025],[97.21012539800006,32.78170891600007],[97.18992641600005,32.720127578000074],[97.25052336300007,32.645748608000076],[97.23789899800005,32.545770900000036],[97.20002590700005,32.456334808000065],[97.13185434300004,32.34548128600005],[97.13690409000009,32.255846458000065],[96.96521274200006,32.052774432000035],[96.77363802200006,31.768251793000047],[96.65133950100005,31.711214959000074],[96.46197404400004,31.805139258000054],[96.31600483900007,31.815196920000062],[96.15820029400004,31.727994145000025],[96.05957245100007,31.727994145000025],[95.80314006400005,31.85541661800005],[95.60588438100007,31.85541661800005],[95.50725654000007,31.992701538000063],[95.45991517500005,32.18989768700004],[95.29027528900008,32.229953253000076],[95.16797676500005,32.27332686900007],[94.99439176300007,32.39666136200003],[94.91154437800009,32.50984744500005],[94.72612403400007,32.59298172300004],[94.48941721600005,32.58965783100007],[94.26107403800006,32.594710098000064],[94.16765374500005,32.605345519000025],[93.52886094200005,32.55002754100008],[93.28899803200005,32.61810636000007],[93.13498079400006,32.645748608000076],[92.97591381100005,32.63299170800008],[92.82694632100004,32.72225178100007],[92.67040421000007,32.728624086000025],[92.48861337300008,32.69250833500007],[92.32702151700005,32.71375466500007],[92.25127533500006,32.745614674000024],[92.18310377100005,32.79868937700007],[92.04171089800008,32.881422677000046],[91.94576573400008,32.945011177000026],[91.80689773200004,32.993731413000035],[91.70842769500007,33.002201754000055],[91.51653736800006,33.002201754000055],[91.47866427600007,33.017022894000036],[91.44079118500008,33.046657700000026],[91.31202267500004,33.061471367000024],[91.24385111100008,33.061471367000024],[91.15295569400007,33.067819317000044],[91.05448565600005,33.09320654100003],[90.98631409200004,33.139730746000055],[90.85249583700005,33.137616544000025],[90.67322987200004,33.14395899700003],[90.45104107000003,33.137616544000025],[90.41316798000008,33.22214488000003],[90.37529488900003,33.28337690700005],[90.35257103300006,33.34667520900007],[90.28944921600004,33.43310851600006],[90.22885227000006,33.50682500700003],[90.15563096100004,33.58047876200004],[90.00918834100008,33.717097626000054],[89.98898935900007,33.75489218400003],[89.95364114200004,33.90171262600006],[89.91829292200003,33.916380797000045],[89.88546957800008,33.95618167600003],[89.80719852300007,33.99177721600006],[89.72640259400004,34.088019805000044],[89.58975648200004,34.22240878900004],[89.56228586600008,34.26515440000003],[89.55905403000008,34.29719935800006],[89.56551770300007,34.367922011000076],[89.55905403000008,34.40792726800004],[89.58006097100008,34.445248254000035],[89.58167688900005,34.48122056400007],[89.54935851800008,34.49453970900004],[89.50734463600008,34.52383433600005],[89.48148993800004,34.56243424500008],[89.46694667100007,34.61564611500006],[89.46856259000003,34.68477057700005],[89.50411279900004,34.73790400300004],[89.76750752300006,34.781713377000074],[89.79659405600006,34.83743712800003],[89.82083283600008,34.946122460000026],[89.72710955900004,35.04408084000005],[89.74488466200006,35.190798388000076],[89.78043487100007,35.329341863000025],[89.82406467200008,35.43868945100007],[89.91617203000004,35.629362370000024],[89.88708549600005,35.86804752000006],[89.76427568500009,35.92040978600005],[89.59298831900009,35.93218652200005],[89.57198137800003,36.01980263400003],[89.72226180300004,36.073370476000036],[89.84183977700008,36.15039191900007],[89.82024837300008,36.29902461800003],[89.60268383000005,36.28076412100006],[89.32312991900005,36.22864131000006],[89.18739276000008,36.27164514000003],[89.00964172100004,36.322437327000046],[88.88683191100006,36.360184434000075],[88.80118822700007,36.371895331000076],[88.72524005600008,36.39531184100008],[88.51840248000008,36.45512198500006],[88.38751307800004,36.504495605000045],[88.24531224400005,36.52787212700008],[88.03039507700004,36.54475077800004],[87.83486893300005,36.54604898300005],[87.45189623400006,36.504495605000045],[87.24021090400004,36.345868719000066],[86.46295408000003,36.22864131000006],[86.28358711900006,36.18561382000007],[86.14138628700005,36.10732143800004],[85.95878749100007,35.970121852000034],[85.68408133700007,35.78681759300008],[85.57904663100004,35.748794418000045],[85.47239600600005,35.750105864000034],[85.33827476600004,35.77239714900003],[85.15244413100004,35.78681759300008],[84.93591104600006,35.69631884100005],[84.75977592300006,35.633302541000035],[84.41289638300003,35.51403230400007],[84.33280887300003,35.47038146700004],[84.20374222600003,35.43479658900003],[84.06143797500005,35.49140149700003],[83.92244312600008,35.47145955000008],[83.90258671800007,35.48978476700006],[83.76094434700008,35.46552991000004],[83.70865580800006,35.47577174300005],[83.27487604600003,35.684769577000054],[83.20868802100006,35.684769577000054],[83.06286753200004,35.668807842000035],[82.91084191400006,35.71752313500008],[82.61092743000006,35.67468885200003],[82.43718386700004,35.736833029000024],[82.29550012900006,35.72172133600003],[82.09900443100008,35.61669997700005],[82.00696171000004,35.52837531600005],[81.95421812900008,35.37083234700003],[81.89630360800004,35.252684018000025],[81.59903923200005,35.16702430600003],[81.54732983800005,35.22248634700003],[81.44067921300007,35.322749928000064],[81.31786940200004,35.34779642600006],[81.14819795400007,35.36888219200006],[80.98499018100006,35.306927087000076],[80.80885505800006,35.34120599400006],[80.44527338400007,35.41762193300008],[80.39356399100006,35.45448647400008],[80.26642351900006,35.50985686200005],[80.24573976100004,35.43321242700006],[80.20540643400005,35.34046783300005],[80.11956884000006,35.23156794700003],[79.98635251400003,35.08508259900003],[80.01668783100007,34.97672983500007],[79.99683142300006,34.95937328700006],[79.91211075200005,34.920307610000066],[79.85320341100004,34.914337604000025],[79.87769298000006,34.87525048100008],[79.92071519400008,34.76494642500006],[79.94272271400007,34.66882389400007],[79.77305126600004,34.40659406800006],[79.47733817000005,34.462570191000054],[79.29473937200004,34.42525694100004],[79.20586385200005,34.43192124400008],[79.09759731000008,34.40659406800006],[78.98356692300007,34.35575348300006],[78.99396622500007,34.353845653000064],[79.02929020900007,34.22385626600004],[78.97511231900006,34.12973048200007],[78.73672959700008,34.048967719000075],[78.87217432600005,33.71613499400007],[78.88842769300004,33.431756406000034],[79.06721473500005,33.255243766000035],[79.24058398800008,33.164585799000065],[79.16386809300008,33.05585401900004],[79.24015056400003,32.858014155000035],[79.29909611000005,32.72101336000003],[79.30603088100008,32.510731150000026],[79.00090099600004,32.33804895600008],[78.82753174300007,32.42882149700006],[78.76858619600006,32.61301335400003],[78.46692369700008,32.51365511700004],[78.54667355400005,32.32046954700007],[78.52586924400003,32.23838718600007],[78.51893447400005,32.03873548100006],[78.75818404100005,31.888710282000034],[78.76511881300007,31.744337820000055],[78.83793389800007,31.584972402000062],[78.78939050800005,31.425333978000026],[78.85180343800005,31.25949548500006],[79.08065085200008,31.001274864000038],[79.36150904100003,31.02504861400007],[79.59035645400007,30.888268629000038],[79.86427987300004,30.900170314000036],[80.11393159600004,30.787044628000046],[80.20755099300004,30.60218523700007],[80.36705070500005,30.515597351000054],[80.67218059000004,30.384075254000038],[80.89756061900005,30.24938067900007],[81.08826679600008,30.16247949500007],[81.25816866400004,29.919349814000043],[81.69159179500008,30.336205066000048],[81.77134165100006,30.195451045000027],[82.17160791200007,30.111689238000054],[82.41540842400008,29.928740876000063],[82.61586662300004,29.924045455000055],[82.84341376700007,29.674871809000024],[82.98969407300007,29.660749100000032],[83.36893931300006,29.41092151600003],[83.43395278300005,29.184131266000065],[83.69942445000004,28.99001659000004],[83.80778023300007,29.032658457000025],[83.93238938400003,29.255057313000066],[84.07866969000008,29.226692788000037],[84.15993652800006,29.080017656000052],[84.19244326300003,28.72904578200007],[84.60419523600007,28.66726618900003],[84.91300921800007,28.524558899000056],[85.09179626000008,28.600693567000064],[85.17306309700007,28.562633117000075],[85.13513857200007,28.43884163000007],[85.26516551300006,28.209922806000066],[85.56856170500004,28.23379150200003],[85.92071799900003,28.05225574900004],[86.00198483600008,27.875202234000028],[86.16993629900009,28.00443210000003],[86.35955892000004,27.860833824000053],[86.50042143600007,27.87041297500008],[86.70087963500004,28.033128839000028],[87.31952343300009,27.747616075000053],[87.51422522900003,27.844966490000047],[87.75971880100008,27.755107663000047],[88.54699128500005,28.016987864000043],[88.69090130900008,28.069287788000054],[88.91099899400007,27.934750936000057],[88.89406840200007,27.78506886100007],[88.83481133300006,27.477576400000032],[88.93639488100007,27.35734552200006],[89.23268022200006,27.702655726000046],[89.52896556800005,27.994565829000067],[89.97762623000006,28.270777430000066],[90.40935630200005,28.211116366000056],[90.68024576100004,27.979615214000034],[90.88341285300004,27.949707767000064],[91.34053881200003,27.979615214000034],[91.54370590500008,27.81502180600006],[92.06008893200004,27.702655726000046],[92.02093186100007,27.440439034000065],[92.12495341300007,27.280305078000026],[92.01746447500005,27.107594661000064],[92.13188818200007,26.888238949000026],[92.58611562500005,26.934617334000052],[92.78722395800008,26.953163350000068],[93.08888645700006,26.90370052800006],[93.43215757600007,26.943890724000028],[93.73382007500004,27.011872261000065],[93.84824378300004,27.17856166300004],[94.10483027600009,27.409662037000032],[94.25739521900005,27.557313303000058],[94.57292725900004,27.66907324700003],[94.85465229400006,27.72184107700008],[95.13637732800004,27.87041297500008],[95.33683552700006,28.047474340000065],[95.54271151500006,28.157392900000048],[95.86777886300007,28.286283840000067],[96.08449042900008,28.181273329000078],[96.34454430800008,28.176497668000025],[96.60459818500004,28.07615960100003],[96.92966553500008,27.87041297500008],[97.28723961800006,27.745818017000033],[97.41726655800005,28.06181792700005],[97.35225308700007,28.276741702000038],[97.65564927900004,28.495994207000024],[97.75858727300005,28.495994207000024],[97.89403200200007,28.333981700000038],[98.03489452000008,28.338750310000023],[98.15436570600008,28.213301262000073],[98.26400728000004,28.287008650000075],[98.36904198600007,28.37661694600007],[98.50639506300007,28.306928135000078],[98.67445059300007,28.38372547800003],[98.65505957000005,28.637896440000077],[98.66798692000003,28.741376626000033],[98.69707345200004,28.854661968000073],[98.67445059300007,28.970651495000027],[98.82957877500007,29.015880494000044],[98.93622939900007,29.13168940500003],[98.93138164400006,29.272743395000077],[98.98147511800005,29.31783964600004],[99.04772778000006,29.33897165600007],[99.12145406400003,29.340099191000036]]]}}]}
