{"type":"FeatureCollection","features":[{"type":"Feature","properties":{"shapeName":"Xinjiang Uyghur Autonomous Region","shapeISO":"CHN","shapeID":"43563684B50492231896073","shapeGroup":"CHN","shapeType":"ADM1"},"geometry":{"type":"Polygon","coordinates":[[[89.82024837300008,36.29902461800003],[89.97620719200006,36.30054030500003],[90.31943208000007,36.185995916000024],[90.57586446800008,36.217830638000066],[90.77422478200003,36.31332321600007],[90.89380275500008,36.367991895000046],[91.05216277300008,36.40311577700004],[91.07963338900004,36.442123699000035],[91.08932890000006,36.50319670300007],[91.01338072700008,36.538259425000035],[90.91319377700006,36.529170616000044],[90.79038396600004,36.526573616000064],[90.70797212200006,36.68742258200007],[90.67242191300005,36.822069320000026],[90.86259532800005,36.950103666000075],[90.98631409200004,36.980364285000064],[91.14790594700008,37.09121693900005],[91.11255772900006,37.26623498300006],[91.23627649300005,37.38469449400003],[91.17946685700008,37.45550514700005],[90.33915764800008,37.833483744000034],[90.23263957900008,38.40765805800004],[90.69421787700009,38.688430433000065],[91.45956992600009,38.783827657000074],[91.86591663400009,38.857596038000054],[92.12629413400003,38.919011298000044],[92.434013,39.07844236400007],[92.63427631000008,39.024638795000044],[92.64618733400005,39.03463173800003],[92.61770735400006,39.04359751800007],[92.88893391800008,39.22051509500005],[92.91926198000004,39.45412675500006],[92.88501839400004,40.04957598800007],[92.94814021100007,40.41965496800003],[93.40514217800006,40.45616734400005],[93.63490559600007,40.60968608200005],[93.67277868800005,40.71693985100006],[93.70828471100003,40.78149608900003],[94.09490585000003,41.109281843000076],[94.47316334800007,41.326506219000066],[94.63538642000003,41.541827700000056],[94.89181880900009,41.67162063400008],[95.18375722000007,41.733475198000065],[95.50725654000007,41.921617250000054],[96.05168222500004,42.00375549300003],[96.36729131700008,42.223246817000074],[96.28444392900008,42.40120571400007],[96.40396180600004,42.65992465800008],[96.34454430800008,42.80276187800007],[95.94362791100008,43.12390013700008],[95.54812930300005,43.874510730000054],[95.33141773700004,43.99155949100003],[95.37476005200006,44.17447266000005],[94.95433961400005,44.210055415000056],[94.69775312100006,44.29449774300008],[94.54865556300007,44.40111881100006],[94.29900383900008,44.48528653300008],[93.96613487300004,44.59264055800003],[93.51645837500007,44.87743834100007],[92.99635061900005,44.94650139200007],[92.10241541000005,44.90430605500006],[90.84548833000008,45.130263789000026],[90.71004359900007,45.229555342000026],[90.69379023300007,45.51879941400006],[91.04052873900008,45.949892014000056],[90.92523818600006,46.22239589800006],[91.06761768400008,46.47102122500007],[91.05136431600005,46.67585845200006],[90.59627002800005,47.10903058300005],[90.47166087700003,47.388533632000076],[90.42290077500007,47.50211804200006],[90.10325121700004,47.79774587800006],[89.83236176000008,47.77954570000003],[89.44228094000005,48.008402302000036],[89.31767179200006,47.90681312800007],[88.92759097200008,47.90318124800007],[88.60209020000008,48.34136575700006],[88.10278675400008,48.516225131000056],[88.07851505800005,48.67216842700003],[87.80459163800003,48.841324720000046],[87.92595011700007,49.00536271800007],[87.93635227200008,49.14845414000007],[87.65896146700004,49.13711273700005],[87.53760299000004,49.05310566300005],[87.28795126700004,49.15072211000006],[86.82332167000004,49.050833228000045],[86.80381762800005,48.799660033000066],[86.70629742500006,48.577914657000065],[86.26745650400005,48.434334714000045],[85.77443769200005,48.434334714000045],[85.56314391500007,47.943117906000055],[85.59023286200005,47.49845785700006],[85.76901990400006,47.278379674000064],[85.57939728300005,47.09059050700006],[85.23265877800003,47.01676633300008],[84.92926258600005,46.857698242000026],[84.68047770900006,47.03670893200007],[83.94885946300008,47.024891995000075],[83.25618157700006,47.25586166100004],[83.05080673500004,47.251320133000036],[82.99532857400004,46.95393542700003],[82.76994854600008,46.585825389000036],[82.73180731000008,46.50712868000005],[82.53069897700004,46.16479094400006],[82.50989466700008,45.99402272800006],[82.33999279900007,45.56843063000008],[82.61738360400005,45.43476679300005],[82.63818791400007,45.371469785000045],[82.60698144800006,45.22512910100005],[82.49255774200003,45.176264942000046],[82.30878633400005,45.25442745400005],[81.94471090400003,45.20558847400008],[81.67078748500006,45.39338831400005],[80.07925774700004,45.08575561300006],[79.88855156900007,44.921494806000055],[79.97176881000007,44.83549964300005],[80.20061622300005,44.84779253600004],[80.43293102100006,44.75183841900008],[80.29770300400008,44.55203922100003],[80.36705070500005,44.25229173500003],[80.30463777500006,44.14291190600005],[80.70685444100008,43.53015318700005],[80.66746494500006,43.35251189300004],[80.78507864700003,43.18122672000004],[80.42336103900004,43.04839250600003],[80.50546871700004,42.91201951100004],[80.26996392300003,42.83852668000003],[80.16702592900003,42.655511482000065],[80.23745719000004,42.51190537300005],[80.21578603200004,42.423983270000065],[80.23745719000004,42.31190383500007],[80.25371055700003,42.15144354600005],[80.13451919600004,42.026806313000066],[79.88633244300007,42.047897661000036],[79.50908094900007,41.856454840000026],[79.19396499500004,41.79857902200007],[78.46692369700008,41.49335353500004],[78.06470703200006,41.10521778900005],[77.89480516400005,41.11305538200003],[77.45097987800006,41.05032844600004],[77.04529582700007,41.10521778900005],[76.79911148900004,41.07647194500004],[76.52518806900008,40.63325146200003],[76.30327542600008,40.44616247400006],[76.01894985100006,40.475182293000046],[75.85945013900005,40.34845837900008],[75.71381996800005,40.38808523500006],[75.64793965100006,40.57533609700005],[75.57165718000005,40.69111663500007],[75.21451652000007,40.53581957800003],[74.82963677900005,40.58850308600006],[74.79843031400003,40.40921003100004],[74.44584059700003,40.33474866900008],[74.35915597100006,40.18591032000006],[74.05575977900008,40.18177124700003],[73.89322610500005,40.053334792000044],[73.84446600200005,39.92881055700008],[73.89864389300004,39.79157179900005],[73.82821263500006,39.578935999000066],[73.62775443600003,39.53298755700007],[73.60608328100005,39.340509919000056],[73.77945253200005,39.09706330100005],[73.70902127400007,38.92024775400006],[73.89322610500005,38.59070460100003],[74.07201314700006,38.73031238200008],[74.31039586800006,38.742990501000065],[74.78716131200008,38.56105585200004],[74.82508583700007,38.48476003600007],[74.77090794600008,38.26814963500004],[74.88468151700005,38.07648470000004],[74.95511277500003,37.60585193700007],[75.10139308300006,37.53285010700006],[75.10139308300006,37.39093653300006],[74.44584059700003,37.24875379700006],[74.54336080200005,37.08469527200003],[74.93344162000005,36.98522378200005],[75.15557097400006,37.01118542700004],[75.35061138300006,36.94626469700006],[75.47457039900007,36.74300899200006],[75.66180919200008,36.79022910100008],[75.84558060000006,36.69575981300005],[75.97734123100008,36.30275099000005],[75.94960215200007,36.11530396100005],[76.21154783500003,35.82997110800005],[76.51831987400004,35.82997110800005],[76.68468778200008,35.677123891000065],[76.96207858500003,35.586941366000076],[77.26027370100007,35.493834132000075],[77.70063160000007,35.45430145000006],[77.90867470500007,35.451476945000024],[78.04737010700006,35.530525641000054],[77.98495717500003,35.24502039300006],[78.28315229100008,34.63105382200007],[78.43571723200006,34.55684102600003],[78.65069510600006,34.52256661300004],[78.80672743300005,34.388189372000056],[78.98356692300007,34.35575348300006],[79.09759731000008,34.40659406800006],[79.20586385200005,34.43192124400008],[79.29473937200004,34.42525694100004],[79.47733817000005,34.462570191000054],[79.77305126600004,34.40659406800006],[79.94272271400007,34.66882389400007],[79.92071519400008,34.76494642500006],[79.87769298000006,34.87525048100008],[79.85320341100004,34.914337604000025],[79.91211075200005,34.920307610000066],[79.99683142300006,34.95937328700006],[80.01668783100007,34.97672983500007],[79.98635251400003,35.08508259900003],[80.11956884000006,35.23156794700003],[80.20540643400005,35.34046783300005],[80.24573976100004,35.43321242700006],[80.26642351900006,35.50985686200005],[80.39356399100006,35.45448647400008],[80.44527338400007,35.41762193300008],[80.80885505800006,35.34120599400006],[80.98499018100006,35.306927087000076],[81.14819795400007,35.36888219200006],[81.31786940200004,35.34779642600006],[81.44067921300007,35.322749928000064],[81.54732983800005,35.22248634700003],[81.59903923200005,35.16702430600003],[81.89630360800004,35.252684018000025],[81.95421812900008,35.37083234700003],[82.00696171000004,35.52837531600005],[82.09900443100008,35.61669997700005],[82.29550012900006,35.72172133600003],[82.43718386700004,35.736833029000024],[82.61092743000006,35.67468885200003],[82.91084191400006,35.71752313500008],[83.06286753200004,35.668807842000035],[83.20868802100006,35.684769577000054],[83.27487604600003,35.684769577000054],[83.70865580800006,35.47577174300005],[83.76094434700008,35.46552991000004],[83.90258671800007,35.48978476700006],[83.92244312600008,35.47145955000008],[84.06143797500005,35.49140149700003],[84.20374222600003,35.43479658900003],[84.33280887300003,35.47038146700004],[84.41289638300003,35.51403230400007],[84.75977592300006,35.633302541000035],[84.93591104600006,35.69631884100005],[85.15244413100004,35.78681759300008],[85.33827476600004,35.77239714900003],[85.47239600600005,35.750105864000034],[85.57904663100004,35.748794418000045],[85.68408133700007,35.78681759300008],[85.95878749100007,35.970121852000034],[86.14138628700005,36.10732143800004],[86.28358711900006,36.18561382000007],[86.46295408000003,36.22864131000006],[87.24021090400004,36.345868719000066],[87.45189623400006,36.504495605000045],[87.83486893300005,36.54604898300005],[88.03039507700004,36.54475077800004],[88.24531224400005,36.52787212700008],[88.38751307800004,36.504495605000045],[88.51840248000008,36.45512198500006],[88.72524005600008,36.39531184100008],[88.80118822700007,36.371895331000076],[88.88683191100006,36.360184434000075],[89.00964172100004,36.322437327000046],[89.18739276000008,36.27164514000003],[89.32312991900005,36.22864131000006],[89.60268383000005,36.28076412100006],[89.82024837300008,36.29902461800003]]]}}]}
