{"type":"FeatureCollection","features":[{"type":"Feature","properties":{"shapeName":"Yunnan Province","shapeISO":"CHN","shapeID":"43563684B84540832148656","shapeGroup":"CHN","shapeType":"ADM1"},"geometry":{"type":"Polygon","coordinates":[[[104.58104757100006,24.817365169000027],[104.58275380100008,24.859171968000055],[104.58780354800007,24.918721735000076],[104.62820151200003,24.998839485000076],[104.70829047500007,25.057498339000063],[104.74222476400007,25.159923803000027],[104.75030435700006,25.20964232400007],[104.75999986900007,25.330928674000063],[104.74222476400007,25.380577208000034],[104.71960190400006,25.41269186100004],[104.65173332600006,25.478354285000023],[104.56770556100008,25.49148247100004],[104.49660514500005,25.519192820000058],[104.41580921600007,25.688232880000044],[104.35602022900008,25.798853447000056],[104.42065697300006,25.87157390400006],[104.45782309800006,25.971854656000062],[104.56447372300005,26.14895345700006],[104.57740107300003,26.205510468000057],[104.56770556100008,26.28232596400005],[104.58709658200007,26.372121090000064],[104.65849998500005,26.443219748000047],[104.69132333000005,26.490684886000054],[104.70899744000008,26.53587156900005],[104.65597511200008,26.617162757000074],[104.58780354800007,26.716440202000058],[104.49185838300008,26.802110210000023],[104.38076398200008,26.76153773200008],[104.33026652900008,26.76153773200008],[104.20654776500004,26.768300819000046],[104.17877416300007,26.73899120200008],[104.13332645400004,26.682605326000044],[104.06263001700006,26.63747653300004],[103.97678434400007,26.635219626000037],[103.85054070700005,26.669068563000053],[103.83539147100004,26.734481360000075],[103.84296608900007,26.813377769000056],[103.80660792000003,26.87050957500003],[103.79691241100005,26.905099041000028],[103.79529649100004,26.952642258000026],[103.80176016600007,26.99584596300008],[103.82438302500009,27.02463921900005],[103.83731037300004,27.05486419700003],[103.80660792000003,27.10809791500003],[103.72258015700004,27.14692817300005],[103.69510954100008,27.17280751900006],[103.69187770500008,27.198680866000075],[103.73873934200009,27.25615569400003],[103.81307159600004,27.316472313000077],[103.90194711500004,27.44274364200004],[103.99405447300006,27.487191231000054],[104.10878469100004,27.47572260000004],[104.23644225600003,27.39827814100005],[104.25906511600004,27.41836155200008],[104.27684022100004,27.459951287000024],[104.35602022900008,27.510124906000044],[104.45135942300004,27.511558102000038],[104.54993045600008,27.45278176100004],[104.91674396900004,27.425533315000052],[105.05409704600004,27.482890634000057],[105.09126317200008,27.491491659000076],[105.17205910000007,27.490058201000068],[105.21730481900005,27.501525337000032],[105.24800727200005,27.535919578000062],[105.32880320000004,27.747779261000062],[105.37404891900007,27.84926878500005],[105.36945876100003,27.865629813000055],[105.33453466000009,27.992964870000037],[105.34242488800004,28.076537770000073],[105.30297375200007,28.114820309000038],[105.20829102300007,28.194821456000057],[105.12938875000003,28.208728595000025],[105.05443159100008,28.17047961000003],[105.02681579500006,28.052169047000064],[104.82166988500006,27.975545684000053],[104.58496306600006,27.98948125800007],[104.50606079300007,28.031277174000024],[104.45871942800005,28.114820309000038],[104.48633522500006,28.187867207000068],[104.49028033800005,28.316447485000026],[104.42715851900005,28.354644129000064],[104.35614647300008,28.420587786000056],[104.34431113300008,28.500359393000053],[104.40743295100003,28.59739131200007],[104.39954272400007,28.704715101000033],[104.30091488200009,28.749689138000065],[104.19045169900005,28.718555327000047],[104.06026294900005,28.704715101000033],[103.97741556100004,28.711635443000034],[103.91823885700006,28.70125475900005],[103.86695237900005,28.638949034000063],[103.87484260800005,28.55581715200003],[103.93796442500008,28.465683483000078],[103.91034863100003,28.378943931000038],[103.76043431200009,28.347700305000046],[103.66969669800005,28.330338762000054],[103.61841022000004,28.32339335100005],[103.55528840000005,28.236537438000028],[103.55528840000005,28.142653575000054],[103.58290419700006,28.09742084800007],[103.57106885500008,28.00689819400003],[103.57280470600006,27.907653710000034],[103.41373772300005,27.784866085000033],[103.27991946800006,27.65746699400006],[103.19912354100006,27.56573712100004],[103.13852659500009,27.536636010000052],[103.09307888400008,27.534397143000035],[103.05268092200004,27.520962988000065],[103.02238244900008,27.489610241000037],[103.01480782900006,27.42911902000003],[102.99208397500007,27.35738278100007],[102.97693473800007,27.274379792000047],[102.96178550300004,27.17559278600004],[102.95421088500007,27.099197417000028],[102.95017108700006,26.982886593000046],[102.99541680800007,26.93823733800008],[103.01803966800009,26.88780563100005],[103.06974906100004,26.83158377600006],[103.07136498000006,26.76956321600005],[103.06166946800005,26.66419493400008],[103.06025554000007,26.51779902900006],[103.02490732000007,26.483905351000033],[102.92391241100006,26.41156545000007],[102.84059161200008,26.37311641200006],[102.77242004800007,26.332391717000064],[102.71939771900009,26.332391717000064],[102.67142513700009,26.382164397000054],[102.63607692000005,26.431915639000067],[102.60577844600004,26.44548043700007],[102.55780586400004,26.44548043700007],[102.51235815400008,26.427393686000073],[102.46691044500005,26.402519769000037],[102.42398760900005,26.38442628200005],[102.32551757200008,26.316550462000066],[102.26492062600005,26.264485382000032],[102.14625160600008,26.194273760000044],[102.05535618900007,26.17161581000005],[101.96193589700005,26.17614775100003],[101.86346585900009,26.20107028500007],[101.84074200600008,26.221457480000026],[101.79276942400008,26.27806983100004],[101.71449836800008,26.314287250000064],[101.68167502200004,26.32333983700005],[101.65137654900008,26.393473381000035],[101.65137654900008,26.531353700000068],[101.52260803900003,26.63747653300004],[101.51503342100006,26.669068563000053],[101.52513291200006,26.723205972000073],[101.53018265900005,26.797602874000063],[101.49230956800005,26.84942642900006],[101.41908825700006,26.93724693300004],[101.27264563800009,27.04973731700005],[101.24345179800008,27.308037135000063],[101.15665929700003,27.40614607400005],[101.05014122800009,27.455167921000054],[101.01069009200006,27.521662724000066],[100.99490963700003,27.591613839000047],[100.97912918200007,27.672002477000035],[100.89628179700009,27.738365909000038],[100.75820281700004,27.874458955000023],[100.63195918000008,27.975545684000053],[100.50966065600005,27.961608308000052],[100.18190061400009,28.086005269000054],[100.17685087000007,28.14390590100004],[100.15412701500009,28.20622544300005],[100.12382854100008,28.317419934000043],[100.12382854100008,28.38630220300007],[100.17432599700004,28.470677516000023],[100.20462447000006,28.557203221000066],[100.14150265000006,28.61706401600003],[100.07080621500006,28.654736654000033],[100.00263465100005,28.652520990000028],[99.93698795800003,28.637010039000074],[99.89658999500006,28.59933103900005],[99.81579406700007,28.539460148000046],[99.65925195700004,28.375195183000073],[99.50523472000003,28.35964340000004],[99.48503573800008,28.321865299000024],[99.39161544700005,28.246268822000047],[99.31586926300008,28.35297765300004],[99.26789668300006,28.412954305000028],[99.21487435500006,28.535023912000042],[99.20982461000006,28.74996584200005],[99.16407391600006,28.93247414500007],[99.16245799700005,29.05402706500007],[99.12145406400003,29.27767676800005],[99.12145406400003,29.340099191000036],[99.04772778000006,29.33897165600007],[98.98147511800005,29.31783964600004],[98.93138164400006,29.272743395000077],[98.93622939900007,29.13168940500003],[98.82957877500007,29.015880494000044],[98.67445059300007,28.970651495000027],[98.69707345200004,28.854661968000073],[98.66798692000003,28.741376626000033],[98.65505957000005,28.637896440000077],[98.67445059300007,28.38372547800003],[98.50639506300007,28.306928135000078],[98.36904198600007,28.37661694600007],[98.26400728000004,28.287008650000075],[98.15436570600008,28.213301262000073],[98.17575703800009,28.19082400700006],[98.17575703800009,27.961372657000027],[98.43581091700008,27.539444197000023],[98.56042006600006,27.67387137700007],[98.76087826500009,27.56826390200007],[98.75546047700004,27.323055776000047],[98.77713163200008,27.173741962000065],[98.82589173500008,26.961469432000058],[98.78153358500003,26.269434296000043],[98.61222767600003,26.06429608700006],[98.75613770000007,25.91972372500004],[98.65455415300005,25.790219023000077],[98.56990119800008,25.805462229000057],[98.40059528700004,25.584244253000065],[98.21435878500006,25.57660872500003],[98.14780124500004,25.366006737000077],[97.89121475200005,25.30019388100004],[97.75945412000004,25.002023333000068],[97.81839966700005,24.87311474300003],[97.63116087300006,24.822772410000027],[97.58261748200005,24.662169773000073],[97.59995440700004,24.542370452000057],[97.64503041300009,24.42561373600006],[97.71784550000007,24.34034460600003],[97.77332366100006,24.239210525000033],[97.65543256800004,24.011365125000054],[97.64503041300009,23.88460944700006],[97.76638889000009,23.88460944700006],[98.04377969300003,24.11267983700003],[98.33157265300008,24.18545031000008],[98.56042006600006,24.131667434000065],[98.86208256500004,24.15065221100008],[98.74765886000006,23.935326662000023],[98.84127825500008,23.687892686000055],[98.88288687700003,23.61484155000005],[98.95223457800006,23.233046572000035],[99.13947337000008,23.102348216000053],[99.50354880000003,23.121482770000057],[99.54169003600003,22.965137568000046],[99.40299463300005,22.783038954000062],[99.42033156000008,22.555874113000073],[99.28371658900005,22.409266009000078],[99.21936192100009,22.152586602000042],[99.99383704700006,22.037441846000036],[99.99161792000007,21.763598057000024],[100.14695677000009,21.641950535000035],[100.24016008000007,21.39628209600005],[100.39549893100008,21.49129559200003],[100.62850720700004,21.435534302000065],[100.83266683800008,21.604817292000064],[101.10340026300008,21.71000334400003],[101.30294411100004,21.20822159100004],[101.66226506300006,21.213517699000022],[101.78156530100006,21.171143518000065],[101.81282724500005,21.53065123700003],[101.79549031800008,21.86248954900003],[101.59438198600009,22.193558515000063],[101.60131675700006,22.26096276000004],[101.71227307800007,22.45657176800006],[102.20630610000006,22.427728711000043],[102.44819088100007,22.616317457000036],[102.49479253600003,22.733031028000028],[102.61462536300007,22.769867287000068],[103.02960200600006,22.462596005000023],[103.40463437300008,22.79237344300003],[103.58216448800005,22.579439926000077],[103.67536779800008,22.78828168900003],[103.99492200500003,22.50975544100004],[104.10809745300008,22.745310885000038],[104.25012154500007,22.849645071000054],[104.36995437100006,22.72893749800005],[104.90476384200008,22.89462729400003],[104.92251685400004,23.033568898000055],[104.90920209500007,23.111150450000025],[105.30198747200006,23.34158830900003],[105.36190388700004,23.36196185500006],[105.53706587800008,23.28252977300008],[105.57603873800008,23.322662196000067],[105.66400934300003,23.393335500000035],[105.68365891400003,23.415164805000074],[105.74571018600005,23.458812610000052],[105.78604351300004,23.497703930000057],[105.83154778000005,23.564077221000048],[105.87601785900006,23.588721625000062],[106.08595799700004,23.583982675000073],[106.13973576700005,23.601042091000068],[106.15421439700003,23.637996544000032],[106.16765883900007,23.754476835000048],[106.19868447500005,23.916239762000032],[106.20385541500008,23.971060829000066],[106.17903490600008,24.027747748000024],[106.12112038500004,24.107067435000033],[106.07561611900007,24.147652566000033],[106.03321441600008,24.171242650000067],[105.98564177400004,24.164637866000078],[105.94013750800008,24.13066500800005],[105.85781453600003,24.11239570500004],[105.77196886400009,24.165389766000033],[105.66087446200004,24.211453692000077],[105.62047649800007,24.22066448000004],[105.60027751600006,24.21836184500006],[105.51948158900007,24.158478744000035],[105.46393438800004,24.15387118700005],[105.34526537000005,24.195333211000047],[105.24679533300008,24.22757213400007],[105.23164609600008,24.262104781000062],[105.23164609600008,24.34264447000004],[105.21144711500006,24.43692585100007],[105.18619838700005,24.47140145000003],[105.12307656900003,24.524245699000062],[105.07257911400006,24.558697367000036],[105.04733038700004,24.533433736000063],[104.96148471300006,24.515056990000062],[104.91098725900008,24.544917836000025],[104.77464413100006,24.54951118100007],[104.73424616700004,24.52883980200005],[104.72414667600003,24.47599748400006],[104.69637307600004,24.46220887900006],[104.64840049400004,24.508165018000057],[104.58275380100008,24.590843721000056],[104.55498020100003,24.655111662000024],[104.54235583900004,24.710172148000026],[104.54488071000009,24.74227952700005],[104.58022893000003,24.797301461000075],[104.58104757100006,24.817365169000027]]]}}]}
