{"type":"FeatureCollection","features":[{"type":"Feature","properties":{"shapeName":"Zhejiang Province","shapeISO":"CHN","shapeID":"43563684B73528730180553","shapeGroup":"CHN","shapeType":"ADM1"},"geometry":{"type":"Polygon","coordinates":[[[120.54140008200011,27.28741374300006],[120.64419545400006,27.369639119000055],[120.6892714600001,27.655637365000075],[120.87304286800008,27.95007867000004],[121.02560781000011,28.048048120000033],[121.10535766600003,28.301740288000076],[121.29606384400006,28.33531693300006],[121.2475204540001,28.069467058000043],[121.61506326900007,28.30784592200007],[121.53184602700003,28.655286235000062],[121.67747619900001,28.755647285000066],[121.69828050900003,28.937874866000072],[121.88551930300002,29.065243920000057],[121.89245407200008,29.210616068000036],[121.97567131400001,29.26507756600006],[122.00341039400007,29.657547677000025],[121.88108105100002,29.540448852000054],[121.74571433800008,29.561683853000034],[121.98316086600005,29.76415668100003],[122.38482274900002,29.898911807000047],[122.41145226800006,29.97391075300004],[122.1207467050001,30.16595701500006],[122.0097903840001,30.11989991300004],[121.89661493400001,29.993132142000036],[121.77456298200002,29.970066029000066],[121.683578796,30.014271372000053],[121.41950275200008,30.309746741000026],[121.23087700600001,30.317409616000077],[120.86957548200007,30.171472831000074],[120.359869881,30.327226798000027],[120.38760896000008,30.39005738000003],[120.59565206500008,30.419962515000066],[120.98053180400007,30.399029882000036],[121.02214042500009,30.52455830100007],[121.41811606100009,30.710089537000044],[121.33919496100009,30.820985921000045],[121.27610950000008,30.860055772000067],[121.15821208300008,30.88313502300008],[121.11063944000011,30.93105108700007],[121.11167362900005,31.021493710000072],[121.0018690170001,31.09295347400007],[120.87717152900007,31.047026002000052],[120.83488622200002,30.96655454300003],[120.60212451600012,30.87856105000003],[120.55478315200003,31.003758177000066],[120.42064928800005,31.013902106000046],[120.30624099200008,30.969937291000065],[120.03008303500008,31.219927537000046],[119.79337621500008,31.21317969900008],[119.73999731800006,31.22506099000003],[119.6355716710001,30.862476574000027],[119.37050934600006,30.67179752100003],[119.46297294700003,30.49667707800006],[119.30270270400001,30.374436614000047],[119.0068191800001,30.427603469000076],[118.96366950000004,29.99078306100006],[118.84654893800007,29.94806280100005],[118.8403846980001,29.793048076000048],[118.55066541400004,29.573479148000047],[118.42738061200009,29.55739431300003],[118.31395859500003,29.48723452300004],[118.29055000100004,29.512701785000047],[118.26711036900008,29.433992232000037],[118.16848252900002,29.288937358000055],[118.16848252900002,29.186738011000045],[118.38423093200004,28.92270143500008],[118.56299389500009,28.733690978000027],[118.59997933500006,28.398032730000068],[118.59094838800002,28.390088225000056],[118.82051118900006,28.35519961400007],[118.89625737000006,28.252941258000078],[118.84575991500003,28.101596975000064],[118.93918020800004,27.96119015800008],[119.04774973400004,27.55230679700003],[119.2977121350001,27.491850020000072],[119.50727657400012,27.559022164000055],[119.61079635600004,27.69994989500003],[119.694319145,27.68626773300008],[119.89792488400008,27.356665184000065],[120.01103918400008,27.363840949000064],[120.2388836990001,27.43700716400008],[120.41178698500005,27.39397407900003],[120.54140008200011,27.28741374300006]]]}}]}
