{"type":"FeatureCollection","features":[{"type":"Feature","properties":{"place_id":237767869,"osm_type":"relation","osm_id":2727734,"place_rank":12,"category":"boundary","type":"administrative","importance":0.530284840293476,"addresstype":"city","name":"大理市","display_name":"大理市, 大理白族自治州, 云南省, 中国"},"bbox":[99.9784346,25.424144,100.43644,26.078288],"geometry":{"type":"Polygon","coordinates":[[[99.9784346,25.8690773],[99.982207,25.867134],[99.985178,25.866641],[99.987831,25.865463],[99.98889,25.864483],[99.990269,25.863236],[99.991543,25.862667],[99.992909,25.862409],[99.995379,25.86062],[99.996144,25.859711],[99.996824,25.856666],[99.997778,25.855517],[99.999669,25.8537],[100.000799,25.852546],[100.001369,25.850915],[100.002512,25.850177],[100.004489,25.84947],[100.005022,25.848925],[100.004853,25.847743],[100.004031,25.846492],[100.003484,25.845763],[100.00339,25.845367],[100.003785,25.844959],[100.004819,25.844634],[100.005746,25.843599],[100.00721,25.841653],[100.008989,25.84055],[100.010082,25.839408],[100.010539,25.838235],[100.012432,25.836636],[100.015272,25.836437],[100.017153,25.835768],[100.017385,25.835481],[100.017387,25.832809],[100.017296,25.8319],[100.01743,25.831447],[100.01823,25.830428],[100.018498,25.829306],[100.018589,25.827478],[100.018363,25.825754],[100.018021,25.824646],[100.018564,25.823723],[100.0193737,25.8230315],[100.019585,25.822328],[100.019269,25.821228],[100.018207,25.820446],[100.01663,25.818238],[100.016587,25.816914],[100.017009,25.81589],[100.017057,25.815305],[100.016207,25.814041],[100.016075,25.813535],[100.017653,25.80943],[100.018365,25.808083],[100.018107,25.806826],[100.018535,25.805354],[100.019289,25.803997],[100.020473,25.802535],[100.021149,25.80037],[100.022814,25.798883],[100.025525,25.794848],[100.027005,25.791886],[100.026958,25.790605],[100.026826,25.790241],[100.028201,25.788018],[100.029313,25.787024],[100.030317,25.786481],[100.031689,25.784879],[100.033718,25.783561],[100.034621,25.782864],[100.036197,25.780562],[100.036593,25.778517],[100.036874,25.777182],[100.038255,25.775013],[100.038761,25.773848],[100.041395,25.770766],[100.041962,25.769772],[100.0427886,25.7687795],[100.044452,25.76705],[100.044553,25.766738],[100.043262,25.763686],[100.042735,25.762024],[100.042677,25.761114],[100.043407,25.756663],[100.043364,25.754336],[100.0428962,25.7530134],[100.04344,25.752329],[100.04501,25.751628],[100.046655,25.748972],[100.048775,25.746679],[100.04917,25.74501],[100.049882,25.743316],[100.050232,25.742218],[100.052043,25.739951],[100.057215,25.741129],[100.058442,25.740939],[100.058911,25.740521],[100.059335,25.739009],[100.059644,25.737294],[100.060393,25.735623],[100.062233,25.733904],[100.064018,25.731725],[100.064684,25.729337],[100.0656,25.727978],[100.066239,25.727341],[100.067069,25.726031],[100.067496,25.725747],[100.06875,25.725567],[100.069911,25.72481],[100.070743,25.723838],[100.071542,25.722142],[100.07294,25.721018],[100.075005,25.720294],[100.076671,25.719284],[100.078785,25.717246],[100.080426,25.716013],[100.080834,25.715435],[100.081275,25.713735],[100.08145,25.712255],[100.08202,25.710602],[100.081829,25.705817],[100.081969,25.705209],[100.082838,25.704161],[100.084006,25.702994],[100.084688,25.700382],[100.085564,25.69924],[100.0858909,25.6985851],[100.085973,25.697143],[100.085361,25.694569],[100.085368,25.692832],[100.085584,25.692036],[100.087826,25.688909],[100.089391,25.687642],[100.089143,25.686141],[100.08881,25.68464],[100.088839,25.683238],[100.089782,25.680922],[100.090542,25.677175],[100.090432,25.673416],[100.093717,25.670209],[100.095137,25.668968],[100.096368,25.667775],[100.098271,25.666913],[100.098425,25.666642],[100.097331,25.662759],[100.097442,25.661317],[100.097888,25.660521],[100.101066,25.656531],[100.1012573,25.6562558],[100.101065,25.652901],[100.101423,25.652178],[100.102607,25.65182],[100.103403,25.650765],[100.104941,25.649527],[100.10553,25.649362],[100.106387,25.649871],[100.107688,25.649998],[100.108235,25.649663],[100.108866,25.64903],[100.110038,25.648121],[100.110958,25.647265],[100.112499,25.647046],[100.113433,25.646508],[100.113975,25.645804],[100.114024,25.641735],[100.114398,25.63801],[100.115624,25.636762],[100.117296,25.6362],[100.118022,25.636086],[100.118887,25.634781],[100.120044,25.634345],[100.120828,25.634322],[100.12147,25.633577],[100.121889,25.632657],[100.122404,25.632215],[100.123276,25.631804],[100.125432,25.630244],[100.125248,25.629472],[100.124543,25.628501],[100.124505,25.626671],[100.125238,25.62372],[100.126468,25.6215],[100.1280896,25.6201913],[100.1290727,25.6194039],[100.1291263,25.6184365],[100.128842,25.6172466],[100.1278925,25.6153407],[100.1268732,25.6143104],[100.1256716,25.6136525],[100.1252693,25.6131253],[100.1249474,25.6105808],[100.1247275,25.6087571],[100.1238692,25.6080654],[100.1217663,25.6073688],[100.1209134,25.6063868],[100.120452,25.6055982],[100.1203394,25.6036632],[100.1177698,25.6009879],[100.1169705,25.6007219],[100.1158031,25.5993656],[100.1114774,25.5945777],[100.1112145,25.5933827],[100.1117992,25.5923619],[100.1116973,25.5898267],[100.1120728,25.5880656],[100.1109087,25.585927],[100.1131457,25.5842965],[100.1168364,25.5826417],[100.1188266,25.5804934],[100.1222813,25.5785434],[100.1231396,25.5749144],[100.1260149,25.5706174],[100.1274861,25.5689783],[100.12815,25.5682076],[100.1296413,25.5662139],[100.1302528,25.5642395],[100.1307659,25.5615997],[100.129893,25.561843],[100.128531,25.562856],[100.127149,25.56312],[100.125588,25.563018],[100.12292,25.562747],[100.120946,25.561848],[100.119006,25.561546],[100.117819,25.560267],[100.116673,25.558905],[100.116113,25.558839],[100.115053,25.559184],[100.114002,25.558989],[100.112561,25.558219],[100.111289,25.558419],[100.10981,25.558798],[100.106476,25.558903],[100.105059,25.559686],[100.1041,25.559943],[100.102715,25.560116],[100.101461,25.560612],[100.098945,25.560982],[100.097997,25.561578],[100.097092,25.561455],[100.095842,25.56099],[100.095152,25.56111],[100.093664,25.562431],[100.092177,25.563055],[100.091019,25.563999],[100.08868,25.564305],[100.085793,25.5655],[100.084019,25.565887],[100.082275,25.567038],[100.081511,25.567749],[100.078688,25.56813],[100.077284,25.569112],[100.075244,25.570769],[100.073753,25.571979],[100.070455,25.57556],[100.069792,25.5759],[100.068177,25.576133],[100.066875,25.575922],[100.064625,25.576111],[100.063568,25.57608],[100.062928,25.576679],[100.061537,25.578376],[100.060633,25.578997],[100.058996,25.579181],[100.058238,25.579513],[100.055849,25.579568],[100.055114,25.58012],[100.053917,25.58102],[100.053442,25.581052],[100.052593,25.580733],[100.051876,25.580997],[100.048132,25.580726],[100.047854,25.58045],[100.047894,25.578878],[100.04731,25.578613],[100.04644,25.578246],[100.0438062,25.576444],[100.0435142,25.5758748],[100.0437188,25.5753148],[100.043781,25.5752149],[100.043865,25.5750829],[100.0440027,25.5748549],[100.0440216,25.574774],[100.0440192,25.574651],[100.0439656,25.5743466],[100.0438753,25.5741027],[100.0437639,25.573929],[100.0436328,25.5737128],[100.0433139,25.57332],[100.0423101,25.5719693],[100.0414838,25.5708991],[100.0407115,25.5683541],[100.0388694,25.5662819],[100.0362955,25.5654439],[100.0335407,25.5649723],[100.030922,25.5641748],[100.0293026,25.5630114],[100.0288668,25.5624809],[100.0285098,25.5620415],[100.0285027,25.5613022],[100.0281172,25.5607046],[100.0277737,25.5602602],[100.0273411,25.5601071],[100.0267536,25.5599494],[100.0258853,25.5595279],[100.0256083,25.559179],[100.0252218,25.5582446],[100.024823,25.5578085],[100.0246009,25.5562145],[100.0243389,25.5551676],[100.0243717,25.5542736],[100.0244858,25.5532996],[100.0244993,25.5526675],[100.0243322,25.5521951],[100.0237509,25.5518434],[100.0232707,25.551437],[100.0226567,25.5510166],[100.0221012,25.5505016],[100.0216172,25.5497641],[100.0213778,25.5491964],[100.0213872,25.54818],[100.0213727,25.5469217],[100.0211731,25.5460612],[100.020752,25.5454226],[100.0202364,25.5450893],[100.0196811,25.5449384],[100.0192444,25.5446362],[100.0188649,25.5440692],[100.0182376,25.5434756],[100.0179312,25.543154],[100.0178747,25.5426928],[100.0180219,25.5422823],[100.0176822,25.5412525],[100.0165028,25.5380763],[100.0155912,25.5357613],[100.0150932,25.5346946],[100.0152277,25.534668],[100.0153942,25.5342757],[100.0160936,25.5339257],[100.01857,25.534244],[100.019792,25.535586],[100.022247,25.536181],[100.02329,25.536393],[100.025057,25.536766],[100.027464,25.536495],[100.02935,25.536107],[100.031584,25.53499],[100.032929,25.534536],[100.033768,25.533928],[100.035099,25.53383],[100.035177,25.533829],[100.035748,25.533777],[100.035777,25.53372],[100.036408,25.53085],[100.036095,25.528995],[100.036352,25.528099],[100.036352,25.526883],[100.03593,25.525978],[100.034629,25.524871],[100.032039,25.522133],[100.030989,25.519937],[100.030113,25.516994],[100.029493,25.516246],[100.028202,25.513664],[100.02663,25.511978],[100.026559,25.511122],[100.027199,25.510237],[100.028204,25.507954],[100.029713,25.506393],[100.030121,25.50551],[100.029925,25.502926],[100.028759,25.50077],[100.028624,25.49997],[100.029716,25.497723],[100.031254,25.495271],[100.031959,25.49379],[100.033756,25.491059],[100.035529,25.488516],[100.036741,25.487459],[100.039921,25.485921],[100.040953,25.486066],[100.042592,25.485799],[100.046084,25.484727],[100.048746,25.486033],[100.049588,25.486198],[100.054566,25.485474],[100.061037,25.485268],[100.062597,25.485693],[100.066781,25.485739],[100.068199,25.484396],[100.070063,25.481235],[100.071009,25.480444],[100.071875,25.479331],[100.07305,25.475077],[100.073664,25.472397],[100.073128,25.470101],[100.073231,25.469463],[100.0745,25.468438],[100.076555,25.467366],[100.077949,25.467135],[100.079444,25.46697],[100.080789,25.4658],[100.081439,25.465648],[100.083889,25.466822],[100.094071,25.471419],[100.096216,25.472619],[100.096595,25.473331],[100.0962215,25.4751989],[100.093329,25.481041],[100.09197,25.484286],[100.092103,25.486856],[100.09205,25.492091],[100.091831,25.493983],[100.091017,25.495706],[100.090945,25.497501],[100.091236,25.500801],[100.089945,25.502863],[100.089764,25.506351],[100.089224,25.50722],[100.089124,25.507815],[100.089944,25.509409],[100.089945,25.51085],[100.090299,25.512508],[100.090504,25.513906],[100.090266,25.514574],[100.088798,25.51575],[100.088214,25.516785],[100.088135,25.518018],[100.089069,25.518821],[100.091192,25.520356],[100.09206,25.520679],[100.093665,25.520692],[100.094451,25.520947],[100.095451,25.521027],[100.098965,25.519834],[100.100733,25.519975],[100.100659,25.520686],[100.100915,25.521864],[100.103362,25.52284],[100.106052,25.525819],[100.109584,25.527679],[100.110767,25.529181],[100.111978,25.530198],[100.113994,25.530416],[100.116346,25.53012],[100.116999,25.529552],[100.116978,25.528831],[100.117014,25.527641],[100.118488,25.526174],[100.120473,25.525218],[100.122517,25.525029],[100.124687,25.525449],[100.126702,25.52575],[100.128563,25.526705],[100.131417,25.527058],[100.135093,25.527817],[100.136636,25.528583],[100.138523,25.529139],[100.140495,25.528984],[100.141575,25.529111],[100.142437,25.529105],[100.143496,25.529076],[100.144412,25.5283],[100.145209,25.528031],[100.145621,25.527593],[100.145747,25.526415],[100.146338,25.525588],[100.146545,25.52463],[100.147024,25.524228],[100.148069,25.524182],[100.148166,25.524207],[100.148261,25.524237],[100.149257,25.525108],[100.150026,25.525666],[100.152307,25.525905],[100.152403,25.525931],[100.153431,25.526301],[100.153722,25.526372],[100.156254,25.526247],[100.158409,25.526419],[100.159182,25.526049],[100.160629,25.525839],[100.161396,25.52536],[100.164948,25.521857],[100.165555,25.520816],[100.166506,25.519764],[100.166569,25.519801],[100.167511,25.520537],[100.169243,25.522648],[100.171502,25.523408],[100.172329,25.523882],[100.1729,25.524278],[100.173638,25.52409],[100.176855,25.525061],[100.17833,25.52582],[100.180197,25.526525],[100.180756,25.527134],[100.181458,25.52906],[100.181412,25.53124],[100.181718,25.532674],[100.182901,25.535519],[100.182833,25.536787],[100.183388,25.537998],[100.1850561,25.5396628],[100.1862699,25.5396628],[100.18927,25.538212],[100.190931,25.537816],[100.192185,25.537091],[100.198489,25.533006],[100.199929,25.533221],[100.203427,25.533292],[100.205998,25.533192],[100.207477,25.531815],[100.209644,25.530168],[100.211273,25.529737],[100.213466,25.529899],[100.214413,25.52971],[100.214943,25.529067],[100.217146,25.526037],[100.218482,25.524365],[100.221496,25.520538],[100.223209,25.519275],[100.224548,25.518007],[100.224502,25.517101],[100.224597,25.515474],[100.225596,25.51473],[100.227547,25.513267],[100.22844,25.510966],[100.229185,25.50993],[100.229699,25.509732],[100.230322,25.509409],[100.231877,25.506091],[100.232545,25.505494],[100.233844,25.504794],[100.23493,25.503802],[100.234904,25.502367],[100.235244,25.50063],[100.236454,25.499309],[100.240418,25.497165],[100.242487,25.496379],[100.244891,25.495772],[100.245885,25.494744],[100.246739,25.493373],[100.249355,25.491441],[100.249821,25.491346],[100.252493,25.491816],[100.254984,25.493407],[100.256381,25.493723],[100.257832,25.494296],[100.258586,25.494898],[100.258853,25.495927],[100.259167,25.49644],[100.260153,25.496946],[100.262852,25.49994],[100.266927,25.502451],[100.26857,25.50394],[100.269411,25.507228],[100.273563,25.511957],[100.275001,25.513186],[100.275885,25.51336],[100.276884,25.512912],[100.278681,25.512917],[100.27973,25.5128],[100.2802003,25.5121971],[100.280406,25.511573],[100.281086,25.51063],[100.282701,25.509443],[100.282849,25.508579],[100.283645,25.507951],[100.285208,25.507888],[100.286165,25.507537],[100.286598,25.506639],[100.286963,25.505527],[100.287339,25.504078],[100.288269,25.502548],[100.288902,25.502189],[100.290994,25.502041],[100.29319,25.50284],[100.294439,25.502695],[100.295512,25.502096],[100.297587,25.501649],[100.299045,25.500533],[100.300276,25.500313],[100.304584,25.500799],[100.307194,25.501444],[100.309656,25.501652],[100.31241,25.500095],[100.312804,25.498938],[100.312968,25.497316],[100.311296,25.494922],[100.310734,25.491239],[100.311025,25.49045],[100.312286,25.489259],[100.31219,25.488226],[100.312998,25.487092],[100.314007,25.485471],[100.314664,25.484586],[100.315056,25.48449],[100.316253,25.484666],[100.316841,25.484584],[100.316888,25.48412],[100.315738,25.482633],[100.314904,25.482015],[100.313208,25.480586],[100.313253,25.480019],[100.314463,25.479108],[100.314976,25.478398],[100.315437,25.47605],[100.316057,25.475028],[100.316991,25.474532],[100.317234,25.474173],[100.317239,25.473016],[100.317534,25.471865],[100.31888,25.470822],[100.319039,25.469757],[100.319294,25.469647],[100.320825,25.469836],[100.323487,25.470932],[100.323817,25.470588],[100.32424,25.469304],[100.323455,25.468037],[100.323173,25.466541],[100.322816,25.466016],[100.322454,25.464971],[100.322418,25.464064],[100.322688,25.463728],[100.323029,25.463585],[100.32856,25.463012],[100.329413,25.462709],[100.330441,25.461747],[100.331427,25.459205],[100.332355,25.457585],[100.332679,25.457474],[100.334094,25.457547],[100.335015,25.456176],[100.336087,25.455392],[100.337151,25.455561],[100.34253,25.45877],[100.343147,25.458934],[100.343786,25.45875],[100.344199,25.458134],[100.34379,25.456495],[100.343599,25.454741],[100.343723,25.454725],[100.343815,25.454706],[100.346277,25.454193],[100.345156,25.451983],[100.345317,25.450507],[100.345372,25.448625],[100.345185,25.448407],[100.344536,25.446119],[100.343792,25.445289],[100.342986,25.445057],[100.342098,25.445205],[100.340932,25.445951],[100.340785,25.445851],[100.340879,25.444944],[100.340301,25.443761],[100.340431,25.443053],[100.341324,25.441655],[100.340598,25.439415],[100.339594,25.436059],[100.339923,25.4356288],[100.342553,25.433682],[100.343556,25.433473],[100.34563,25.434115],[100.349567,25.435494],[100.350448,25.435052],[100.352575,25.432597],[100.352789,25.431309],[100.352659,25.430861],[100.352116,25.430422],[100.352158,25.428947],[100.351737,25.427298],[100.351815,25.425857],[100.352458,25.425025],[100.352964,25.424616],[100.354405,25.424172],[100.354969,25.424144],[100.356752,25.424734],[100.359612,25.426499],[100.36238,25.427181],[100.366426,25.428116],[100.367163,25.428162],[100.371616,25.426988],[100.374277,25.427007],[100.375858,25.427468],[100.378137,25.429016],[100.379038,25.430092],[100.379299,25.430032],[100.379689,25.429211],[100.381665,25.427794],[100.383881,25.425868],[100.385531,25.425115],[100.386785,25.42485],[100.386989,25.425336],[100.385825,25.426899],[100.384839,25.428843],[100.383545,25.430703],[100.381935,25.432059],[100.381645,25.432978],[100.381902,25.433402],[100.382472,25.433462],[100.384716,25.433107],[100.385061,25.43328],[100.384731,25.433741],[100.383091,25.434819],[100.383056,25.435458],[100.383725,25.43598],[100.383493,25.436611],[100.382591,25.437645],[100.382757,25.438668],[100.384288,25.439115],[100.385364,25.438422],[100.385764,25.438599],[100.386138,25.440283],[100.388039,25.440724],[100.388195,25.441137],[100.388181,25.442803],[100.388498,25.443607],[100.389032,25.444115],[100.390096,25.445369],[100.391299,25.446191],[100.391496,25.447784],[100.391747,25.448274],[100.391517,25.448609],[100.39039,25.449317],[100.390794,25.451204],[100.39078,25.452177],[100.391627,25.453885],[100.39166,25.455306],[100.391659,25.456327],[100.392493,25.458024],[100.39255,25.460602],[100.392908,25.46103],[100.393629,25.460586],[100.394258,25.460657],[100.394614,25.461447],[100.394447,25.462992],[100.39479,25.463125],[100.396857,25.462186],[100.397404,25.462291],[100.397588,25.462638],[100.397313,25.467019],[100.396183,25.469204],[100.394889,25.471237],[100.395572,25.471689],[100.396443,25.472863],[100.396771,25.474199],[100.3963,25.479918],[100.397053,25.48119],[100.397308,25.482498],[100.397329,25.483293],[100.398072,25.485735],[100.397222,25.487889],[100.39739,25.488951],[100.39918,25.490263],[100.399947,25.49073],[100.400097,25.491244],[100.399876,25.491804],[100.400379,25.492246],[100.401356,25.492596],[100.402858,25.492722],[100.403937,25.493147],[100.405099,25.494348],[100.405398,25.495621],[100.40585,25.497633],[100.40711,25.497924],[100.408146,25.497286],[100.4088,25.497594],[100.408972,25.498497],[100.408653,25.499385],[100.408312,25.500081],[100.407901,25.50125],[100.407429,25.502163],[100.407583,25.503207],[100.407933,25.503631],[100.409108,25.503813],[100.410263,25.504518],[100.41182,25.506282],[100.41197,25.506964],[100.411831,25.507745],[100.413219,25.509527],[100.41577,25.511032],[100.417859,25.513169],[100.417973,25.51493],[100.418594,25.51749],[100.420081,25.519493],[100.421353,25.521789],[100.423193,25.525328],[100.423595,25.526996],[100.423135,25.528556],[100.423982,25.529142],[100.424829,25.530776],[100.424853,25.531666],[100.424204,25.532441],[100.423625,25.532948],[100.423678,25.533474],[100.424202,25.5347393],[100.4247454,25.5358119],[100.427544,25.538986],[100.429379,25.541217],[100.430182,25.541831],[100.431658,25.542522],[100.432288,25.543322],[100.433226,25.546019],[100.43387,25.548407],[100.435399,25.55067],[100.43644,25.552759],[100.436219,25.553679],[100.435354,25.555645],[100.43513,25.55742],[100.433784,25.557641],[100.43289,25.558306],[100.432352,25.558783],[100.428704,25.559559],[100.428247,25.560389],[100.427258,25.563096],[100.426389,25.568323],[100.424877,25.570795],[100.423876,25.570699],[100.423159,25.571149],[100.421407,25.573539],[100.419563,25.575061],[100.417915,25.577503],[100.417195,25.578496],[100.416472,25.578809],[100.414797,25.579068],[100.414059,25.579548],[100.413533,25.5804],[100.412452,25.581125],[100.412576,25.584262],[100.413637,25.585245],[100.415867,25.586952],[100.41646,25.587861],[100.416683,25.589147],[100.417189,25.58951],[100.417931,25.588835],[100.418833,25.58809],[100.420156,25.588728],[100.424275,25.586743],[100.426345,25.585866],[100.427376,25.586045],[100.428379,25.58675],[100.429189,25.587461],[100.431135,25.587861],[100.433738,25.589346],[100.433356,25.591119],[100.433018,25.591815],[100.431682,25.593268],[100.430203,25.595947],[100.429308,25.597808],[100.42727,25.599484],[100.425458,25.600336],[100.425619,25.601478],[100.42498,25.603029],[100.42443,25.604341],[100.424596,25.604794],[100.42456,25.605966],[100.42504,25.606994],[100.425157,25.60782],[100.424844,25.609033],[100.423508,25.610699],[100.423157,25.611754],[100.422339,25.614212],[100.422022,25.617228],[100.419575,25.619082],[100.416312,25.622987],[100.411788,25.628315],[100.411398,25.629609],[100.411004,25.633113],[100.410288,25.634874],[100.406887,25.639787],[100.40494,25.641594],[100.401934,25.643532],[100.400579,25.644993],[100.400209,25.646519],[100.3985591,25.6483643],[100.396653,25.6492034],[100.395486,25.648739],[100.39394,25.647946],[100.392789,25.646779],[100.392519,25.646766],[100.390248,25.648088],[100.387501,25.648906],[100.387137,25.64959],[100.386781,25.652105],[100.386162,25.655792],[100.384706,25.657217],[100.382249,25.658456],[100.38137,25.659212],[100.380554,25.660521],[100.380606,25.662201],[100.381166,25.663445],[100.381001,25.663674],[100.379997,25.666368],[100.378811,25.66796],[100.378211,25.668151],[100.3775847,25.668712],[100.3769858,25.6702877],[100.376537,25.671191],[100.374325,25.672265],[100.373924,25.673915],[100.372788,25.674944],[100.371606,25.676335],[100.370349,25.677175],[100.372002,25.678238],[100.372842,25.678578],[100.373266,25.67845],[100.375283,25.67735],[100.376628,25.677349],[100.376773,25.678081],[100.376326,25.678533],[100.375719,25.679459],[100.37658,25.680345],[100.376353,25.680932],[100.376504,25.682124],[100.375988,25.681347],[100.375511,25.681052],[100.374978,25.681101],[100.374399,25.681494],[100.374188,25.682378],[100.373815,25.683586],[100.37381,25.684185],[100.374517,25.684857],[100.373351,25.685468],[100.371483,25.687198],[100.369998,25.689547],[100.369882,25.690721],[100.369673,25.692463],[100.369038,25.693887],[100.368191,25.694523],[100.366973,25.694946],[100.363489,25.694895],[100.361706,25.695383],[100.359657,25.695034],[100.35526,25.695172],[100.351483,25.694765],[100.350822,25.694421],[100.348545,25.692307],[100.348026,25.692006],[100.346378,25.693453],[100.345308,25.69416],[100.344209,25.694275],[100.343325,25.69479],[100.341894,25.695526],[100.341625,25.695864],[100.341907,25.696756],[100.341551,25.697335],[100.341405,25.698792],[100.340824,25.700325],[100.340697,25.701261],[100.340411,25.702215],[100.340313,25.703531],[100.340113,25.704434],[100.340445,25.705097],[100.34034,25.706375],[100.339782,25.707812],[100.338819,25.708671],[100.338778,25.709579],[100.339095,25.710528],[100.339485,25.712005],[100.336406,25.711355],[100.333551,25.710403],[100.32981,25.709534],[100.328456,25.713989],[100.325983,25.714753],[100.325969,25.723731],[100.325082,25.724593],[100.322859,25.725698],[100.320109,25.726277],[100.319162,25.728112],[100.318309,25.729372],[100.316644,25.730544],[100.316464,25.73098],[100.316418,25.73196],[100.317011,25.732936],[100.317957,25.73368],[100.31916,25.735084],[100.319779,25.73695],[100.320421,25.737953],[100.316557,25.74156],[100.314294,25.742994],[100.314041,25.74416],[100.313002,25.745305],[100.312421,25.746156],[100.310819,25.746915],[100.309624,25.748986],[100.309394,25.749963],[100.308287,25.752232],[100.306699,25.753692],[100.305369,25.755806],[100.305118,25.755909],[100.30376,25.755061],[100.301276,25.75379],[100.299866,25.751993],[100.298789,25.750952],[100.298205,25.75074],[100.297315,25.750697],[100.29601,25.750246],[100.295639,25.749892],[100.294636,25.74955],[100.293602,25.749759],[100.292811,25.750462],[100.292246,25.751731],[100.291686,25.754947],[100.291727,25.75813],[100.291457,25.758953],[100.29167,25.762113],[100.28955,25.764891],[100.290308,25.767123],[100.290499,25.770265],[100.290984,25.772218],[100.290896,25.773214],[100.290242,25.774702],[100.289626,25.77694],[100.287691,25.783266],[100.288313,25.784922],[100.289321,25.787797],[100.289011,25.789401],[100.288351,25.790337],[100.288256,25.79144],[100.288725,25.79302],[100.289934,25.795644],[100.292078,25.797055],[100.292375,25.797913],[100.292095,25.798825],[100.290395,25.800869],[100.2889602,25.8024828],[100.289059,25.803626],[100.289494,25.806067],[100.289696,25.807689],[100.290185,25.808606],[100.291446,25.809969],[100.292336,25.811045],[100.292093,25.811248],[100.290892,25.813142],[100.288706,25.814832],[100.288482,25.816239],[100.288458,25.817394],[100.288958,25.818183],[100.289945,25.820843],[100.290347,25.821128],[100.292949,25.821873],[100.295095,25.822973],[100.296138,25.822979],[100.297265,25.823406],[100.298156,25.824119],[100.298717,25.824374],[100.303724,25.824532],[100.304663,25.823971],[100.30572,25.824099],[100.306845,25.824877],[100.308418,25.825309],[100.309164,25.824853],[100.309441,25.824272],[100.310335,25.823292],[100.311163,25.823013],[100.312286,25.822788],[100.313323,25.822529],[100.314682,25.82069],[100.316767,25.818844],[100.317872,25.819847],[100.3186,25.820091],[100.319918,25.820826],[100.32161,25.82236],[100.323034,25.824252],[100.324252,25.825718],[100.322689,25.826854],[100.32152,25.828675],[100.32059,25.829794],[100.319634,25.830147],[100.319111,25.830679],[100.318798,25.833313],[100.317852,25.836231],[100.317247,25.838292],[100.316536,25.84002],[100.315978,25.840111],[100.313685,25.839593],[100.311146,25.839371],[100.308961,25.838557],[100.306561,25.838228],[100.304591,25.837497],[100.30255,25.838209],[100.301922,25.838661],[100.301277,25.839491],[100.296681,25.84389],[100.29549,25.844341],[100.295006,25.844786],[100.29481,25.846578],[100.294251,25.848493],[100.294873,25.850284],[100.295866,25.851953],[100.296108,25.853947],[100.295883,25.854657],[100.295572,25.85877],[100.294208,25.857915],[100.292802,25.857547],[100.290571,25.857757],[100.288846,25.858926],[100.28546,25.862158],[100.2838,25.863119],[100.282024,25.864632],[100.279331,25.865955],[100.277933,25.867614],[100.277877,25.868128],[100.278119,25.869477],[100.280626,25.878568],[100.281372,25.880143],[100.281774,25.880395],[100.284148,25.880258],[100.286717,25.880417],[100.287799,25.881055],[100.288588,25.881837],[100.289654,25.882501],[100.292339,25.884136],[100.297529,25.885833],[100.298388,25.8865],[100.29891,25.887789],[100.299076,25.891109],[100.298897,25.893687],[100.298615,25.894297],[100.297723,25.897838],[100.2976,25.898632],[100.300704,25.899187],[100.306089,25.901319],[100.307617,25.903161],[100.307811,25.906398],[100.308267,25.907629],[100.308894,25.908054],[100.30901,25.908552],[100.309324,25.908855],[100.311255,25.909641],[100.312507,25.910397],[100.31294,25.911416],[100.312533,25.913373],[100.312126,25.914007],[100.311919,25.914696],[100.31251,25.916918],[100.312171,25.918724],[100.31266,25.919957],[100.313166,25.921576],[100.313341,25.923112],[100.313769,25.92448],[100.31474,25.925631],[100.314913,25.926299],[100.316071,25.928751],[100.31686,25.930974],[100.316666,25.933632],[100.315945,25.936112],[100.316978,25.937131],[100.317037,25.938132],[100.317082,25.943887],[100.317624,25.945422],[100.318107,25.946025],[100.319688,25.947225],[100.320414,25.94795],[100.320256,25.950553],[100.319596,25.951986],[100.31847,25.953773],[100.317567,25.954523],[100.314919,25.956174],[100.313502,25.957219],[100.312118,25.95817],[100.311814,25.958758],[100.311882,25.960351],[100.311531,25.961033],[100.3104517,25.961842],[100.310544,25.962122],[100.311558,25.963266],[100.314009,25.964718],[100.314644,25.965744],[100.315437,25.968847],[100.315989,25.968987],[100.317679,25.968618],[100.321034,25.968639],[100.32271,25.968215],[100.323506,25.968196],[100.324492,25.967946],[100.326406,25.967837],[100.329405,25.967602],[100.331874,25.967632],[100.335551,25.967406],[100.336219,25.967562],[100.340069,25.96796],[100.341193,25.968633],[100.342187,25.969916],[100.344727,25.972616],[100.34635,25.975034],[100.346436,25.975614],[100.346821,25.976984],[100.3475,25.977466],[100.348567,25.977951],[100.3512581,25.9777161],[100.349982,25.979239],[100.349533,25.980628],[100.348093,25.982543],[100.347426,25.984185],[100.346166,25.986289],[100.345256,25.989912],[100.343721,25.991615],[100.343158,25.993186],[100.342801,25.995508],[100.342142,25.99666],[100.340768,25.998601],[100.340171,25.999985],[100.340121,26.00214],[100.338364,26.004789],[100.338312,26.005742],[100.337993,26.006522],[100.336712,26.008384],[100.335945,26.010199],[100.335874,26.010849],[100.336542,26.014464],[100.335945,26.016121],[100.335308,26.017045],[100.333035,26.019366],[100.332608,26.020189],[100.332343,26.022252],[100.332444,26.0242],[100.333488,26.026196],[100.334764,26.029278],[100.33526,26.032237],[100.335062,26.032607],[100.332685,26.033995],[100.329703,26.035545],[100.325241,26.037334],[100.320921,26.03859],[100.320046,26.03915],[100.318211,26.040868],[100.317806,26.040914],[100.317569,26.040009],[100.317262,26.039834],[100.316,26.040058],[100.315043,26.038932],[100.313659,26.039427],[100.313792,26.040043],[100.313466,26.040904],[100.312635,26.04121],[100.311474,26.041348],[100.310075,26.041233],[100.306794,26.040635],[100.305401,26.040021],[100.297653,26.037388],[100.295495,26.03693],[100.294393,26.036368],[100.291514,26.034358],[100.285096,26.0315],[100.284902,26.029985],[100.283104,26.02853],[100.281087,26.027814],[100.280226,26.027754],[100.27914,26.027971],[100.277493,26.02857],[100.27423,26.027803],[100.271237,26.027852],[100.27047,26.027479],[100.268659,26.027123],[100.264655,26.025696],[100.26399,26.025731],[100.261449,26.026366],[100.25958,26.026563],[100.257074,26.026277],[100.254886,26.026787],[100.252861,26.02625],[100.248498,26.026318],[100.247025,26.027002],[100.245261,26.027286],[100.244737,26.027108],[100.244256,26.026705],[100.243064,26.025145],[100.242701,26.024976],[100.241414,26.024871],[100.23855,26.024226],[100.234207,26.024401],[100.232689,26.024147],[100.231271,26.023553],[100.2298,26.023341],[100.229137,26.023069],[100.226797,26.021414],[100.224473,26.020942],[100.220301,26.02049],[100.217707,26.020448],[100.214486,26.020032],[100.211271,26.020883],[100.2101786,26.0208932],[100.208327,26.020657],[100.206416,26.020606],[100.203444,26.021205],[100.202908,26.021543],[100.202631,26.021973],[100.202624,26.022432],[100.203231,26.02336],[100.205085,26.026719],[100.205632,26.028232],[100.205528,26.031915],[100.206302,26.034616],[100.206308,26.036298],[100.206647,26.037497],[100.207045,26.039925],[100.206606,26.040663],[100.192853,26.049349],[100.192642,26.050457],[100.191918,26.051823],[100.190139,26.05478],[100.18959,26.056477],[100.189596,26.061907],[100.189339,26.06253],[100.187908,26.06438],[100.186111,26.065868],[100.184366,26.068097],[100.180708,26.070605],[100.180252,26.071199],[100.179332,26.072763],[100.1787829,26.0745332],[100.1789918,26.0752484],[100.17765,26.076294],[100.176985,26.076444],[100.174727,26.075748],[100.174132,26.076001],[100.172019,26.077888],[100.171255,26.078255],[100.170393,26.078288],[100.169099,26.077009],[100.167423,26.076229],[100.165901,26.076093],[100.163857,26.075698],[100.163084,26.075116],[100.162326,26.0742],[100.161819,26.073889],[100.160593,26.073703],[100.159379,26.074018],[100.155939,26.073564],[100.15211,26.071849],[100.151422,26.07128],[100.150192,26.068331],[100.149832,26.066762],[100.149463,26.063909],[100.148692,26.059383],[100.14716,26.054757],[100.145595,26.051439],[100.145402,26.05027],[100.145489,26.049809],[100.146436,26.049288],[100.147283,26.049075],[100.147552,26.048816],[100.148878,26.047327],[100.14911,26.046702],[100.149734,26.046053],[100.150606,26.04581],[100.150517,26.04475],[100.150323,26.044561],[100.149679,26.044447],[100.148599,26.043855],[100.147449,26.042677],[100.146884,26.041036],[100.146624,26.039276],[100.146641,26.038314],[100.146426,26.037306],[100.145883,26.036341],[100.144623,26.035383],[100.143567,26.03489],[100.139176,26.032058],[100.136602,26.030898],[100.136062,26.030483],[100.135737,26.029826],[100.1352686,26.0286163],[100.135766,26.026946],[100.135969,26.026228],[100.138723,26.022941],[100.138884,26.02226],[100.139235,26.021749],[100.140098,26.021432],[100.141662,26.021374],[100.14349,26.022536],[100.146627,26.023952],[100.147795,26.024727],[100.149349,26.026243],[100.150033,26.026286],[100.150443,26.026057],[100.15148,26.02429],[100.152127,26.021545],[100.152668,26.020417],[100.152883,26.019519],[100.152356,26.017474],[100.152415,26.013966],[100.151882,26.013376],[100.149312,26.011726],[100.149162,26.011157],[100.149245,26.009623],[100.148943,26.008794],[100.148246,26.008381],[100.147339,26.008355],[100.144418,26.006902],[100.141566,26.004821],[100.140476,26.004226],[100.135088,26.002259],[100.130442,26.001891],[100.128203,26.001603],[100.125716,26.000086],[100.123451,25.99898],[100.119262,25.998678],[100.114567,25.999025],[100.112608,25.998614],[100.111593,25.998081],[100.111583,25.997679],[100.113136,25.995567],[100.113191,25.995195],[100.112883,25.994864],[100.108715,25.993236],[100.107244,25.992265],[100.106684,25.992169],[100.106395,25.992702],[100.106365,25.99355],[100.10608,25.993845],[100.105616,25.993959],[100.103116,25.993231],[100.101869,25.992592],[100.09998,25.990815],[100.099767,25.989562],[100.099913,25.987569],[100.09975,25.982016],[100.101601,25.979858],[100.101863,25.978536],[100.103063,25.974013],[100.103094,25.971251],[100.10336,25.969167],[100.103454,25.967159],[100.103105,25.967135],[100.092149,25.967393],[100.092319,25.967051],[100.093457,25.966001],[100.093779,25.965406],[100.093818,25.964988],[100.089301,25.965162],[100.087623,25.965786],[100.086049,25.966008],[100.084099,25.965942],[100.082625,25.966105],[100.079154,25.967248],[100.077596,25.96747],[100.076724,25.967206],[100.076802,25.966279],[100.078715,25.96422],[100.08335,25.958945],[100.083664,25.957751],[100.083313,25.956789],[100.081653,25.954825],[100.079535,25.953709],[100.076318,25.953224],[100.067864,25.952425],[100.064512,25.952426],[100.062278,25.952696],[100.061091,25.95259],[100.05874,25.951781],[100.056249,25.950416],[100.050422,25.946583],[100.048439,25.94554],[100.041015,25.942613],[100.0408428,25.9424241],[100.040658,25.942189],[100.040715,25.941636],[100.041229,25.941448],[100.042204,25.941387],[100.044562,25.941627],[100.04545,25.940726],[100.045445,25.939858],[100.0453472,25.9393221],[100.04498,25.937712],[100.04433,25.935713],[100.043888,25.933089],[100.044041,25.931549],[100.044387,25.930402],[100.04522,25.929613],[100.0465232,25.9290591],[100.046027,25.928802],[100.045292,25.927754],[100.044754,25.927488],[100.042756,25.927532],[100.040831,25.926145],[100.039049,25.925803],[100.036572,25.925816],[100.035297,25.926524],[100.032891,25.926868],[100.031704,25.927785],[100.030606,25.927995],[100.028112,25.927205],[100.027574,25.927357],[100.027398,25.929146],[100.026937,25.929193],[100.026737,25.929395],[100.026493,25.93114],[100.026162,25.93177],[100.025608,25.932132],[100.024004,25.932492],[100.021355,25.932093],[100.020422,25.932187],[100.01944,25.932072],[100.018151,25.931026],[100.012663,25.929713],[100.010834,25.929794],[100.010234,25.929484],[100.009634,25.927894],[100.008069,25.92603],[100.007254,25.925269],[100.00471,25.923865],[100.003393,25.922967],[100.003065,25.921689],[100.00309,25.918839],[100.002443,25.917432],[100.001413,25.916331],[100.000124,25.915386],[99.999979,25.915321],[99.999274,25.912645],[99.99942,25.911312],[100.000729,25.909385],[100.001206,25.908055],[100.001533,25.90547],[100.002667,25.903924],[100.003785,25.900838],[100.00485,25.899495],[100.005024,25.898904],[100.004275,25.897675],[100.003894,25.893942],[100.003583,25.89334],[100.002891,25.892837],[100.001571,25.892982],[100.001096,25.892531],[100.0004,25.889539],[99.999884,25.888534],[99.9994313,25.888091],[99.99702,25.882267],[99.996623,25.880786],[99.997151,25.878902],[99.997181,25.877997],[99.996748,25.877371],[99.995062,25.876981],[99.993181,25.876118],[99.992381,25.874875],[99.991475,25.874829],[99.990402,25.874395],[99.987094,25.873713],[99.98568,25.872934],[99.981977,25.871549],[99.9791768,25.8701169],[99.9784346,25.8690773]]]}}]}
