{"type":"FeatureCollection","features":[{"type":"Feature","properties":{"place_id":225823132,"osm_type":"relation","osm_id":3242930,"place_rank":10,"category":"boundary","type":"administrative","importance":0.6151795462496451,"addresstype":"city","name":"厦门市","display_name":"厦门市, 福建省, 中国"},"bbox":[117.882185,24.3822222,118.4494442,24.9072638],"geometry":{"type":"Polygon","coordinates":[[[117.882185,24.5933146],[117.8828931,24.5921244],[117.8841124,24.5910025],[117.8876272,24.5903636],[117.8931433,24.5858609],[117.8937871,24.5841114],[117.9002527,24.5783664],[117.9054451,24.578134],[117.9066353,24.5761204],[117.9069891,24.5755218],[117.9091011,24.5702947],[117.9070825,24.5691009],[117.9050975,24.567191],[117.9050734,24.5664762],[117.9059293,24.565932],[117.9051652,24.5628548],[117.9048776,24.5626076],[117.90485,24.5623228],[117.9044463,24.5624667],[117.9044057,24.5623723],[117.9046244,24.5623132],[117.9046503,24.5618347],[117.9048504,24.561852],[117.9043742,24.5610982],[117.9038045,24.5607381],[117.9038396,24.5605854],[117.9033939,24.5600009],[117.9033718,24.5596961],[117.9030039,24.5591519],[117.9025847,24.5590624],[117.9015742,24.5583566],[117.9017173,24.5581284],[117.9020472,24.5584869],[117.902765,24.5583328],[117.9030165,24.5580301],[117.9031924,24.5582096],[117.9031209,24.5578103],[117.9038971,24.5579257],[117.9035812,24.5570539],[117.9025459,24.5572668],[117.9026121,24.556808],[117.9028837,24.5567177],[117.9029996,24.5562398],[117.9028242,24.5561641],[117.9029375,24.55565],[117.9034638,24.5559446],[117.9039775,24.5560695],[117.9041938,24.5547416],[117.9044379,24.5550003],[117.904499,24.554879],[117.9047906,24.554956],[117.9052143,24.5545459],[117.9051139,24.5543296],[117.9064113,24.5540495],[117.9063041,24.5534483],[117.9063698,24.5526925],[117.9058157,24.5528092],[117.9054548,24.5531524],[117.9051749,24.553019],[117.9053675,24.5525758],[117.905942,24.5526502],[117.9062841,24.5525344],[117.9063303,24.551969],[117.9064697,24.5519525],[117.9065356,24.5517908],[117.9066638,24.55074],[117.9064214,24.5507108],[117.9065534,24.5501121],[117.9067547,24.5501311],[117.9068669,24.549594],[117.9065481,24.5493731],[117.9065571,24.5489005],[117.9067829,24.5489204],[117.9068308,24.5487246],[117.9066921,24.5487037],[117.9067542,24.5481542],[117.9069251,24.5481407],[117.9069925,24.5480157],[117.9071252,24.5480636],[117.9073534,24.5478094],[117.9065561,24.5475367],[117.9056317,24.5475149],[117.9053724,24.5473612],[117.9052245,24.5466683],[117.9054239,24.5465481],[117.9054458,24.5463897],[117.9056112,24.5464103],[117.9056068,24.5465663],[117.9057771,24.546652],[117.9057644,24.5464103],[117.906219,24.5461998],[117.9064582,24.5459174],[117.9063212,24.5457173],[117.9063816,24.5454332],[117.9067045,24.5454384],[117.9067151,24.545326],[117.9074385,24.5453301],[117.9071154,24.543511],[117.9072334,24.5429417],[117.9073899,24.5428446],[117.9072832,24.5427017],[117.9077074,24.5406552],[117.9069503,24.5408143],[117.9068174,24.5392467],[117.9076623,24.5390848],[117.90792,24.5387571],[117.908502,24.538381],[117.9084837,24.5381551],[117.9087721,24.5377497],[117.9089959,24.537877],[117.9095606,24.5372315],[117.9105433,24.5378895],[117.9118421,24.5381499],[117.9121896,24.5373816],[117.9115808,24.5370445],[117.9118408,24.5358601],[117.9121361,24.535932],[117.9122123,24.5355787],[117.9125176,24.5356099],[117.9128317,24.5346533],[117.9146355,24.5349968],[117.9154784,24.534892],[117.9155378,24.5350019],[117.9156827,24.5349865],[117.9156646,24.5347844],[117.9161853,24.5347667],[117.916055,24.5353252],[117.9165392,24.5354793],[117.9176605,24.5352884],[117.9190792,24.5355202],[117.9198026,24.5344213],[117.9199773,24.5345271],[117.9201769,24.5341802],[117.9203205,24.5343285],[117.9208002,24.5340802],[117.9209467,24.5342595],[117.921416,24.5340572],[117.9215783,24.5342418],[117.9216379,24.5341433],[117.9220455,24.5344296],[117.9225064,24.5338065],[117.9227012,24.5336142],[117.9228421,24.5337229],[117.9233309,24.5331018],[117.9247648,24.5339269],[117.9248944,24.5334306],[117.9252343,24.5328847],[117.925205,24.5327282],[117.9254577,24.5324738],[117.925402,24.5329891],[117.92562,24.5332275],[117.9261037,24.5333227],[117.9264032,24.5331131],[117.9263311,24.5330656],[117.9263319,24.5329043],[117.9265093,24.5327679],[117.926354,24.5326851],[117.9265419,24.5326202],[117.9264132,24.5325263],[117.9266602,24.5323749],[117.9263411,24.5321439],[117.9265831,24.5318906],[117.9267314,24.5318073],[117.9269021,24.531782],[117.927129,24.5316944],[117.9274207,24.5316389],[117.9274586,24.5316108],[117.927493,24.5315449],[117.9274848,24.5313876],[117.9274407,24.5313478],[117.9273184,24.5311848],[117.9272661,24.5310434],[117.9271651,24.5309372],[117.9271581,24.5308648],[117.927413,24.5307616],[117.927473,24.5307139],[117.9274791,24.5303261],[117.9274382,24.5302323],[117.9274048,24.5301011],[117.9273678,24.5299997],[117.9275571,24.529666],[117.9278949,24.5293313],[117.9280737,24.5291469],[117.928372,24.5291055],[117.9285083,24.5291392],[117.928547,24.5291245],[117.9286546,24.5290652],[117.9288236,24.5289393],[117.928945,24.5288684],[117.9290224,24.5288444],[117.9290662,24.5287615],[117.9292666,24.528562],[117.9294718,24.5285089],[117.9298954,24.5284177],[117.9302549,24.5285625],[117.9303512,24.5286428],[117.9305273,24.528711],[117.9304387,24.5285447],[117.9303203,24.5283096],[117.9299974,24.5281076],[117.9294636,24.5280803],[117.9293706,24.5279247],[117.9293615,24.5277137],[117.92925,24.5276639],[117.9290523,24.5273469],[117.9296782,24.5270408],[117.9297536,24.5266901],[117.9301177,24.526629],[117.9300524,24.5263284],[117.9311254,24.5256545],[117.9315509,24.5256052],[117.9318556,24.5251281],[117.9323005,24.5249417],[117.9323393,24.524771],[117.9324863,24.5246986],[117.9325289,24.5235078],[117.9324392,24.5222199],[117.9321913,24.5215828],[117.9317983,24.5208717],[117.931493,24.5204954],[117.9313309,24.5201126],[117.9311449,24.5196189],[117.9310821,24.5194523],[117.9318753,24.5191438],[117.9320703,24.5188873],[117.9325027,24.5183753],[117.9329566,24.5180801],[117.9333417,24.5179849],[117.9337538,24.5180188],[117.9333109,24.5176257],[117.9333017,24.5172338],[117.9335101,24.5160044],[117.9335942,24.5158539],[117.9338884,24.5158048],[117.9347474,24.5155457],[117.9363564,24.515064],[117.9373217,24.5147948],[117.9383096,24.5146078],[117.9390229,24.5146978],[117.9392975,24.5149013],[117.9396065,24.5149623],[117.9399947,24.5149409],[117.9411732,24.5143585],[117.9419063,24.5142237],[117.9424698,24.5142329],[117.9430757,24.5142274],[117.9433866,24.5142718],[117.9436909,24.5143136],[117.9440313,24.5143055],[117.9442368,24.5142504],[117.9443598,24.5141033],[117.9444409,24.5139299],[117.9443865,24.5136813],[117.9442789,24.5134008],[117.9441666,24.5130977],[117.9439963,24.5121265],[117.9439195,24.5115164],[117.9438019,24.5112055],[117.9437157,24.5110517],[117.9436851,24.5109247],[117.9437218,24.5108398],[117.9438042,24.5107383],[117.9440227,24.5105205],[117.9442832,24.5103612],[117.9446056,24.5100735],[117.9447568,24.509777],[117.9448927,24.5094496],[117.9449723,24.5091698],[117.9449376,24.5088914],[117.9447593,24.5086434],[117.9445841,24.5084287],[117.9444088,24.508286],[117.9443309,24.5080988],[117.9444889,24.507793],[117.9446447,24.5075495],[117.9449471,24.5074323],[117.9452355,24.507486],[117.9456087,24.5077373],[117.9459481,24.5077976],[117.9462696,24.5076831],[117.9465684,24.5075172],[117.9465831,24.5070737],[117.9467374,24.5068313],[117.9470726,24.5066713],[117.9473566,24.5067117],[117.9477763,24.5068447],[117.9481408,24.5068329],[117.9491698,24.5065401],[117.9495986,24.5061235],[117.9499041,24.5057106],[117.9506863,24.5045374],[117.951062,24.50414],[117.9511065,24.5039678],[117.9512483,24.5037585],[117.9513427,24.5037144],[117.9516318,24.50367],[117.9520508,24.5036989],[117.9524422,24.5036921],[117.9527109,24.5036354],[117.9529039,24.5036648],[117.9530243,24.5037744],[117.9532636,24.5038806],[117.9535283,24.5038457],[117.9537085,24.5037082],[117.9538676,24.5035056],[117.9541755,24.5033398],[117.9545366,24.5034189],[117.9549303,24.503339],[117.9555862,24.5032291],[117.9559707,24.5029855],[117.9560155,24.5027119],[117.9559453,24.5025438],[117.9556233,24.5019817],[117.9549563,24.5009817],[117.9548029,24.500653],[117.9547356,24.5004016],[117.9547022,24.5001604],[117.9551781,24.499493],[117.9571952,24.4977895],[117.9584115,24.4973555],[117.9579973,24.4953799],[117.958323,24.4945613],[117.9589295,24.4935738],[117.9597902,24.4930084],[117.9603728,24.4926499],[117.9607306,24.4922102],[117.9600809,24.4909941],[117.959547,24.4906465],[117.9584686,24.4904132],[117.9577795,24.4897909],[117.9579642,24.489012],[117.9581294,24.4883843],[117.9581413,24.4876197],[117.9582654,24.4872312],[117.9579556,24.4869472],[117.9581232,24.4863427],[117.9580519,24.4860017],[117.957802,24.4857536],[117.9573936,24.4854724],[117.9570989,24.4853028],[117.9570795,24.4850687],[117.9571212,24.4847856],[117.9571587,24.4845212],[117.9571789,24.4841208],[117.9571059,24.4836896],[117.9572223,24.483289],[117.9572787,24.4830325],[117.9570924,24.4829269],[117.9574085,24.482292],[117.9570634,24.4821369],[117.9570034,24.4818843],[117.9568864,24.4814202],[117.9569456,24.4812047],[117.9569664,24.4811234],[117.9565184,24.4809907],[117.9566482,24.4805551],[117.9565658,24.4804543],[117.9566978,24.480205],[117.9565745,24.480102],[117.9564082,24.4802576],[117.956338,24.4802336],[117.9563697,24.4801729],[117.9562806,24.4802115],[117.9561563,24.4801782],[117.9562033,24.4801069],[117.9560876,24.4800312],[117.9557277,24.4797224],[117.9556658,24.4797829],[117.9556312,24.4797538],[117.9555317,24.479849],[117.9554317,24.4797692],[117.954825,24.480336],[117.9547524,24.4803328],[117.9546864,24.4803143],[117.9546366,24.480291],[117.9544776,24.4801777],[117.9545216,24.4800688],[117.9545381,24.4799972],[117.9544036,24.479806],[117.9543697,24.4797592],[117.9551112,24.4793595],[117.9542865,24.4779973],[117.9549407,24.4776759],[117.9550529,24.4776361],[117.9550985,24.4776375],[117.9551186,24.4773373],[117.954603,24.4773607],[117.9544742,24.4773516],[117.9544893,24.4770624],[117.9546677,24.477041],[117.9546755,24.4769084],[117.9546814,24.4767724],[117.9548634,24.4767172],[117.9547724,24.4764879],[117.9549575,24.4764325],[117.9548821,24.4762143],[117.9548584,24.4761407],[117.954523,24.4762432],[117.9543812,24.4762377],[117.9543235,24.47614],[117.9542576,24.4761062],[117.9542116,24.4759871],[117.9541884,24.475959],[117.9530781,24.4763446],[117.9530505,24.4762984],[117.9527403,24.4763546],[117.952527,24.4763821],[117.9524726,24.4764011],[117.9519544,24.4750882],[117.9515987,24.4742783],[117.9537914,24.4734892],[117.954327,24.4733724],[117.9547165,24.4732928],[117.9555744,24.4729979],[117.9548836,24.4707199],[117.9543525,24.4698801],[117.9539663,24.4689914],[117.9537088,24.4680198],[117.9512036,24.4685911],[117.9506562,24.4672657],[117.9503032,24.4665406],[117.9500954,24.4659172],[117.9496482,24.4645755],[117.9481029,24.4598851],[117.9475021,24.444493],[117.9836368,24.4294117],[118.0220252,24.426885],[118.0477523,24.4251917],[118.0596828,24.4240195],[118.0865478,24.4090138],[118.1030273,24.4025265],[118.1198498,24.3843134],[118.1316667,24.3822222],[118.1366824,24.3913021],[118.1469442,24.4100007],[118.1519484,24.4127533],[118.1868103,24.4319275],[118.192348,24.434973],[118.1974184,24.4375305],[118.2063071,24.4519103],[118.2316665,24.4780563],[118.2594172,24.4953791],[118.2752776,24.5052785],[118.2949414,24.5065567],[118.3308331,24.5088896],[118.3844442,24.5319451],[118.4052776,24.5427785],[118.4494442,24.5286118],[118.4351114,24.5613709],[118.3757971,24.5708554],[118.3586423,24.5708327],[118.3476159,24.574577],[118.3486234,24.5775846],[118.3494022,24.5814027],[118.3496756,24.5822689],[118.3488924,24.5866984],[118.3468755,24.5889447],[118.3469323,24.5892864],[118.3460319,24.5900992],[118.3458011,24.5901451],[118.3451402,24.5898379],[118.3446482,24.5892845],[118.3442334,24.5892077],[118.343915,24.5892636],[118.3432234,24.5896517],[118.3423044,24.5901965],[118.3414113,24.5908389],[118.3393169,24.5925402],[118.3393672,24.5927515],[118.3391642,24.5930323],[118.3384982,24.5936971],[118.3381467,24.5938871],[118.3381384,24.5940432],[118.3380582,24.5941189],[118.3377344,24.5942615],[118.337159,24.594887],[118.3371072,24.5949341],[118.3370163,24.5950389],[118.3370598,24.5950966],[118.337541,24.5952593],[118.3376833,24.5953683],[118.3377257,24.5955009],[118.3372552,24.5961594],[118.3373817,24.5962094],[118.3371488,24.5965212],[118.3369533,24.5966483],[118.3369112,24.5969093],[118.3364257,24.5973361],[118.3364267,24.5974577],[118.3366571,24.5978766],[118.3365018,24.5980338],[118.3365435,24.5984645],[118.3364935,24.5986325],[118.336418,24.5988173],[118.336229,24.5989268],[118.3361966,24.5991417],[118.3363227,24.5993395],[118.3366692,24.5994674],[118.3367702,24.5997358],[118.3369635,24.5999484],[118.3372362,24.6009725],[118.3371758,24.6015231],[118.3375401,24.6022979],[118.3377733,24.6034325],[118.3377593,24.6035877],[118.3372237,24.6040759],[118.3371263,24.604355],[118.3376722,24.6050191],[118.3374163,24.6050674],[118.3374149,24.6052282],[118.3379456,24.6056767],[118.3383287,24.6062514],[118.3379973,24.6067214],[118.3378305,24.6077872],[118.3380949,24.6085184],[118.3382616,24.6098942],[118.3381487,24.6100366],[118.3373606,24.610222],[118.3371884,24.6104253],[118.3371043,24.6106756],[118.3369943,24.6109641],[118.3357671,24.6091767],[118.33606,24.6088154],[118.3358735,24.6085342],[118.3359944,24.6077066],[118.335828,24.6070655],[118.3356818,24.6068477],[118.3356268,24.6065686],[118.3353124,24.6058903],[118.334364,24.6055275],[118.3343899,24.6049746],[118.3345147,24.6046526],[118.3339817,24.6045241],[118.333618,24.6040176],[118.3331336,24.6041699],[118.3328975,24.6041294],[118.3323024,24.6033794],[118.3314952,24.6028144],[118.331413,24.6026043],[118.3312002,24.6025182],[118.3310658,24.6023367],[118.3306152,24.6024589],[118.3305193,24.6018457],[118.3303572,24.6015665],[118.3300241,24.6012226],[118.3294118,24.6009607],[118.3288008,24.6010527],[118.3281255,24.6009603],[118.3275754,24.6005318],[118.3273169,24.6004284],[118.3258276,24.601412],[118.3244372,24.6022021],[118.3241504,24.6024389],[118.3244166,24.6032023],[118.3242337,24.6032467],[118.3241595,24.6040282],[118.3242936,24.6045755],[118.3240772,24.604571],[118.3237495,24.6049401],[118.3235615,24.6047673],[118.3233473,24.604931],[118.3239686,24.606032],[118.3242446,24.6071528],[118.3242114,24.6076443],[118.3246829,24.6086257],[118.3244783,24.6090949],[118.3245624,24.6095893],[118.3251065,24.609302],[118.3259829,24.6106285],[118.3269101,24.6106518],[118.3275455,24.611166],[118.3279634,24.6111296],[118.3284217,24.610959],[118.3298283,24.6099482],[118.3302786,24.6105335],[118.3303943,24.6107992],[118.3303647,24.6117207],[118.3301452,24.6120423],[118.3296855,24.6123552],[118.3294166,24.6129308],[118.3298903,24.6129766],[118.3309508,24.6132596],[118.3314036,24.6135947],[118.3320015,24.6145885],[118.3318197,24.6147471],[118.3314505,24.6148982],[118.331577,24.6154737],[118.3320362,24.6162525],[118.332181,24.6171694],[118.3320257,24.6175202],[118.330738,24.6192691],[118.3306941,24.6194553],[118.3307696,24.6197278],[118.3305822,24.620438],[118.330683,24.620767],[118.3309556,24.6212286],[118.3312557,24.6214199],[118.3321347,24.6211779],[118.3335827,24.6204633],[118.3349915,24.6201426],[118.3350173,24.6208729],[118.3354852,24.6211397],[118.3365271,24.6205906],[118.3379733,24.6208659],[118.3381939,24.6208112],[118.3389157,24.619947],[118.3393603,24.6198523],[118.3397246,24.6214096],[118.3403553,24.6216385],[118.340707,24.622178],[118.3400763,24.6227148],[118.3403741,24.6234464],[118.3406793,24.6237674],[118.3397024,24.6244446],[118.339527,24.624877],[118.3395704,24.6254614],[118.3388926,24.6259428],[118.3395218,24.627152],[118.3400127,24.6275767],[118.3405204,24.6284146],[118.3409229,24.6295784],[118.341167,24.6297681],[118.3423928,24.6302216],[118.3424564,24.630978],[118.3422353,24.6314784],[118.3422155,24.6320554],[118.3427793,24.6333028],[118.3428522,24.6341911],[118.3422986,24.6355679],[118.3415791,24.6367502],[118.3411253,24.6378735],[118.3406635,24.6382679],[118.3405118,24.6385785],[118.3404668,24.6393259],[118.3400445,24.6403565],[118.3402037,24.6407701],[118.3399391,24.6417675],[118.3399599,24.6421172],[118.340136,24.6423188],[118.3386635,24.6435299],[118.3385121,24.644732],[118.3379506,24.6461678],[118.340329,24.6467242],[118.3407282,24.6480002],[118.3418118,24.6488098],[118.3421481,24.6492646],[118.3422703,24.6500964],[118.3420927,24.6507385],[118.3429854,24.6506471],[118.3444871,24.6507898],[118.3454714,24.6513425],[118.3467215,24.6518073],[118.3469824,24.6521282],[118.3473436,24.6531715],[118.3469697,24.6537392],[118.3470164,24.6548263],[118.3465825,24.6553832],[118.3458179,24.6557171],[118.3459166,24.6584987],[118.3464227,24.6595908],[118.3460175,24.6611945],[118.3462204,24.662822],[118.3464378,24.6635331],[118.3470323,24.6641551],[118.3481952,24.6663246],[118.3481686,24.6666629],[118.3467679,24.6668631],[118.3467269,24.6676105],[118.3461618,24.668622],[118.3457894,24.6687292],[118.3453919,24.6693598],[118.3449713,24.6693728],[118.344765,24.6695212],[118.3428263,24.6700554],[118.3421927,24.6701176],[118.3420963,24.6712918],[118.341945,24.6715863],[118.3418731,24.6717266],[118.341307,24.6719217],[118.3403358,24.6721017],[118.3395318,24.6729642],[118.3390819,24.6729389],[118.3385809,24.6731239],[118.3369826,24.674474],[118.3359993,24.6756403],[118.3345974,24.674387],[118.3339346,24.6753021],[118.333403,24.6765662],[118.3329411,24.6769402],[118.3326626,24.6779198],[118.332802,24.6787762],[118.333023,24.6792727],[118.3330017,24.6799455],[118.3346429,24.6811134],[118.3351331,24.6816753],[118.3354119,24.6821897],[118.3355815,24.6831786],[118.3358869,24.6838261],[118.3358779,24.68421],[118.3344407,24.6851273],[118.3338107,24.6853],[118.3336231,24.6852203],[118.3337033,24.68466],[118.333538,24.6845689],[118.3330121,24.6856704],[118.3324421,24.6861133],[118.3321927,24.6865666],[118.3317323,24.6867874],[118.33094,24.6852195],[118.3306776,24.6859662],[118.3305503,24.6868613],[118.3302545,24.6871256],[118.329709,24.6870086],[118.329595,24.6873414],[118.3291253,24.6877088],[118.3276166,24.6882704],[118.3274013,24.6884867],[118.3267727,24.6880138],[118.3260436,24.6878529],[118.3243239,24.6895247],[118.3236225,24.6920898],[118.3233296,24.6923338],[118.3230023,24.6924405],[118.3225691,24.692054],[118.3222652,24.6919325],[118.3218332,24.6919477],[118.320915,24.6920528],[118.3207227,24.6923163],[118.320006,24.6927218],[118.3189839,24.6925661],[118.3187104,24.6928349],[118.318839,24.6932964],[118.3184741,24.694324],[118.3182172,24.6944325],[118.3177504,24.6943192],[118.3172019,24.6953733],[118.316621,24.6959516],[118.3166932,24.6965829],[118.316561,24.6969293],[118.3160294,24.6975498],[118.3153156,24.6980052],[118.3156518,24.700638],[118.3167091,24.7013011],[118.3173937,24.7014102],[118.3179652,24.7012133],[118.3181578,24.7019633],[118.3186763,24.7023263],[118.3191216,24.7028373],[118.319841,24.7042999],[118.3207782,24.7054581],[118.3208058,24.7060515],[118.3219126,24.7074996],[118.3225303,24.7090329],[118.3219753,24.7101504],[118.3223394,24.7101538],[118.3233373,24.7106619],[118.3246653,24.7104947],[118.32502,24.7105501],[118.3245056,24.7114349],[118.3252494,24.7128225],[118.3247897,24.7139573],[118.3249722,24.7147091],[118.325714,24.7146961],[118.3259253,24.7148001],[118.3264381,24.7151637],[118.326934,24.715728],[118.3275201,24.7159868],[118.3281874,24.7170662],[118.328118,24.7177168],[118.3284454,24.7175897],[118.3286987,24.7177227],[118.3284594,24.7179711],[118.3289047,24.7179195],[118.3290099,24.7181963],[118.3296582,24.7185425],[118.3297865,24.7187625],[118.3301789,24.7187636],[118.3307439,24.7189592],[118.3310957,24.7192227],[118.3311445,24.7202556],[118.3313475,24.7205902],[118.3318725,24.7209372],[118.3320551,24.7214414],[118.332754,24.721812],[118.3330746,24.7221813],[118.3332215,24.7230442],[118.3334601,24.7236266],[118.3344957,24.7251857],[118.3311318,24.7260528],[118.3305924,24.726615],[118.3305438,24.727211],[118.3295405,24.7271747],[118.3292126,24.7274959],[118.3299256,24.7281532],[118.3299932,24.7283511],[118.3298292,24.7286188],[118.329982,24.7288816],[118.3304829,24.7291882],[118.3309536,24.7298726],[118.3301781,24.7304681],[118.3291868,24.7321786],[118.3285101,24.7324012],[118.3278535,24.7321476],[118.3271092,24.7322827],[118.3271114,24.7324519],[118.3276846,24.7327492],[118.3281618,24.7331714],[118.3281693,24.7333293],[118.3270275,24.734707],[118.3262193,24.7349263],[118.3255677,24.7348576],[118.3244845,24.7345444],[118.3238883,24.7345385],[118.3226059,24.7329026],[118.3214819,24.7340337],[118.3212473,24.7344581],[118.3207437,24.7347873],[118.3198251,24.7350166],[118.3195911,24.7339993],[118.3192987,24.7327285],[118.3187507,24.7325348],[118.31852,24.7322501],[118.3182181,24.7322325],[118.318305,24.7326899],[118.3177968,24.7330259],[118.3175571,24.7336532],[118.3171068,24.7335466],[118.3170586,24.7336463],[118.3174,24.7340541],[118.3176274,24.7348013],[118.3184914,24.7354843],[118.318514,24.7357908],[118.318716,24.736148],[118.3192492,24.736644],[118.3184151,24.7374391],[118.3178921,24.7376036],[118.3177228,24.7379145],[118.3172372,24.7378286],[118.3161806,24.7372329],[118.3153519,24.7371749],[118.3157253,24.7381157],[118.316491,24.7385972],[118.3174669,24.7385551],[118.3174158,24.739095],[118.3170902,24.7396327],[118.3162344,24.7400712],[118.3160831,24.7403523],[118.314833,24.740535],[118.3130435,24.7414914],[118.3129924,24.7418306],[118.3131484,24.7421119],[118.3144548,24.743262],[118.3149119,24.7438399],[118.3153999,24.7450206],[118.3153595,24.746808],[118.3150831,24.7464743],[118.3149089,24.7454426],[118.3141883,24.7450312],[118.313501,24.7466413],[118.3132813,24.7469119],[118.3126746,24.7470912],[118.3117553,24.7476519],[118.3116524,24.7481267],[118.310977,24.7487239],[118.3102822,24.749881],[118.3103778,24.749855],[118.3106218,24.75039],[118.3105714,24.7506974],[118.31075,24.7509307],[118.3106774,24.7512924],[118.3111773,24.7515022],[118.3110389,24.7520361],[118.3113682,24.75227],[118.3113383,24.7526114],[118.3115446,24.7527604],[118.3116301,24.7530736],[118.3119885,24.7531177],[118.3123885,24.7534684],[118.3131073,24.7536337],[118.313135,24.754161],[118.3140493,24.7544015],[118.3143134,24.7546272],[118.3149183,24.7545428],[118.3178864,24.75319],[118.3182777,24.7532273],[118.318553,24.753024],[118.319251,24.7529566],[118.3194015,24.7531994],[118.3193411,24.7541611],[118.3195685,24.7541795],[118.3196904,24.7544491],[118.3201321,24.7543346],[118.3203531,24.7547841],[118.3205274,24.7546989],[118.3206385,24.7547657],[118.3206798,24.7552775],[118.3210298,24.7554258],[118.3213198,24.7551458],[118.3217115,24.7552459],[118.3219616,24.7556249],[118.3222617,24.7556314],[118.3223293,24.7558136],[118.3228776,24.7561857],[118.3230139,24.7565645],[118.3233268,24.7564885],[118.3237524,24.7567355],[118.3242138,24.7566807],[118.3241545,24.7558906],[118.3242667,24.7555189],[118.3251609,24.754737],[118.326261,24.7527983],[118.3266309,24.752363],[118.3272971,24.7527483],[118.3309846,24.754341],[118.33049,24.754911],[118.3302342,24.755446],[118.3295654,24.7558514],[118.3295334,24.7561067],[118.3297475,24.7566167],[118.3302086,24.7567578],[118.3307277,24.7585692],[118.3307517,24.7599387],[118.3305221,24.7603989],[118.3311009,24.7616053],[118.331742,24.7625836],[118.33322,24.763992],[118.3332257,24.7642471],[118.3328171,24.7646251],[118.3330661,24.764914],[118.3335315,24.7648692],[118.333611,24.7646003],[118.3339078,24.7647014],[118.3343132,24.7650858],[118.3347484,24.7652242],[118.335291,24.7659211],[118.3350164,24.7658242],[118.3337546,24.7658377],[118.3322747,24.7664578],[118.3317729,24.7669815],[118.3312292,24.7675977],[118.331223,24.7684822],[118.3308836,24.7705501],[118.3307046,24.7710232],[118.3298632,24.7718456],[118.3294032,24.7721294],[118.3300867,24.7723171],[118.3310373,24.7724013],[118.331839,24.7729899],[118.3325084,24.7744621],[118.3333098,24.7752244],[118.3337028,24.7764125],[118.3344094,24.775614],[118.3348662,24.775312],[118.3354136,24.7752239],[118.3362121,24.7753361],[118.3362794,24.774769],[118.3361313,24.7747455],[118.3359588,24.7749503],[118.3354708,24.7745712],[118.3361863,24.7743347],[118.3361389,24.7739309],[118.3372911,24.7741419],[118.3371934,24.7731364],[118.3373767,24.7732228],[118.3376857,24.7730462],[118.3385929,24.771892],[118.3390652,24.7720343],[118.3396873,24.7713201],[118.3403597,24.7719619],[118.3404445,24.7723263],[118.34064,24.7725595],[118.3416703,24.7730059],[118.3417196,24.7733552],[118.3414618,24.7735833],[118.3411571,24.7736063],[118.3406446,24.7733379],[118.3401224,24.7728279],[118.3397961,24.772797],[118.3394676,24.7731565],[118.3394452,24.774127],[118.3389018,24.77415],[118.3388623,24.7744054],[118.3393597,24.7747169],[118.3401223,24.7748025],[118.3402696,24.7749389],[118.3400518,24.7751192],[118.3394797,24.7752415],[118.3379395,24.7770696],[118.3380369,24.777457],[118.3386407,24.7776073],[118.3397264,24.7773402],[118.3408646,24.7772285],[118.3412704,24.7772362],[118.3415033,24.7774032],[118.3402086,24.7786221],[118.3397802,24.7786532],[118.3394096,24.7796223],[118.3394089,24.7803354],[118.3387587,24.7808128],[118.338699,24.7810568],[118.3389423,24.7814383],[118.3382012,24.7824807],[118.33831,24.7827324],[118.3386417,24.7828832],[118.3385375,24.7831142],[118.3381253,24.7833816],[118.3376832,24.7834939],[118.3360146,24.783288],[118.3343787,24.7836363],[118.3329527,24.7836287],[118.3327942,24.7837454],[118.3326231,24.7840468],[118.3323079,24.7835285],[118.3313776,24.7824941],[118.3316131,24.7811022],[118.3310321,24.7795119],[118.3313204,24.7787489],[118.329516,24.7776793],[118.3289004,24.7783076],[118.3259623,24.7799201],[118.3254358,24.7806762],[118.3244407,24.7810215],[118.3241528,24.7812246],[118.3236571,24.7824476],[118.3234537,24.7826186],[118.3229667,24.7829095],[118.3225013,24.7829318],[118.3219978,24.7827466],[118.3215924,24.7827998],[118.3210077,24.7833148],[118.3198407,24.7835237],[118.3196571,24.7836833],[118.3195064,24.7848828],[118.3192059,24.7854475],[118.3185255,24.7861236],[118.3181029,24.786371],[118.3170793,24.7866327],[118.3178157,24.7870097],[118.3190332,24.7878679],[118.3212025,24.7886387],[118.3212528,24.7888098],[118.3210637,24.7893417],[118.3213997,24.7899818],[118.3215545,24.7906938],[118.3213679,24.7923809],[118.3224319,24.7930259],[118.3224255,24.7932947],[118.323238,24.7932961],[118.3233929,24.793401],[118.3234335,24.793545],[118.3225759,24.7947938],[118.3221044,24.7949647],[118.3210248,24.7956335],[118.3189726,24.7962878],[118.3188097,24.7973837],[118.3189233,24.7978521],[118.3197466,24.7988129],[118.3202271,24.7989623],[118.3213446,24.8010709],[118.320642,24.8010818],[118.3199433,24.8013429],[118.3190007,24.8012498],[118.318233,24.801832],[118.3180011,24.8018836],[118.3173528,24.8016727],[118.3167602,24.8016803],[118.3149584,24.8022829],[118.3139424,24.8027521],[118.3136224,24.8040611],[118.3141301,24.8055824],[118.3141039,24.8058149],[118.3123149,24.8079542],[118.3111475,24.8089414],[118.3107923,24.8094137],[118.3095411,24.8101084],[118.3076066,24.8105789],[118.303968,24.812247],[118.3037595,24.8124606],[118.3035937,24.8131213],[118.3042281,24.8143229],[118.3042809,24.8147468],[118.3038707,24.8152083],[118.3033027,24.8155675],[118.3029278,24.8159973],[118.3027678,24.8164703],[118.3024309,24.8166694],[118.3010016,24.8169075],[118.3001387,24.8181359],[118.2991436,24.8182935],[118.2986,24.8186909],[118.2981003,24.8183117],[118.2975923,24.8181625],[118.2962807,24.8183183],[118.2971446,24.8191888],[118.2969418,24.8195607],[118.2963633,24.8201523],[118.2959545,24.8202707],[118.2948384,24.8209507],[118.2956021,24.821118],[118.296338,24.8220162],[118.2978842,24.8232759],[118.2978151,24.8242151],[118.297979,24.8257571],[118.2984952,24.8263188],[118.2986753,24.8269855],[118.2989517,24.8274277],[118.2988517,24.8280241],[118.2986705,24.8282942],[118.2978763,24.8286825],[118.2970684,24.8289195],[118.2966913,24.8285574],[118.2963109,24.8284186],[118.2960636,24.8286801],[118.2951021,24.8290629],[118.2938281,24.8307121],[118.292579,24.8306688],[118.2922539,24.8309742],[118.2915631,24.831305],[118.2914358,24.8318005],[118.2911715,24.8320466],[118.2905804,24.8319159],[118.2895933,24.8319674],[118.2888816,24.8323956],[118.2879448,24.8322522],[118.2871363,24.8324491],[118.286261,24.8328918],[118.2860376,24.8328939],[118.2852763,24.8318624],[118.2849807,24.8312047],[118.2831781,24.830975],[118.2825681,24.8311069],[118.2818846,24.8319277],[118.2817364,24.8326645],[118.281982,24.8332328],[118.2821784,24.8333267],[118.2821287,24.8337491],[118.2816708,24.8340599],[118.2796186,24.8348828],[118.278989,24.8360325],[118.2783127,24.8363473],[118.2774407,24.8361018],[118.2767633,24.8360944],[118.2763899,24.8357679],[118.2762137,24.83523],[118.2759723,24.8350403],[118.2754164,24.8351195],[118.2749376,24.8349637],[118.2741054,24.8351489],[118.2736592,24.8350512],[118.2729271,24.8346669],[118.2726605,24.8346255],[118.2722528,24.8345622],[118.2712219,24.8337811],[118.2705519,24.8335768],[118.2702781,24.833347],[118.2694148,24.8342637],[118.2688638,24.8346112],[118.268704,24.8350797],[118.2684434,24.8350436],[118.2671062,24.833739],[118.2661007,24.8335853],[118.2648759,24.8330677],[118.2646992,24.8327692],[118.264799,24.8323192],[118.2646996,24.8321212],[118.2631312,24.8304244],[118.2625661,24.8294203],[118.2619981,24.8291362],[118.2617678,24.8285988],[118.2617347,24.828062],[118.2609291,24.8276197],[118.2601807,24.8273957],[118.2601105,24.8274958],[118.2604009,24.8286238],[118.2602918,24.8288978],[118.259776,24.8288614],[118.2594603,24.8287559],[118.2588645,24.8280952],[118.2580027,24.8274572],[118.2574896,24.82789],[118.2567969,24.8280201],[118.2560357,24.8283515],[118.2553184,24.8295964],[118.2543465,24.8299541],[118.2540739,24.8303851],[118.2540058,24.8310447],[118.2532139,24.8325746],[118.2523104,24.8317451],[118.2519453,24.8309267],[118.2512774,24.8301492],[118.2502748,24.8294063],[118.2499687,24.8293187],[118.2487909,24.8298361],[118.2492202,24.8302387],[118.2493509,24.8305579],[118.2489749,24.8310351],[118.2490263,24.8320432],[118.2482713,24.8336068],[118.2480599,24.8338387],[118.2473997,24.8339841],[118.2470139,24.8344722],[118.2455571,24.8355972],[118.2448194,24.8357159],[118.2444585,24.8356105],[118.2441786,24.8352226],[118.2436138,24.8348774],[118.2426105,24.8339764],[118.2419293,24.833734],[118.241435,24.8337152],[118.2406572,24.8332747],[118.2403257,24.832894],[118.2404404,24.8321194],[118.2400006,24.8306562],[118.2401195,24.8299307],[118.2397013,24.8288874],[118.2394105,24.8288105],[118.2393677,24.8282287],[118.2390038,24.8281301],[118.2387761,24.8277077],[118.2384597,24.8277105],[118.238205,24.8272341],[118.2378389,24.8274179],[118.2377687,24.8271388],[118.2373139,24.8273612],[118.2360394,24.8262545],[118.2356506,24.8262488],[118.2353854,24.826118],[118.2351955,24.8259728],[118.2350921,24.8256667],[118.2348121,24.8255497],[118.2321661,24.825876],[118.2305131,24.8263905],[118.2287692,24.827373],[118.2281247,24.8275182],[118.2269661,24.8275617],[118.2267296,24.8279087],[118.226704,24.8282566],[118.2272775,24.8293532],[118.2274216,24.8304328],[118.2270113,24.8307927],[118.2259093,24.8312756],[118.2247416,24.8314522],[118.2242882,24.8317958],[118.2245,24.832962],[118.225643,24.833733],[118.225381,24.834105],[118.224935,24.834416],[118.224457,24.834925],[118.223846,24.835221],[118.222937,24.835991],[118.222715,24.836357],[118.222698,24.836844],[118.222524,24.837134],[118.221845,24.837652],[118.221675,24.838069],[118.221248,24.83851],[118.220822,24.838823],[118.22077,24.839256],[118.220549,24.839567],[118.220245,24.840391],[118.219613,24.840807],[118.219278,24.841424],[118.218883,24.841765],[118.21839,24.842586],[118.218455,24.843434],[118.218835,24.843896],[118.218897,24.844112],[118.218949,24.845179],[118.218786,24.845668],[118.218978,24.846156],[118.219078,24.846254],[118.219465,24.846303],[118.220572,24.846044],[118.22084,24.846039],[118.22175,24.846555],[118.221929,24.846829],[118.221972,24.847084],[118.221299,24.84768],[118.22058,24.84874],[118.220234,24.849386],[118.21972,24.849948],[118.219626,24.851065],[118.219687,24.851385],[118.220087,24.852012],[118.220616,24.852152],[118.22108,24.852135],[118.221777,24.8526],[118.221659,24.853046],[118.221443,24.853199],[118.221037,24.853094],[118.220886,24.853129],[118.220815,24.853511],[118.220704,24.853661],[118.220257,24.853777],[118.219783,24.853729],[118.219417,24.854136],[118.219013,24.854385],[118.218826,24.854394],[118.218478,24.854238],[118.218114,24.854332],[118.217559,24.854325],[118.21732,24.854751],[118.216804,24.854879],[118.216485,24.85504],[118.21576,24.855732],[118.215614,24.855799],[118.215291,24.85576],[118.215049,24.856065],[118.214817,24.856204],[118.214305,24.856206],[118.214007,24.856613],[118.213118,24.857026],[118.213014,24.857196],[118.212988,24.857605],[118.212887,24.857843],[118.212568,24.8579],[118.211867,24.85823],[118.210735,24.85807],[118.210082,24.858222],[118.209221,24.858877],[118.209479,24.859725],[118.209327,24.859943],[118.209245,24.860628],[118.209145,24.860811],[118.209011,24.860941],[118.2086,24.861061],[118.207073,24.861002],[118.206322,24.861148],[118.204787,24.862221],[118.204316,24.862642],[118.204374,24.86321],[118.204058,24.864111],[118.20374,24.865948],[118.202269,24.866082],[118.20122,24.865944],[118.200855,24.865577],[118.200371,24.865474],[118.2002,24.865365],[118.199871,24.864932],[118.199542,24.865023],[118.198909,24.86553],[118.198679,24.866159],[118.198437,24.866421],[118.197937,24.866617],[118.196907,24.867366],[118.19509,24.868222],[118.194881,24.868346],[118.194496,24.868757],[118.193962,24.869046],[118.193286,24.869238],[118.192373,24.869713],[118.191662,24.869838],[118.190749,24.870633],[118.190114,24.871026],[118.189752,24.871422],[118.189032,24.872652],[118.188435,24.873149],[118.187636,24.873581],[118.187513,24.874143],[118.187533,24.874612],[118.187766,24.875047],[118.188424,24.875871],[118.189269,24.876672],[118.189736,24.877946],[118.189869,24.878877],[118.189748,24.879227],[118.189806,24.879489],[118.19055,24.879882],[118.191425,24.880024],[118.19207,24.880511],[118.192294,24.880798],[118.192542,24.88134],[118.192539,24.882552],[118.192665,24.882916],[118.193024,24.88329],[118.193974,24.883973],[118.194851,24.884251],[118.195539,24.884229],[118.196826,24.883937],[118.198645,24.884256],[118.198241,24.884641],[118.197514,24.885549],[118.197041,24.886598],[118.196426,24.887663],[118.196106,24.887959],[118.194992,24.888623],[118.194637,24.889066],[118.194338,24.88963],[118.193062,24.89099],[118.192771,24.891624],[118.192812,24.891924],[118.192958,24.892238],[118.192969,24.892403],[118.192857,24.892605],[118.191698,24.892982],[118.191397,24.893316],[118.191265,24.894014],[118.190144,24.894989],[118.189733,24.895547],[118.189534,24.895709],[118.188705,24.895859],[118.188456,24.895797],[118.188182,24.895135],[118.187304,24.894607],[118.186858,24.894484],[118.185396,24.894353],[118.18502,24.894448],[118.184788,24.894604],[118.184225,24.895254],[118.183937,24.895342],[118.183678,24.895364],[118.182331,24.894957],[118.180814,24.895072],[118.179884,24.895353],[118.179604,24.895647],[118.178764,24.896841],[118.178314,24.897219],[118.17809,24.897193],[118.177859,24.89703],[118.177642,24.896984],[118.176924,24.89703],[118.176809,24.896858],[118.17636,24.895293],[118.176187,24.895081],[118.175566,24.894821],[118.17405,24.894585],[118.172609,24.894531],[118.171956,24.894858],[118.17159,24.895167],[118.170859,24.896167],[118.170401,24.897247],[118.170423,24.897412],[118.170648,24.89777],[118.16861,24.899009],[118.167364,24.900009],[118.165935,24.900628],[118.165484,24.900746],[118.164867,24.900144],[118.164048,24.899947],[118.163712,24.899784],[118.162722,24.89974],[118.161988,24.899856],[118.161517,24.899487],[118.161122,24.899422],[118.160686,24.899585],[118.160454,24.899954],[118.160228,24.90009],[118.159675,24.900019],[118.158841,24.900112],[118.15838,24.900065],[118.157649,24.900159],[118.157469,24.900113],[118.157137,24.900323],[118.156401,24.900578],[118.155179,24.899717],[118.153166,24.898588],[118.152522,24.898314],[118.151515,24.896774],[118.150532,24.89564],[118.1501078,24.8952198],[118.1499335,24.8951387],[118.1488059,24.8950836],[118.147736,24.8948751],[118.1468841,24.89489],[118.146358,24.8949849],[118.1459352,24.8948828],[118.145311,24.8949447],[118.1437253,24.8946554],[118.1430567,24.8948345],[118.1427324,24.8949935],[118.1424697,24.8950202],[118.1421205,24.8949334],[118.1416063,24.8952486],[118.1406608,24.8951962],[118.1395626,24.8953879],[118.1385366,24.8953902],[118.1379457,24.8957178],[118.1375135,24.8957614],[118.1367048,24.8960445],[118.1360432,24.8961821],[118.1353286,24.8966138],[118.1338569,24.896864],[118.1335377,24.8967974],[118.1333508,24.8970939],[118.1331766,24.8972056],[118.1323358,24.8971432],[118.1318277,24.8966962],[118.1314316,24.8969026],[118.1312192,24.8968874],[118.1311547,24.8967892],[118.1312589,24.8965197],[118.1310339,24.8963943],[118.1309581,24.8961254],[118.1308269,24.8959886],[118.1302101,24.8959575],[118.1295354,24.8955853],[118.1291189,24.8955205],[118.1287903,24.8952812],[118.1285513,24.8949132],[118.1279075,24.8947792],[118.127486,24.8945552],[118.1272242,24.8945251],[118.1269335,24.894665],[118.1265953,24.8945903],[118.1261557,24.8940547],[118.1254259,24.8937471],[118.1250387,24.8933716],[118.1239883,24.89275],[118.1236015,24.8924156],[118.1233952,24.8923477],[118.1224819,24.8923567],[118.1221034,24.8919525],[118.1213585,24.8913972],[118.1202586,24.8910094],[118.1196349,24.8907381],[118.1193252,24.8902947],[118.1185502,24.8894974],[118.118259,24.8887098],[118.1181653,24.8881154],[118.1175695,24.8872758],[118.1173972,24.8871921],[118.1167581,24.8871461],[118.115938,24.8868124],[118.115379,24.8864989],[118.1143893,24.8854839],[118.1137895,24.8853899],[118.113436,24.8847715],[118.1117847,24.88325],[118.1110672,24.8824951],[118.1109624,24.8821676],[118.1099231,24.8811185],[118.1098835,24.8805256],[118.1097408,24.8802396],[118.1097016,24.879973],[118.1090199,24.8786534],[118.1081443,24.8776435],[118.1079292,24.8774793],[118.1075725,24.8773438],[118.1072324,24.8769983],[118.1056517,24.8770624],[118.1049887,24.877319],[118.1039338,24.8775252],[118.1032493,24.8778805],[118.1025843,24.8778129],[118.1012961,24.877832],[118.1009993,24.8776439],[118.1008584,24.8772674],[118.1009197,24.8770196],[118.1011982,24.8767364],[118.1013416,24.8763963],[118.1014598,24.8757812],[118.1013975,24.8754836],[118.1011161,24.8753418],[118.1004202,24.8754716],[118.0998334,24.8754458],[118.0987856,24.8760945],[118.0987045,24.8760337],[118.0985609,24.8747785],[118.0982368,24.8749504],[118.0975521,24.8751135],[118.0971836,24.8752838],[118.0964763,24.8753896],[118.0943688,24.8752085],[118.0926476,24.8748974],[118.0916092,24.8748149],[118.0912999,24.8747193],[118.0910415,24.8737942],[118.0908478,24.8735027],[118.0903996,24.8731467],[118.0903762,24.8728158],[118.0905329,24.8722866],[118.090426,24.8719128],[118.0900375,24.8718211],[118.08973,24.8719131],[118.0895227,24.8718882],[118.0890428,24.8716281],[118.0882209,24.8714223],[118.087885,24.8712616],[118.0865586,24.870406],[118.0856919,24.8696402],[118.0849511,24.8694969],[118.0846024,24.8691398],[118.0840128,24.868904],[118.0831887,24.8680979],[118.0826042,24.8677166],[118.0821904,24.8674791],[118.0811025,24.8671557],[118.0807815,24.8669843],[118.0805077,24.8665859],[118.0802709,24.866401],[118.0796307,24.866059],[118.0789276,24.8659438],[118.0784102,24.8656035],[118.0771769,24.8642575],[118.076674,24.8631996],[118.0766064,24.8626643],[118.0760822,24.8621003],[118.0758153,24.8613919],[118.0755811,24.8609842],[118.0755085,24.8604198],[118.0749771,24.8603566],[118.0745879,24.8600286],[118.0742926,24.8595214],[118.0734375,24.8585654],[118.0733347,24.858338],[118.0733516,24.8581421],[118.0736873,24.8575727],[118.0734311,24.857146],[118.0714078,24.8564497],[118.0706675,24.8567237],[118.070097,24.8570429],[118.069732,24.8571098],[118.0694334,24.8573648],[118.0685472,24.8575673],[118.0681271,24.8578746],[118.0678725,24.8578619],[118.0672514,24.8575769],[118.0666304,24.8575997],[118.066174,24.8574365],[118.0658932,24.8574844],[118.065832,24.8577297],[118.0655249,24.8580447],[118.065463,24.8582282],[118.0656079,24.8584347],[118.0659413,24.8584258],[118.0659419,24.8592736],[118.0660991,24.8597489],[118.0663012,24.8599051],[118.0666169,24.8598111],[118.0666683,24.8598696],[118.0665928,24.8601334],[118.0666521,24.8602244],[118.0671736,24.8603976],[118.0672537,24.8604972],[118.0670829,24.8607733],[118.0666226,24.8611401],[118.0665344,24.8613935],[118.0663517,24.8615053],[118.066361,24.8624644],[118.0661064,24.8625648],[118.0660025,24.8626819],[118.06592,24.8637072],[118.0658305,24.8638606],[118.0655687,24.8638973],[118.0655194,24.8640615],[118.0654061,24.8641013],[118.0653691,24.8644805],[118.0657966,24.8652849],[118.0661832,24.865494],[118.0663367,24.8656983],[118.0663108,24.8660076],[118.066136,24.8662427],[118.0665941,24.867324],[118.0666868,24.8673979],[118.0669594,24.8674016],[118.0675276,24.8679763],[118.0678304,24.8681557],[118.0679537,24.8683903],[118.0678123,24.8693251],[118.0673868,24.8704081],[118.0668311,24.8715115],[118.0671784,24.8724521],[118.067255,24.8730216],[118.0675513,24.8735268],[118.0676189,24.8737833],[118.0680659,24.8744001],[118.0681676,24.8748721],[118.0687462,24.8757623],[118.0687447,24.8767553],[118.0688529,24.8771321],[118.0687644,24.8776284],[118.0685497,24.877831],[118.0683533,24.8778345],[118.0675578,24.8775004],[118.0675539,24.8777827],[118.0674395,24.8780015],[118.0667792,24.8778445],[118.0663092,24.8779477],[118.066097,24.8777229],[118.0655835,24.8777001],[118.0650474,24.8777388],[118.0646619,24.8778646],[118.0645349,24.8779069],[118.0644684,24.8780697],[118.0643213,24.8781179],[118.0630039,24.8782162],[118.0627141,24.8782997],[118.0623182,24.87819],[118.0605464,24.8786197],[118.060244,24.8790165],[118.060047,24.8795208],[118.0597727,24.8795101],[118.0595537,24.8794007],[118.0594578,24.87923],[118.0594276,24.8787122],[118.0590829,24.8782978],[118.0587644,24.8777369],[118.0581227,24.8772455],[118.0580304,24.8770888],[118.0579847,24.876758],[118.0576663,24.8764844],[118.0575455,24.8761835],[118.0574891,24.8750933],[118.0580971,24.8737702],[118.0578035,24.872979],[118.0572029,24.8719511],[118.0570142,24.8708741],[118.0568094,24.8705869],[118.0561078,24.8699242],[118.0556423,24.8696807],[118.0548382,24.869872],[118.0540425,24.869582],[118.0536126,24.8696761],[118.0531655,24.8695495],[118.0519242,24.869876],[118.0510623,24.8704992],[118.0509822,24.8708232],[118.0506774,24.8711629],[118.0501782,24.8714348],[118.049541,24.8720008],[118.0487695,24.8723127],[118.0482042,24.8728052],[118.047437,24.8730759],[118.0455808,24.8740738],[118.0454938,24.8747804],[118.0458649,24.875525],[118.0456079,24.8764879],[118.0456028,24.877994],[118.0458035,24.8787975],[118.0463924,24.8795386],[118.04659,24.8799778],[118.0464714,24.8804156],[118.0460136,24.8808125],[118.0442918,24.8810594],[118.0435413,24.8814184],[118.0417446,24.8819655],[118.0403123,24.8825973],[118.0398761,24.8828449],[118.0397044,24.8832329],[118.0369413,24.8847502],[118.0362903,24.8858223],[118.0362616,24.8861113],[118.0367562,24.8858776],[118.0367389,24.8864277],[118.0371308,24.8867403],[118.0374519,24.8866696],[118.0373894,24.8870828],[118.0365991,24.8875672],[118.0360671,24.8885803],[118.0359615,24.8889554],[118.0360713,24.8896717],[118.0356611,24.89021],[118.035063,24.891661],[118.0346467,24.8921443],[118.0342953,24.8937544],[118.0344551,24.8941598],[118.0353253,24.894687],[118.0375436,24.8948553],[118.037882,24.8952369],[118.037948,24.895984],[118.037431,24.8971337],[118.0356938,24.8995823],[118.0353809,24.9002861],[118.0356032,24.9008346],[118.0353166,24.900956],[118.0346966,24.901609],[118.0338511,24.9022085],[118.033567,24.9023165],[118.0325007,24.9024886],[118.0318003,24.9030147],[118.0304547,24.9030511],[118.0299246,24.9026232],[118.0294783,24.9019522],[118.0290743,24.9020303],[118.0288768,24.9018657],[118.0279478,24.901588],[118.0272673,24.9015506],[118.0271327,24.9013001],[118.0272872,24.9002771],[118.0262343,24.900191],[118.0254913,24.9009462],[118.0249023,24.9020477],[118.0241745,24.9024262],[118.0237267,24.9031123],[118.0227905,24.903707],[118.0216275,24.9046836],[118.0208505,24.9048832],[118.0204337,24.9048122],[118.0202233,24.9049805],[118.0191857,24.9045152],[118.0186421,24.9044387],[118.0181538,24.9046808],[118.0174092,24.9045118],[118.0167819,24.9053056],[118.016424,24.9052084],[118.0161091,24.9054581],[118.0157149,24.9059551],[118.0153551,24.9067602],[118.0151709,24.9067823],[118.0143646,24.9064448],[118.0123764,24.9072638],[118.0116225,24.9066476],[118.0114614,24.905797],[118.0106928,24.905045],[118.0108843,24.9040341],[118.0112684,24.9038095],[118.0116669,24.9029962],[118.0113389,24.902471],[118.0103596,24.9019521],[118.0101654,24.9015787],[118.0108479,24.8999772],[118.0104233,24.8991146],[118.0104912,24.898809],[118.0109335,24.8983789],[118.0114418,24.8983122],[118.0126366,24.8977266],[118.0127254,24.8967418],[118.0126284,24.8965172],[118.0120182,24.8959307],[118.0113551,24.8956397],[118.0109821,24.8956411],[118.010328,24.8961006],[118.009003,24.8955522],[118.0074493,24.8956284],[118.0067792,24.8949789],[118.0060217,24.8946007],[118.0054617,24.894792],[118.0048683,24.8948051],[118.0044379,24.8950872],[118.0039794,24.8957979],[118.003662,24.8971758],[118.0037933,24.8977665],[118.0036745,24.8979691],[118.0034257,24.8980597],[118.0021984,24.8978597],[118.0014234,24.8980169],[118.0007151,24.8979396],[118.0002718,24.8981078],[117.9998248,24.8980928],[117.9995265,24.8983066],[117.9992092,24.8982811],[117.9989213,24.8988032],[117.9984297,24.9008872],[117.9979626,24.901545],[117.9980222,24.9017692],[117.9971254,24.9023748],[117.9960481,24.9028131],[117.9936562,24.9029362],[117.9931504,24.9030953],[117.9924665,24.9035853],[117.9920002,24.9034863],[117.9917299,24.9035867],[117.9913192,24.9031751],[117.9903244,24.9036972],[117.9896897,24.9037265],[117.989204,24.9038844],[117.9890044,24.9037991],[117.9886448,24.903147],[117.9887981,24.9026993],[117.9884905,24.9023281],[117.988614,24.9017942],[117.9884532,24.9013995],[117.9871756,24.9005525],[117.9860681,24.9004155],[117.985662,24.9005642],[117.9853597,24.9004897],[117.9852111,24.9003256],[117.9849476,24.8998696],[117.984878,24.8992674],[117.9850447,24.8982611],[117.9852511,24.8978846],[117.9856572,24.8974801],[117.986526,24.8971063],[117.9877072,24.8963047],[117.9886395,24.8960381],[117.9890847,24.8955531],[117.9894053,24.895543],[117.9895643,24.8957945],[117.9898529,24.8958112],[117.9909885,24.8951574],[117.9917836,24.8948512],[117.9919969,24.8948593],[117.9922574,24.8956925],[117.992616,24.8959342],[117.9927402,24.896329],[117.9929559,24.8965633],[117.9931753,24.8966101],[117.9935734,24.8964401],[117.9940028,24.8960746],[117.9940782,24.8953618],[117.9946246,24.8954438],[117.9949398,24.8950628],[117.9954664,24.8947124],[117.9961561,24.8928172],[117.9967151,24.8925447],[117.9970062,24.8921414],[117.9981542,24.8929283],[117.9988462,24.8937461],[117.9990573,24.8941767],[117.9994988,24.8943864],[118.001745,24.893117],[118.0016147,24.8924525],[118.002,24.8919182],[118.0017024,24.8914152],[118.0019458,24.8912096],[118.0020338,24.8908237],[118.0016676,24.890479],[118.0010362,24.8903396],[118.0006705,24.889721],[118.0007631,24.8895557],[118.0011041,24.8893887],[118.0012101,24.8889501],[118.0017399,24.889096],[118.0026456,24.88908],[118.0040898,24.8881938],[118.0044782,24.8883294],[118.0052113,24.8882244],[118.0058212,24.8884722],[118.0072597,24.886881],[118.0078123,24.885719],[118.0083346,24.8852235],[118.009128,24.8847313],[118.0098382,24.8840109],[118.0103397,24.8830357],[118.0105692,24.8820545],[118.0105865,24.8812641],[118.0117867,24.8804566],[118.0117899,24.8803145],[118.0103979,24.8780508],[118.0097183,24.8776198],[118.0088233,24.8784947],[118.0080235,24.8781738],[118.0072356,24.8776776],[118.006276,24.8775612],[118.0048254,24.8779052],[118.0046843,24.8782031],[118.0030936,24.8787642],[118.0024923,24.8792857],[118.0014714,24.8789791],[118.0007961,24.8799584],[117.9996366,24.8799229],[117.9993483,24.8812061],[117.9989114,24.8815991],[117.9987738,24.8820107],[117.9982253,24.8822985],[117.9966175,24.8823004],[117.996419,24.8818036],[117.9961142,24.8816475],[117.9944324,24.8816542],[117.9934216,24.8812441],[117.9928522,24.8815057],[117.9923213,24.8813099],[117.9919789,24.8804366],[117.9921218,24.8796619],[117.9919553,24.8790266],[117.9917704,24.8792088],[117.9916084,24.8797342],[117.9910661,24.8789908],[117.9906264,24.8781108],[117.9896173,24.8779069],[117.9889391,24.8779236],[117.9885482,24.8773964],[117.9875094,24.8764904],[117.9871497,24.8758372],[117.9866809,24.8753056],[117.9868937,24.8716316],[117.987415,24.8702275],[117.9884605,24.869801],[117.9897124,24.8676605],[117.9924233,24.8656879],[117.9927902,24.8655832],[117.9935699,24.8655944],[117.994146,24.8661579],[117.9944256,24.8662579],[117.9946568,24.865858],[117.9945635,24.8655098],[117.9938553,24.8645159],[117.9926611,24.8636853],[117.9926679,24.8633413],[117.9929515,24.8629203],[117.9931278,24.8623043],[117.9927104,24.8619058],[117.991502,24.8617635],[117.9903695,24.8612437],[117.9891127,24.8610587],[117.9888865,24.8611204],[117.988754,24.8609879],[117.9870908,24.8606933],[117.986618,24.8607441],[117.9857489,24.8603415],[117.9851605,24.8603798],[117.9846206,24.8593613],[117.9843373,24.8592788],[117.9842182,24.859063],[117.9829684,24.8589837],[117.9825969,24.8588575],[117.9803074,24.8572526],[117.9783198,24.85648],[117.9768948,24.8555882],[117.9759257,24.855388],[117.9756435,24.8549551],[117.9736931,24.8540079],[117.97344,24.854055],[117.9732819,24.854338],[117.9720118,24.8551628],[117.970027,24.8548753],[117.9694104,24.8546686],[117.9687723,24.8542373],[117.968833,24.853845],[117.9686707,24.8530982],[117.969189,24.8528646],[117.9691904,24.8523732],[117.9694541,24.8520532],[117.9692857,24.8516848],[117.9672462,24.8516966],[117.9667304,24.8518295],[117.9660921,24.8528551],[117.9656661,24.8542691],[117.9653841,24.854379],[117.9648809,24.8542973],[117.9645372,24.8545605],[117.9646492,24.8553105],[117.9644341,24.8554978],[117.9648316,24.8563],[117.9647249,24.856568],[117.9638938,24.8568649],[117.9634326,24.8568289],[117.9632322,24.8566116],[117.9630522,24.8566053],[117.9628726,24.8566984],[117.9627242,24.8570734],[117.9622397,24.857559],[117.9610432,24.8577643],[117.9608541,24.8588109],[117.9610815,24.8593384],[117.9608594,24.859981],[117.9607702,24.8616032],[117.9601226,24.8617751],[117.9599749,24.8616156],[117.9593671,24.8613846],[117.9591408,24.8617142],[117.9585412,24.8620653],[117.9586069,24.862725],[117.9585001,24.8639944],[117.958162,24.8648337],[117.9581383,24.8657289],[117.9583566,24.8662291],[117.9582043,24.866566],[117.9578982,24.8666109],[117.9577045,24.8670906],[117.9576617,24.8688443],[117.9571005,24.8696316],[117.9565537,24.86998],[117.9558254,24.8700009],[117.9546559,24.8708998],[117.9528399,24.8720204],[117.9525582,24.8723972],[117.9522355,24.8733361],[117.9517608,24.8737054],[117.9509893,24.8738201],[117.9493797,24.8746705],[117.9488331,24.8745181],[117.9484422,24.8741362],[117.9475761,24.8736099],[117.9472548,24.8731326],[117.9469645,24.8730743],[117.9464656,24.8731705],[117.9445189,24.874109],[117.9437562,24.874181],[117.942982,24.8738843],[117.9424687,24.8741662],[117.9419902,24.8740084],[117.941679,24.8736091],[117.9410096,24.8734725],[117.9404395,24.8731333],[117.9400613,24.8730847],[117.9399301,24.8729319],[117.9394775,24.8727894],[117.9376462,24.8715802],[117.9366125,24.8715615],[117.934786,24.8705393],[117.9333116,24.8703602],[117.932765,24.8702061],[117.9322691,24.8698872],[117.9305961,24.8698116],[117.9303748,24.8709242],[117.9297169,24.8724811],[117.9289935,24.873415],[117.9284305,24.8747518],[117.9278852,24.875555],[117.9275804,24.8766048],[117.9272959,24.8767922],[117.9266103,24.8768922],[117.9262462,24.8774848],[117.9252475,24.878101],[117.9246126,24.8782383],[117.9238067,24.878218],[117.9224629,24.8789791],[117.9216025,24.8799468],[117.9205068,24.8808248],[117.9178214,24.883834],[117.9156739,24.8836755],[117.9155425,24.8838576],[117.9156616,24.8846017],[117.9149075,24.8857592],[117.9143482,24.8851162],[117.9132059,24.8829226],[117.9121917,24.8800171],[117.9119862,24.8797495],[117.9111691,24.8792513],[117.9107627,24.8784573],[117.9095842,24.8767336],[117.9096072,24.8762062],[117.909113,24.875327],[117.9089712,24.8745829],[117.9082131,24.8728635],[117.9079351,24.8725948],[117.9076979,24.8725105],[117.908463,24.8723987],[117.9094037,24.8725883],[117.9099276,24.8725475],[117.9103697,24.872205],[117.9110901,24.8706691],[117.9118256,24.8701796],[117.912146,24.8696257],[117.9128243,24.8691135],[117.9133667,24.8688618],[117.9137947,24.8687648],[117.9143411,24.868857],[117.9148076,24.8685486],[117.9154511,24.8685034],[117.9158553,24.8679141],[117.9166187,24.8672884],[117.916785,24.8667949],[117.9175117,24.866288],[117.9186737,24.8662132],[117.9195568,24.8665165],[117.9201293,24.8660671],[117.9207882,24.8659573],[117.9210685,24.8657168],[117.9215495,24.8658996],[117.9217884,24.8658295],[117.9219875,24.8651246],[117.922267,24.8649163],[117.9226416,24.8649966],[117.9229863,24.8647071],[117.9234418,24.863941],[117.924551,24.8630134],[117.9247176,24.8627387],[117.9247486,24.8623486],[117.9253677,24.8620008],[117.9256775,24.8614748],[117.9271068,24.8606409],[117.9277442,24.8598402],[117.9279485,24.8597391],[117.9285636,24.8597991],[117.9289343,24.8568357],[117.9306565,24.8548387],[117.9310939,24.8541674],[117.931519,24.8533219],[117.9319331,24.8521057],[117.9330209,24.8515468],[117.9340416,24.8503774],[117.9342502,24.8498935],[117.9343046,24.8485997],[117.9344182,24.8483559],[117.9349364,24.8479608],[117.9353729,24.848041],[117.9355455,24.8482737],[117.9362531,24.8482833],[117.935913,24.8477467],[117.9360432,24.846935],[117.9350894,24.8461116],[117.9354619,24.8460324],[117.9356913,24.8461077],[117.9383362,24.8454646],[117.9391005,24.8450204],[117.9397603,24.8439821],[117.9403322,24.8452321],[117.9412348,24.8457687],[117.9425809,24.8474531],[117.9432136,24.8472241],[117.9436158,24.8474049],[117.944303,24.8474524],[117.9450578,24.8474657],[117.9456354,24.8473198],[117.9456925,24.8476413],[117.9462356,24.8476685],[117.9464642,24.8477912],[117.9464059,24.8483639],[117.9467937,24.8485071],[117.9481206,24.8481009],[117.9493,24.8481506],[117.9495641,24.8483988],[117.9496263,24.8487052],[117.9495899,24.8490709],[117.9493383,24.8495881],[117.9493904,24.8498313],[117.9496359,24.8497353],[117.9503122,24.8490783],[117.9516267,24.8490995],[117.9523101,24.8488135],[117.9530216,24.8488714],[117.9540377,24.8482182],[117.9546672,24.8482547],[117.9555669,24.8473842],[117.9561909,24.8474919],[117.9571089,24.8472896],[117.9575008,24.8468197],[117.958149,24.8455397],[117.958254,24.8448751],[117.958305,24.8441665],[117.9580349,24.8432686],[117.9573624,24.8429595],[117.9563053,24.8410455],[117.9561208,24.8391781],[117.9562707,24.8374904],[117.9560376,24.8370326],[117.9559442,24.8358426],[117.9560244,24.8353185],[117.9548227,24.8334206],[117.9554861,24.8315958],[117.9555361,24.8304023],[117.9553263,24.8299265],[117.9549078,24.829427],[117.9541822,24.8273618],[117.9546091,24.8263505],[117.9556691,24.8246792],[117.9565903,24.8237934],[117.9568828,24.8231794],[117.9569425,24.8227245],[117.9562747,24.8218334],[117.9559112,24.8206762],[117.9557948,24.8201183],[117.9560126,24.8195038],[117.9554501,24.8171369],[117.9552151,24.8170227],[117.9545483,24.8169913],[117.9539203,24.816498],[117.9528866,24.8164864],[117.9523236,24.8162321],[117.9533025,24.8144181],[117.9539722,24.8138522],[117.9541771,24.8130337],[117.9543403,24.8120685],[117.9541801,24.8107079],[117.9542707,24.8098944],[117.9541001,24.8091193],[117.9544958,24.8081564],[117.9547157,24.8071694],[117.9546259,24.8067345],[117.9543511,24.8063349],[117.9544406,24.8057417],[117.9550112,24.8050284],[117.9548381,24.8043762],[117.9551942,24.8028423],[117.9552525,24.80147],[117.9555084,24.8009915],[117.9559061,24.8009418],[117.9567508,24.8001902],[117.9573494,24.7989438],[117.9578757,24.7985365],[117.9574792,24.7965073],[117.9564816,24.7965952],[117.9563954,24.7962862],[117.9565445,24.7958858],[117.9562022,24.7954502],[117.9563114,24.794899],[117.9567379,24.7945232],[117.956937,24.7934213],[117.9563514,24.7926138],[117.9556484,24.7922899],[117.9553193,24.7918333],[117.9555353,24.7912879],[117.9552206,24.7903202],[117.9554703,24.7898613],[117.9555164,24.7890068],[117.9558786,24.7885009],[117.9559673,24.7881356],[117.9554436,24.7876399],[117.955222,24.7866761],[117.9555932,24.7853112],[117.9551855,24.7836725],[117.955233,24.783208],[117.9548881,24.7825443],[117.9548911,24.7815148],[117.9539098,24.7814083],[117.9533857,24.7800291],[117.9523391,24.7789992],[117.9524215,24.7780671],[117.9520134,24.7767218],[117.9511662,24.7755279],[117.9498621,24.7754113],[117.949961,24.7746825],[117.9489513,24.7735744],[117.9489553,24.7730393],[117.9493247,24.7725272],[117.9494451,24.7720422],[117.9489209,24.7714086],[117.9490284,24.7705998],[117.9493475,24.7700021],[117.949957,24.7696749],[117.9495823,24.7686281],[117.9485879,24.7687535],[117.9477564,24.7678399],[117.9471235,24.7673375],[117.9463207,24.7673353],[117.9448611,24.7668919],[117.9443942,24.7668821],[117.9427829,24.7662927],[117.9419626,24.7664683],[117.9410028,24.7664558],[117.9397449,24.7657601],[117.9394261,24.7653898],[117.9395634,24.7649949],[117.9404442,24.764618],[117.9418129,24.7632874],[117.9419287,24.7629907],[117.9415912,24.7623656],[117.9418277,24.7616634],[117.941408,24.7600774],[117.941403,24.7593352],[117.9407179,24.7583483],[117.9409394,24.7567259],[117.940191,24.7561068],[117.9400498,24.7558355],[117.9403328,24.7549225],[117.9406315,24.7544465],[117.9386615,24.7518589],[117.9359844,24.7454758],[117.9355819,24.7398346],[117.9366445,24.7375941],[117.9361205,24.736145],[117.9369113,24.7347022],[117.9372084,24.733115],[117.9398225,24.7275318],[117.9406142,24.7228208],[117.9420519,24.7204429],[117.9419671,24.716935],[117.9423121,24.715749],[117.9464824,24.7115427],[117.9481069,24.7112568],[117.9500116,24.710328],[117.9508367,24.7088598],[117.9513035,24.7071532],[117.9508424,24.7062997],[117.9499615,24.7061386],[117.9491516,24.7057355],[117.9492006,24.703678],[117.949831,24.7032025],[117.9494071,24.7028325],[117.9504647,24.7013118],[117.9521833,24.7001947],[117.9535825,24.6975795],[117.9538681,24.6968118],[117.9553142,24.6929237],[117.9559575,24.6918897],[117.956085,24.691363],[117.956112,24.690232],[117.9568287,24.6893978],[117.957093,24.688283],[117.957698,24.68757],[117.958217,24.686532],[117.958773,24.685758],[117.958718,24.685133],[117.959305,24.684823],[117.959777,24.683877],[117.959645,24.682443],[117.95984,24.681335],[117.959613,24.680598],[117.959398,24.680142],[117.959902,24.679262],[117.959962,24.678293],[117.9604514,24.6774903],[117.96044,24.676762],[117.960852,24.676042],[117.959792,24.67511],[117.959255,24.674022],[117.958755,24.673532],[117.9583057,24.6734603],[117.9571615,24.6714504],[117.957075,24.670578],[117.958746,24.6685674],[117.9611189,24.6649812],[117.960747,24.6645307],[117.955655,24.660332],[117.9537998,24.6595689],[117.9522942,24.6593433],[117.9508744,24.6582013],[117.9503796,24.6570199],[117.9500199,24.6549836],[117.9495717,24.6530654],[117.9485548,24.6507791],[117.9463628,24.6494654],[117.9442147,24.649655],[117.9433302,24.6496332],[117.9416127,24.6485194],[117.9396802,24.6469675],[117.9387967,24.6464572],[117.9379534,24.644516],[117.9373698,24.6440399],[117.93691,24.643172],[117.936773,24.64195],[117.9360409,24.6413435],[117.934413,24.640722],[117.932737,24.640702],[117.929922,24.6394806],[117.92794,24.638268],[117.927302,24.63764],[117.92579,24.636178],[117.923276,24.6322153],[117.922855,24.631845],[117.9227413,24.6308488],[117.921915,24.629667],[117.922012,24.629312],[117.920987,24.626485],[117.920708,24.625143],[117.9206401,24.6245948],[117.920403,24.623995],[117.9204,24.623567],[117.919915,24.622527],[117.919187,24.621952],[117.9187612,24.6214948],[117.918378,24.621303],[117.918172,24.621095],[117.917958,24.62084],[117.917846,24.6205605],[117.917472,24.620138],[117.9172518,24.6195924],[117.916907,24.619562],[117.916593,24.61939],[117.916382,24.61859],[117.916478,24.618113],[117.916702,24.617792],[117.91643,24.617377],[117.916252,24.617183],[117.915942,24.616802],[117.91577,24.616565],[117.915312,24.616467],[117.914972,24.616528],[117.9143891,24.6165298],[117.913742,24.616393],[117.913388,24.61675],[117.913072,24.616875],[117.91275,24.616898],[117.912448,24.616855],[117.9120688,24.6169961],[117.9117752,24.6171636],[117.911368,24.617225],[117.911075,24.61721],[117.910855,24.617152],[117.91053,24.616683],[117.9102536,24.616549],[117.910112,24.61653],[117.909947,24.616592],[117.909467,24.616587],[117.909115,24.616758],[117.908455,24.6169],[117.908307,24.61688],[117.9080599,24.6166734],[117.907967,24.616427],[117.907213,24.616077],[117.9069,24.616115],[117.906513,24.616353],[117.90619,24.61635],[117.906177,24.616102],[117.905857,24.616172],[117.9058427,24.6164431],[117.9049357,24.6166225],[117.9047819,24.6164294],[117.9048396,24.6163101],[117.9044179,24.6161291],[117.9039819,24.6161673],[117.9036594,24.6165147],[117.9032327,24.6170751],[117.9027118,24.6171716],[117.9005859,24.6170462],[117.9003259,24.6166599],[117.8999076,24.6167719],[117.8993175,24.6167669],[117.8988348,24.6166253],[117.8985666,24.6163667],[117.8945526,24.6167214],[117.8943721,24.6173259],[117.8937196,24.6175793],[117.890994,24.6175184],[117.8906001,24.6167085],[117.889765,24.6169774],[117.8882681,24.6177592],[117.887784,24.61447],[117.8857811,24.6074026],[117.8887198,24.6031539],[117.8887183,24.6015163],[117.8884923,24.6004297],[117.8873571,24.5995226],[117.8859216,24.5988105],[117.8859233,24.5974438],[117.8850911,24.5953513],[117.8836912,24.5945684],[117.8822986,24.5942114],[117.882185,24.5933146]]]}}]}
